<?xml version="1.0" encoding="UTF-8"?>
<gpx xmlns="http://www.topografix.com/GPX/1/1" xmlns:gpxtpx="http://www.garmin.com/xmlschemas/TrackPointExtension/v1" xmlns:xsi="http://www.w3.org/2001/XMLSchema-instance" xsi:schemaLocation="http://www.topografix.com/GPX/1/1 http://www.topografix.com/GPX/1/1/gpx.xsd" version="1.1" creator="gpx.py -- https://github.com/tkrajina/gpxpy">
  <trk>
    <name>gpx from keep</name>
    <type>Walk</type>
    <trkseg>
      <trkpt lat="22.39454886567827" lon="107.3716944153399">
        <ele>130.1083924844861</ele>
        <time>2026-03-22T16:03:50Z</time>
      </trkpt>
      <trkpt lat="22.394586605891565" lon="107.37152223911225">
        <ele>130.31584405433387</ele>
        <time>2026-03-22T16:04:04Z</time>
      </trkpt>
      <trkpt lat="22.39456601188069" lon="107.37137363986999">
        <ele>128.2889313576743</ele>
        <time>2026-03-22T16:04:15Z</time>
      </trkpt>
      <trkpt lat="22.394595450514057" lon="107.37131213607313">
        <ele>129.44348886981606</ele>
        <time>2026-03-22T16:04:19Z</time>
      </trkpt>
      <trkpt lat="22.394565821917848" lon="107.37093262795034">
        <ele>131.17523575760424</ele>
        <time>2026-03-22T16:04:55Z</time>
      </trkpt>
      <trkpt lat="22.394550659650577" lon="107.37083928032817">
        <ele>129.63337862398475</ele>
        <time>2026-03-22T16:05:03Z</time>
      </trkpt>
      <trkpt lat="22.394547005513257" lon="107.37051456127126">
        <ele>130.5101662222296</ele>
        <time>2026-03-22T16:05:35Z</time>
      </trkpt>
      <trkpt lat="22.394554135473097" lon="107.37042524492064">
        <ele>130.07708899397403</ele>
        <time>2026-03-22T16:05:43Z</time>
      </trkpt>
      <trkpt lat="22.394515289943318" lon="107.37027628551488">
        <ele>129.47153787314892</ele>
        <time>2026-03-22T16:05:57Z</time>
      </trkpt>
      <trkpt lat="22.394560523707103" lon="107.37018854421791">
        <ele>131.29492012504488</ele>
        <time>2026-03-22T16:06:03Z</time>
      </trkpt>
      <trkpt lat="22.3945844525765" lon="107.37004093722172">
        <ele>130.80424335040152</ele>
        <time>2026-03-22T16:06:18Z</time>
      </trkpt>
      <trkpt lat="22.39461091164128" lon="107.36997653968986">
        <ele>129.63049416895956</ele>
        <time>2026-03-22T16:06:24Z</time>
      </trkpt>
      <trkpt lat="22.394644181408008" lon="107.36994144227387">
        <ele>131.36979099735618</ele>
        <time>2026-03-22T16:06:27Z</time>
      </trkpt>
      <trkpt lat="22.394544480186823" lon="107.36963497959142">
        <ele>128.84873336087912</ele>
        <time>2026-03-22T16:06:51Z</time>
      </trkpt>
      <trkpt lat="22.394539354009147" lon="107.3695536148404">
        <ele>129.5688457665965</ele>
        <time>2026-03-22T16:06:57Z</time>
      </trkpt>
      <trkpt lat="22.394551747929302" lon="107.36950142844402">
        <ele>128.2666276358068</ele>
        <time>2026-03-22T16:07:01Z</time>
      </trkpt>
      <trkpt lat="22.394526031405462" lon="107.3693952920858">
        <ele>127.7588196368888</ele>
        <time>2026-03-22T16:07:09Z</time>
      </trkpt>
      <trkpt lat="22.39455045263931" lon="107.36930520021434">
        <ele>129.07059230469167</ele>
        <time>2026-03-22T16:07:17Z</time>
      </trkpt>
      <trkpt lat="22.394504235458975" lon="107.36927504836461">
        <ele>129.8106794692576</ele>
        <time>2026-03-22T16:07:21Z</time>
      </trkpt>
      <trkpt lat="22.394520975376146" lon="107.36922942662166">
        <ele>130.37410436663777</ele>
        <time>2026-03-22T16:07:29Z</time>
      </trkpt>
      <trkpt lat="22.39430174241133" lon="107.36923166407514">
        <ele>129.0399381723255</ele>
        <time>2026-03-22T16:07:49Z</time>
      </trkpt>
      <trkpt lat="22.394198183188923" lon="107.36921401460876">
        <ele>129.43305578362197</ele>
        <time>2026-03-22T16:07:57Z</time>
      </trkpt>
      <trkpt lat="22.394065829878535" lon="107.36924326813327">
        <ele>130.71863085683435</ele>
        <time>2026-03-22T16:08:06Z</time>
      </trkpt>
      <trkpt lat="22.39400350174436" lon="107.36927538429612">
        <ele>130.3523504808545</ele>
        <time>2026-03-22T16:08:12Z</time>
      </trkpt>
      <trkpt lat="22.393758971009152" lon="107.36925156997988">
        <ele>130.53288889303803</ele>
        <time>2026-03-22T16:08:36Z</time>
      </trkpt>
      <trkpt lat="22.393630185486817" lon="107.36927672950625">
        <ele>129.34146227873862</ele>
        <time>2026-03-22T16:08:45Z</time>
      </trkpt>
      <trkpt lat="22.393310388523215" lon="107.36925828332201">
        <ele>130.47605105582625</ele>
        <time>2026-03-22T16:09:18Z</time>
      </trkpt>
      <trkpt lat="22.39324240755968" lon="107.36927415428923">
        <ele>132.18733354192227</ele>
        <time>2026-03-22T16:09:24Z</time>
      </trkpt>
      <trkpt lat="22.393192246299236" lon="107.36937416165318">
        <ele>132.1099602431059</ele>
        <time>2026-03-22T16:09:30Z</time>
      </trkpt>
      <trkpt lat="22.39315293640073" lon="107.36940733079035">
        <ele>132.08428354840726</ele>
        <time>2026-03-22T16:09:33Z</time>
      </trkpt>
      <trkpt lat="22.39309665935698" lon="107.36952316049094">
        <ele>129.95781784690917</ele>
        <time>2026-03-22T16:09:42Z</time>
      </trkpt>
      <trkpt lat="22.39309665935698" lon="107.36952316049094">
        <ele>129.95781784690917</ele>
        <time>2026-03-22T16:09:52Z</time>
      </trkpt>
    </trkseg>
  </trk>
</gpx>