<?xml version="1.0" encoding="UTF-8"?>
<gpx xmlns="http://www.topografix.com/GPX/1/1" xmlns:gpxtpx="http://www.garmin.com/xmlschemas/TrackPointExtension/v1" xmlns:xsi="http://www.w3.org/2001/XMLSchema-instance" xsi:schemaLocation="http://www.topografix.com/GPX/1/1 http://www.topografix.com/GPX/1/1/gpx.xsd" version="1.1" creator="gpx.py -- https://github.com/tkrajina/gpxpy">
  <trk>
    <name>gpx from keep</name>
    <type>Walk</type>
    <trkseg>
      <trkpt lat="22.39300844427867" lon="107.36974843408102">
        <ele>128.8404433792457</ele>
        <time>2026-03-09T05:32:12Z</time>
      </trkpt>
      <trkpt lat="22.392986841265518" lon="107.36987792847329">
        <ele>128.2012520544231</ele>
        <time>2026-03-09T05:32:24Z</time>
      </trkpt>
      <trkpt lat="22.3931160443646" lon="107.37001020296125">
        <ele>129.4857268501073</ele>
        <time>2026-03-09T05:32:40Z</time>
      </trkpt>
      <trkpt lat="22.3934277592422" lon="107.36994649288894">
        <ele>130.1024382794276</ele>
        <time>2026-03-09T05:33:08Z</time>
      </trkpt>
      <trkpt lat="22.39360874225461" lon="107.36996794884716">
        <ele>129.10022717434913</ele>
        <time>2026-03-09T05:33:24Z</time>
      </trkpt>
      <trkpt lat="22.39366138640925" lon="107.36999880570103">
        <ele>128.75607030000538</ele>
        <time>2026-03-09T05:33:30Z</time>
      </trkpt>
      <trkpt lat="22.393698607437422" lon="107.37006253278034">
        <ele>129.07495439611375</ele>
        <time>2026-03-09T05:33:36Z</time>
      </trkpt>
      <trkpt lat="22.393716039311354" lon="107.37022298251419">
        <ele>128.91610481403768</ele>
        <time>2026-03-09T05:33:48Z</time>
      </trkpt>
      <trkpt lat="22.393685152810285" lon="107.37046709104385">
        <ele>128.28824123647064</ele>
        <time>2026-03-09T05:34:12Z</time>
      </trkpt>
      <trkpt lat="22.393708298871566" lon="107.37059689769107">
        <ele>128.84783599339426</ele>
        <time>2026-03-09T05:34:25Z</time>
      </trkpt>
      <trkpt lat="22.393718694283052" lon="107.3707438751223">
        <ele>130.0483167571947</ele>
        <time>2026-03-09T05:34:41Z</time>
      </trkpt>
      <trkpt lat="22.393751892585474" lon="107.37083456685636">
        <ele>129.12696572951972</ele>
        <time>2026-03-09T05:34:49Z</time>
      </trkpt>
      <trkpt lat="22.393740649792125" lon="107.37091578574626">
        <ele>129.02443930786103</ele>
        <time>2026-03-09T05:34:57Z</time>
      </trkpt>
      <trkpt lat="22.393783906785348" lon="107.37104144570795">
        <ele>130.5964259877801</ele>
        <time>2026-03-09T05:35:13Z</time>
      </trkpt>
      <trkpt lat="22.39378936851496" lon="107.37115503455689">
        <ele>129.63688372913748</ele>
        <time>2026-03-09T05:35:21Z</time>
      </trkpt>
      <trkpt lat="22.393860509179383" lon="107.37117196342221">
        <ele>131.4326099511236</ele>
        <time>2026-03-09T05:35:29Z</time>
      </trkpt>
      <trkpt lat="22.393909163407443" lon="107.37113944692639">
        <ele>131.9685067962855</ele>
        <time>2026-03-09T05:35:35Z</time>
      </trkpt>
      <trkpt lat="22.39393193793406" lon="107.3713372091772">
        <ele>131.6465599052608</ele>
        <time>2026-03-09T05:35:53Z</time>
      </trkpt>
      <trkpt lat="22.393977453372965" lon="107.37131630291296">
        <ele>130.7521951077506</ele>
        <time>2026-03-09T05:36:01Z</time>
      </trkpt>
      <trkpt lat="22.393939354783633" lon="107.37152887165112">
        <ele>131.94442187309267</ele>
        <time>2026-03-09T05:36:19Z</time>
      </trkpt>
      <trkpt lat="22.393995758513107" lon="107.37143383790483">
        <ele>138.06442187309267</ele>
        <time>2026-03-09T05:36:40Z</time>
      </trkpt>
      <trkpt lat="22.39408653580751" lon="107.37138670229768">
        <ele>139.03442187309264</ele>
        <time>2026-03-09T05:36:53Z</time>
      </trkpt>
      <trkpt lat="22.39408825375236" lon="107.3714638058502">
        <ele>139.03442187309264</ele>
        <time>2026-03-09T05:37:12Z</time>
      </trkpt>
      <trkpt lat="22.394073079317696" lon="107.37140889975147">
        <ele>139.03442187309264</ele>
        <time>2026-03-09T05:37:19Z</time>
      </trkpt>
      <trkpt lat="22.394134586515325" lon="107.37141340009765">
        <ele>139.03442187309264</ele>
        <time>2026-03-09T05:37:25Z</time>
      </trkpt>
    </trkseg>
  </trk>
</gpx>