<?xml version="1.0" encoding="UTF-8"?>
<gpx xmlns="http://www.topografix.com/GPX/1/1" xmlns:gpxtpx="http://www.garmin.com/xmlschemas/TrackPointExtension/v1" xmlns:xsi="http://www.w3.org/2001/XMLSchema-instance" xsi:schemaLocation="http://www.topografix.com/GPX/1/1 http://www.topografix.com/GPX/1/1/gpx.xsd" version="1.1" creator="gpx.py -- https://github.com/tkrajina/gpxpy">
  <trk>
    <name>gpx from keep</name>
    <type>Walk</type>
    <trkseg>
      <trkpt lat="22.394586180402573" lon="107.36884380346714">
        <ele>128.2740938878945</ele>
        <time>2026-03-23T05:26:04Z</time>
      </trkpt>
      <trkpt lat="22.394567349207826" lon="107.36898984440776">
        <ele>129.13061901554465</ele>
        <time>2026-03-23T05:26:20Z</time>
      </trkpt>
      <trkpt lat="22.394586010678267" lon="107.36903647776198">
        <ele>128.92024739272892</ele>
        <time>2026-03-23T05:26:24Z</time>
      </trkpt>
      <trkpt lat="22.39454389442841" lon="107.36926362849813">
        <ele>128.52003262285143</ele>
        <time>2026-03-23T05:26:36Z</time>
      </trkpt>
      <trkpt lat="22.394560980227013" lon="107.36931304800423">
        <ele>128.64233258645982</ele>
        <time>2026-03-23T05:26:44Z</time>
      </trkpt>
      <trkpt lat="22.39454865625296" lon="107.36937010393862">
        <ele>129.61401508096606</ele>
        <time>2026-03-23T05:26:48Z</time>
      </trkpt>
      <trkpt lat="22.394579117562806" lon="107.36943509860676">
        <ele>131.78675725497305</ele>
        <time>2026-03-23T05:26:52Z</time>
      </trkpt>
      <trkpt lat="22.39459086218616" lon="107.3696734099183">
        <ele>130.10245328117162</ele>
        <time>2026-03-23T05:27:08Z</time>
      </trkpt>
      <trkpt lat="22.39456879731966" lon="107.36984550539684">
        <ele>129.69336400087923</ele>
        <time>2026-03-23T05:27:24Z</time>
      </trkpt>
      <trkpt lat="22.394585899629156" lon="107.37019826474629">
        <ele>132.6182114733383</ele>
        <time>2026-03-23T05:27:52Z</time>
      </trkpt>
      <trkpt lat="22.394558540117128" lon="107.37033090244626">
        <ele>131.69549520127475</ele>
        <time>2026-03-23T05:28:04Z</time>
      </trkpt>
      <trkpt lat="22.394577111934673" lon="107.37062374050676">
        <ele>133.3180023478344</ele>
        <time>2026-03-23T05:28:24Z</time>
      </trkpt>
      <trkpt lat="22.39459485588859" lon="107.37071186599819">
        <ele>133.23945736140013</ele>
        <time>2026-03-23T05:28:30Z</time>
      </trkpt>
      <trkpt lat="22.39455900760249" lon="107.37085730993898">
        <ele>131.78299737069756</ele>
        <time>2026-03-23T05:28:42Z</time>
      </trkpt>
      <trkpt lat="22.3945751948047" lon="107.3710172555867">
        <ele>130.7479951158166</ele>
        <time>2026-03-23T05:28:54Z</time>
      </trkpt>
      <trkpt lat="22.394541021737723" lon="107.37124283209094">
        <ele>128.8373897569254</ele>
        <time>2026-03-23T05:29:12Z</time>
      </trkpt>
      <trkpt lat="22.394571381363303" lon="107.3713239244998">
        <ele>130.78845012560487</ele>
        <time>2026-03-23T05:29:18Z</time>
      </trkpt>
      <trkpt lat="22.394579014157333" lon="107.37146618268444">
        <ele>130.505718274042</ele>
        <time>2026-03-23T05:29:30Z</time>
      </trkpt>
      <trkpt lat="22.394524467031577" lon="107.37162348958456">
        <ele>131.1573357647285</ele>
        <time>2026-03-23T05:29:42Z</time>
      </trkpt>
      <trkpt lat="22.394526540603596" lon="107.37178276024999">
        <ele>131.41685626469553</ele>
        <time>2026-03-23T05:29:54Z</time>
      </trkpt>
      <trkpt lat="22.394502822257618" lon="107.37194108054697">
        <ele>129.6239944882691</ele>
        <time>2026-03-23T05:30:06Z</time>
      </trkpt>
      <trkpt lat="22.39451162576656" lon="107.37201305984928">
        <ele>128.69207797199488</ele>
        <time>2026-03-23T05:30:12Z</time>
      </trkpt>
      <trkpt lat="22.394574430740054" lon="107.37212934863092">
        <ele>127.241460127756</ele>
        <time>2026-03-23T05:30:22Z</time>
      </trkpt>
      <trkpt lat="22.394707962398662" lon="107.37214601193337">
        <ele>125.43690603971481</ele>
        <time>2026-03-23T05:30:32Z</time>
      </trkpt>
      <trkpt lat="22.39497895284533" lon="107.37225846549676">
        <ele>125.31781928427517</ele>
        <time>2026-03-23T05:30:57Z</time>
      </trkpt>
      <trkpt lat="22.395110854693705" lon="107.3723132516981">
        <ele>125.36730366107076</ele>
        <time>2026-03-23T05:31:10Z</time>
      </trkpt>
      <trkpt lat="22.395164790285623" lon="107.37236326515765">
        <ele>126.46594859752804</ele>
        <time>2026-03-23T05:31:16Z</time>
      </trkpt>
      <trkpt lat="22.395224052929933" lon="107.37231239126703">
        <ele>125.20328774955124</ele>
        <time>2026-03-23T05:31:22Z</time>
      </trkpt>
      <trkpt lat="22.395263886692213" lon="107.37234159612737">
        <ele>126.70761227421463</ele>
        <time>2026-03-23T05:31:28Z</time>
      </trkpt>
      <trkpt lat="22.395350042928772" lon="107.37234637474847">
        <ele>127.47824153862894</ele>
        <time>2026-03-23T05:32:07Z</time>
      </trkpt>
      <trkpt lat="22.395673110786117" lon="107.37243134153715">
        <ele>129.3640009276569</ele>
        <time>2026-03-23T05:32:13Z</time>
      </trkpt>
      <trkpt lat="22.395910735385662" lon="107.3724949062551">
        <ele>127.54644419904798</ele>
        <time>2026-03-23T05:32:16Z</time>
      </trkpt>
      <trkpt lat="22.39642161335661" lon="107.37259831052262">
        <ele>125.84368976205587</ele>
        <time>2026-03-23T05:32:22Z</time>
      </trkpt>
      <trkpt lat="22.396673989167915" lon="107.37259951332992">
        <ele>123.91859050001949</ele>
        <time>2026-03-23T05:32:29Z</time>
      </trkpt>
      <trkpt lat="22.396640512799788" lon="107.37234139893862">
        <ele>122.76884546969086</ele>
        <time>2026-03-23T05:32:33Z</time>
      </trkpt>
      <trkpt lat="22.396633278749157" lon="107.37196240077063">
        <ele>124.50050478242338</ele>
        <time>2026-03-23T05:32:37Z</time>
      </trkpt>
      <trkpt lat="22.396575052301138" lon="107.37089268923233">
        <ele>123.6132084717974</ele>
        <time>2026-03-23T05:32:45Z</time>
      </trkpt>
      <trkpt lat="22.396485674407614" lon="107.37038211875013">
        <ele>124.86144503485411</ele>
        <time>2026-03-23T05:32:49Z</time>
      </trkpt>
      <trkpt lat="22.396391881652953" lon="107.36984675540165">
        <ele>126.69119460042566</ele>
        <time>2026-03-23T05:32:53Z</time>
      </trkpt>
      <trkpt lat="22.39626310565209" lon="107.36934741843183">
        <ele>127.05942745879292</ele>
        <time>2026-03-23T05:32:57Z</time>
      </trkpt>
      <trkpt lat="22.396122307150872" lon="107.36885151402251">
        <ele>128.4749243799597</ele>
        <time>2026-03-23T05:33:01Z</time>
      </trkpt>
      <trkpt lat="22.395986432307726" lon="107.36843518586718">
        <ele>128.40588160417974</ele>
        <time>2026-03-23T05:33:05Z</time>
      </trkpt>
      <trkpt lat="22.39597245545678" lon="107.36817179164545">
        <ele>127.58095162827522</ele>
        <time>2026-03-23T05:33:09Z</time>
      </trkpt>
      <trkpt lat="22.396170435161743" lon="107.36793998519057">
        <ele>126.72513914201409</ele>
        <time>2026-03-23T05:33:13Z</time>
      </trkpt>
      <trkpt lat="22.396494182669326" lon="107.36780929220566">
        <ele>125.77488089445978</ele>
        <time>2026-03-23T05:33:17Z</time>
      </trkpt>
      <trkpt lat="22.3969253881021" lon="107.36758343898434">
        <ele>124.53827132750303</ele>
        <time>2026-03-23T05:33:21Z</time>
      </trkpt>
      <trkpt lat="22.397500171826326" lon="107.36731450649789">
        <ele>123.0336529891938</ele>
        <time>2026-03-23T05:33:25Z</time>
      </trkpt>
      <trkpt lat="22.398133293246687" lon="107.36703484342452">
        <ele>121.61473288014531</ele>
        <time>2026-03-23T05:33:29Z</time>
      </trkpt>
      <trkpt lat="22.39876760278717" lon="107.3667409561053">
        <ele>120.18877819087356</ele>
        <time>2026-03-23T05:33:33Z</time>
      </trkpt>
      <trkpt lat="22.399378922095526" lon="107.36642033820385">
        <ele>118.76618894282728</ele>
        <time>2026-03-23T05:33:37Z</time>
      </trkpt>
      <trkpt lat="22.399936875588416" lon="107.36606467091586">
        <ele>117.6804184531793</ele>
        <time>2026-03-23T05:33:41Z</time>
      </trkpt>
      <trkpt lat="22.400250132639265" lon="107.36573824190945">
        <ele>116.99153675325215</ele>
        <time>2026-03-23T05:33:45Z</time>
      </trkpt>
      <trkpt lat="22.40052987656033" lon="107.36551007206594">
        <ele>116.10651333909482</ele>
        <time>2026-03-23T05:33:53Z</time>
      </trkpt>
      <trkpt lat="22.40069803971283" lon="107.365375032151">
        <ele>115.89456046372652</ele>
        <time>2026-03-23T05:33:57Z</time>
      </trkpt>
      <trkpt lat="22.400912060440124" lon="107.36517175870132">
        <ele>115.14007925894111</ele>
        <time>2026-03-23T05:34:01Z</time>
      </trkpt>
      <trkpt lat="22.40110926743122" lon="107.36490203428724">
        <ele>113.62611897755414</ele>
        <time>2026-03-23T05:34:05Z</time>
      </trkpt>
      <trkpt lat="22.401333067383494" lon="107.36459265895061">
        <ele>113.30744666885585</ele>
        <time>2026-03-23T05:34:09Z</time>
      </trkpt>
      <trkpt lat="22.401599398828328" lon="107.3642636679529">
        <ele>114.34972128551453</ele>
        <time>2026-03-23T05:34:13Z</time>
      </trkpt>
      <trkpt lat="22.40184779782621" lon="107.36390132116226">
        <ele>113.00169450417161</ele>
        <time>2026-03-23T05:34:17Z</time>
      </trkpt>
      <trkpt lat="22.402082071487374" lon="107.36352279297498">
        <ele>109.9947426430881</ele>
        <time>2026-03-23T05:34:21Z</time>
      </trkpt>
      <trkpt lat="22.40232353615274" lon="107.3631390629979">
        <ele>107.57045890856534</ele>
        <time>2026-03-23T05:34:25Z</time>
      </trkpt>
      <trkpt lat="22.40253519213398" lon="107.36277379424646">
        <ele>106.29110100585967</ele>
        <time>2026-03-23T05:34:29Z</time>
      </trkpt>
      <trkpt lat="22.402767145765466" lon="107.36237206500996">
        <ele>105.08360983897</ele>
        <time>2026-03-23T05:34:33Z</time>
      </trkpt>
      <trkpt lat="22.40300672710411" lon="107.36195305744879">
        <ele>103.81635504495353</ele>
        <time>2026-03-23T05:34:37Z</time>
      </trkpt>
      <trkpt lat="22.403270976997455" lon="107.36162382431792">
        <ele>103.49232298787683</ele>
        <time>2026-03-23T05:34:41Z</time>
      </trkpt>
      <trkpt lat="22.403453817858285" lon="107.36138508094183">
        <ele>102.51520525850356</ele>
        <time>2026-03-23T05:34:47Z</time>
      </trkpt>
      <trkpt lat="22.403513209491507" lon="107.36134621953704">
        <ele>102.17406931240112</ele>
        <time>2026-03-23T05:35:29Z</time>
      </trkpt>
      <trkpt lat="22.403668733151097" lon="107.36119117830344">
        <ele>102.29475870355964</ele>
        <time>2026-03-23T05:35:32Z</time>
      </trkpt>
      <trkpt lat="22.403909649229785" lon="107.36099638274246">
        <ele>102.4339364245534</ele>
        <time>2026-03-23T05:35:35Z</time>
      </trkpt>
      <trkpt lat="22.40420060604139" lon="107.36080004282852">
        <ele>104.00823168642819</ele>
        <time>2026-03-23T05:35:38Z</time>
      </trkpt>
      <trkpt lat="22.40453600080536" lon="107.36059754829338">
        <ele>104.71670210920274</ele>
        <time>2026-03-23T05:35:41Z</time>
      </trkpt>
      <trkpt lat="22.40453600080536" lon="107.36059754829338">
        <ele>104.71670210920274</ele>
        <time>2026-03-23T05:35:41Z</time>
      </trkpt>
    </trkseg>
  </trk>
</gpx>