<?xml version="1.0" encoding="UTF-8"?>
<gpx xmlns="http://www.topografix.com/GPX/1/1" xmlns:gpxtpx="http://www.garmin.com/xmlschemas/TrackPointExtension/v1" xmlns:xsi="http://www.w3.org/2001/XMLSchema-instance" xsi:schemaLocation="http://www.topografix.com/GPX/1/1 http://www.topografix.com/GPX/1/1/gpx.xsd" version="1.1" creator="gpx.py -- https://github.com/tkrajina/gpxpy">
  <trk>
    <name>gpx from keep</name>
    <type>Walk</type>
    <trkseg>
      <trkpt lat="22.393967923960712" lon="107.37164251535278">
        <ele>128.91174760926515</ele>
        <time>2023-02-13T10:34:03Z</time>
      </trkpt>
      <trkpt lat="22.39403895878982" lon="107.37164270169976">
        <ele>129.38546601030976</ele>
        <time>2023-02-13T10:34:09Z</time>
      </trkpt>
      <trkpt lat="22.394272445606024" lon="107.37166499416877">
        <ele>129.04900503344834</ele>
        <time>2023-02-13T10:34:42Z</time>
      </trkpt>
      <trkpt lat="22.394212483912526" lon="107.37171661926006">
        <ele>129.00830587558448</ele>
        <time>2023-02-13T10:34:48Z</time>
      </trkpt>
      <trkpt lat="22.3941646591131" lon="107.37171175071995">
        <ele>129.33700560219586</ele>
        <time>2023-02-13T10:34:51Z</time>
      </trkpt>
      <trkpt lat="22.39434952342211" lon="107.37168703279352">
        <ele>129.6011126730591</ele>
        <time>2023-02-13T10:35:03Z</time>
      </trkpt>
      <trkpt lat="22.394563674908966" lon="107.37169299288522">
        <ele>131.64626543968916</ele>
        <time>2023-02-13T10:35:18Z</time>
      </trkpt>
      <trkpt lat="22.39455838693369" lon="107.37162737285084">
        <ele>130.10852615255862</ele>
        <time>2023-02-13T10:35:21Z</time>
      </trkpt>
      <trkpt lat="22.394575276797056" lon="107.37157359197768">
        <ele>129.89358742628247</ele>
        <time>2023-02-13T10:35:27Z</time>
      </trkpt>
      <trkpt lat="22.394617792940114" lon="107.37152908024235">
        <ele>130.0405885912478</ele>
        <time>2023-02-13T10:35:34Z</time>
      </trkpt>
      <trkpt lat="22.39459697011111" lon="107.37145727257598">
        <ele>132.83119328133762</ele>
        <time>2023-02-13T10:35:41Z</time>
      </trkpt>
      <trkpt lat="22.394627798447075" lon="107.37119176950172">
        <ele>135.33630257006735</ele>
        <time>2023-02-13T10:36:02Z</time>
      </trkpt>
      <trkpt lat="22.394524771387793" lon="107.37099479110746">
        <ele>131.3444659728557</ele>
        <time>2023-02-13T10:36:20Z</time>
      </trkpt>
      <trkpt lat="22.394518728649814" lon="107.37093973615046">
        <ele>134.22145523503423</ele>
        <time>2023-02-13T10:36:29Z</time>
      </trkpt>
      <trkpt lat="22.394568548707273" lon="107.37077841067229">
        <ele>132.89905457105488</ele>
        <time>2023-02-13T10:36:38Z</time>
      </trkpt>
      <trkpt lat="22.394612987389557" lon="107.37066935423952">
        <ele>133.70516786444932</ele>
        <time>2023-02-13T10:36:47Z</time>
      </trkpt>
      <trkpt lat="22.39461703082324" lon="107.37059956001667">
        <ele>134.05813371762633</ele>
        <time>2023-02-13T10:36:50Z</time>
      </trkpt>
      <trkpt lat="22.394511555940397" lon="107.37043054165846">
        <ele>132.05952286627144</ele>
        <time>2023-02-13T10:37:08Z</time>
      </trkpt>
      <trkpt lat="22.394499675132174" lon="107.37037601558742">
        <ele>130.41917517315596</ele>
        <time>2023-02-13T10:37:14Z</time>
      </trkpt>
      <trkpt lat="22.394507584422314" lon="107.37032623779345">
        <ele>129.88203734252602</ele>
        <time>2023-02-13T10:37:17Z</time>
      </trkpt>
      <trkpt lat="22.394537488075752" lon="107.37027797778354">
        <ele>130.39767559152097</ele>
        <time>2023-02-13T10:37:20Z</time>
      </trkpt>
      <trkpt lat="22.39452334558791" lon="107.37014232799045">
        <ele>131.78162835072726</ele>
        <time>2023-02-13T10:37:29Z</time>
      </trkpt>
      <trkpt lat="22.39457445770916" lon="107.37005869559246">
        <ele>131.89315593335778</ele>
        <time>2023-02-13T10:37:35Z</time>
      </trkpt>
      <trkpt lat="22.394593019072644" lon="107.36998572473676">
        <ele>132.6070683663711</ele>
        <time>2023-02-13T10:37:51Z</time>
      </trkpt>
      <trkpt lat="22.394539892227552" lon="107.36991028124753">
        <ele>131.97913124691695</ele>
        <time>2023-02-13T10:37:58Z</time>
      </trkpt>
      <trkpt lat="22.39450559457529" lon="107.3698295470585">
        <ele>132.27717374265194</ele>
        <time>2023-02-13T10:38:04Z</time>
      </trkpt>
      <trkpt lat="22.394514364731194" lon="107.36960289506446">
        <ele>131.37259925249964</ele>
        <time>2023-02-13T10:38:22Z</time>
      </trkpt>
      <trkpt lat="22.394533130839417" lon="107.36951482371298">
        <ele>131.58870829921216</ele>
        <time>2023-02-13T10:38:28Z</time>
      </trkpt>
      <trkpt lat="22.39448982576832" lon="107.36948105731048">
        <ele>130.37832089979202</ele>
        <time>2023-02-13T10:38:31Z</time>
      </trkpt>
      <trkpt lat="22.394509805025212" lon="107.36934268908396">
        <ele>131.51594237424433</ele>
        <time>2023-02-13T10:38:40Z</time>
      </trkpt>
      <trkpt lat="22.394545733451924" lon="107.36927797963634">
        <ele>132.29546379484236</ele>
        <time>2023-02-13T10:38:46Z</time>
      </trkpt>
      <trkpt lat="22.394587609519544" lon="107.36931470841286">
        <ele>130.6582574164495</ele>
        <time>2023-02-13T10:38:58Z</time>
      </trkpt>
      <trkpt lat="22.394556727855818" lon="107.36935858348305">
        <ele>129.49272551387548</ele>
        <time>2023-02-13T10:39:01Z</time>
      </trkpt>
      <trkpt lat="22.39458141537824" lon="107.3693993509878">
        <ele>128.27322653401643</ele>
        <time>2023-02-13T10:39:37Z</time>
      </trkpt>
      <trkpt lat="22.39463901180952" lon="107.36942529854075">
        <ele>129.1116743804887</ele>
        <time>2023-02-13T10:39:59Z</time>
      </trkpt>
      <trkpt lat="22.39466445836884" lon="107.36947579524988">
        <ele>129.47044265363365</ele>
        <time>2023-02-13T10:40:03Z</time>
      </trkpt>
      <trkpt lat="22.39460793029094" lon="107.36954003464334">
        <ele>129.67802362889051</ele>
        <time>2023-02-13T10:40:11Z</time>
      </trkpt>
      <trkpt lat="22.39460652677771" lon="107.36961492272226">
        <ele>129.42227520793676</ele>
        <time>2023-02-13T10:40:18Z</time>
      </trkpt>
      <trkpt lat="22.394568255961886" lon="107.36968203618899">
        <ele>130.51296041347086</ele>
        <time>2023-02-13T10:40:24Z</time>
      </trkpt>
      <trkpt lat="22.394571404886552" lon="107.36999506221098">
        <ele>129.67740302812308</ele>
        <time>2023-02-13T10:40:57Z</time>
      </trkpt>
      <trkpt lat="22.39457466718689" lon="107.37029711823668">
        <ele>131.02972914185375</ele>
        <time>2023-02-13T10:41:21Z</time>
      </trkpt>
      <trkpt lat="22.394548262861885" lon="107.37057181287997">
        <ele>130.3993527693674</ele>
        <time>2023-02-13T10:41:45Z</time>
      </trkpt>
      <trkpt lat="22.394592442151563" lon="107.37071145302586">
        <ele>131.92262705042958</ele>
        <time>2023-02-13T10:42:00Z</time>
      </trkpt>
      <trkpt lat="22.394567642730074" lon="107.37101553671702">
        <ele>131.7756323525682</ele>
        <time>2023-02-13T10:42:24Z</time>
      </trkpt>
      <trkpt lat="22.394560996245037" lon="107.37123209648057">
        <ele>132.29157101549208</ele>
        <time>2023-02-13T10:42:41Z</time>
      </trkpt>
      <trkpt lat="22.394605949048394" lon="107.37135474397252">
        <ele>131.8942469516769</ele>
        <time>2023-02-13T10:42:53Z</time>
      </trkpt>
      <trkpt lat="22.39456808625126" lon="107.37148423118015">
        <ele>130.7586463401094</ele>
        <time>2023-02-13T10:43:05Z</time>
      </trkpt>
      <trkpt lat="22.394252247263296" lon="107.37151258455884">
        <ele>130.57008873205632</ele>
        <time>2023-02-13T10:43:35Z</time>
      </trkpt>
      <trkpt lat="22.3940228206527" lon="107.3715457489387">
        <ele>129.64552154485136</ele>
        <time>2023-02-13T10:44:01Z</time>
      </trkpt>
      <trkpt lat="22.394028014448985" lon="107.37159797711399">
        <ele>130.45498052053154</ele>
        <time>2023-02-13T10:44:09Z</time>
      </trkpt>
      <trkpt lat="22.39388373476986" lon="107.37159755533696">
        <ele>129.49703124072403</ele>
        <time>2023-02-13T10:44:25Z</time>
      </trkpt>
      <trkpt lat="22.39383618764356" lon="107.37162192658332">
        <ele>129.06932548061013</ele>
        <time>2023-02-13T10:44:37Z</time>
      </trkpt>
      <trkpt lat="22.39375266952254" lon="107.37158607979696">
        <ele>130.18076908867806</ele>
        <time>2023-02-13T10:44:45Z</time>
      </trkpt>
      <trkpt lat="22.393802351447857" lon="107.37162280231361">
        <ele>128.64484720490873</ele>
        <time>2023-02-13T10:45:33Z</time>
      </trkpt>
      <trkpt lat="22.3937753457159" lon="107.37157014678066">
        <ele>129.91675396915525</ele>
        <time>2023-02-13T10:45:42Z</time>
      </trkpt>
      <trkpt lat="22.393536343373587" lon="107.37153312869997">
        <ele>130.37407434731722</ele>
        <time>2023-02-13T10:46:07Z</time>
      </trkpt>
      <trkpt lat="22.3934822721338" lon="107.37151099270142">
        <ele>129.61830864846706</ele>
        <time>2023-02-13T10:46:13Z</time>
      </trkpt>
      <trkpt lat="22.393361543607288" lon="107.37153671145956">
        <ele>128.7751075224951</ele>
        <time>2023-02-13T10:46:24Z</time>
      </trkpt>
      <trkpt lat="22.393238850603577" lon="107.37148399578803">
        <ele>128.3554058270529</ele>
        <time>2023-02-13T10:46:39Z</time>
      </trkpt>
      <trkpt lat="22.393218520559127" lon="107.37143943447107">
        <ele>128.02318264823407</ele>
        <time>2023-02-13T10:46:45Z</time>
      </trkpt>
      <trkpt lat="22.39324151363834" lon="107.37138884563613">
        <ele>130.87270861957222</ele>
        <time>2023-02-13T10:46:51Z</time>
      </trkpt>
      <trkpt lat="22.39325849605376" lon="107.37115696687151">
        <ele>129.9563748985529</ele>
        <time>2023-02-13T10:47:09Z</time>
      </trkpt>
      <trkpt lat="22.39323526802194" lon="107.3710291881485">
        <ele>130.72818041034043</ele>
        <time>2023-02-13T10:47:21Z</time>
      </trkpt>
      <trkpt lat="22.39324380188562" lon="107.37097887742782">
        <ele>130.13563694711775</ele>
        <time>2023-02-13T10:47:27Z</time>
      </trkpt>
      <trkpt lat="22.39319366482449" lon="107.37100847873371">
        <ele>128.80593980755657</ele>
        <time>2023-02-13T10:47:36Z</time>
      </trkpt>
      <trkpt lat="22.39327189525642" lon="107.37098695498548">
        <ele>129.68896882236004</ele>
        <time>2023-02-13T10:47:39Z</time>
      </trkpt>
      <trkpt lat="22.393291207147556" lon="107.37105044578614">
        <ele>130.73947761394083</ele>
        <time>2023-02-13T10:47:42Z</time>
      </trkpt>
      <trkpt lat="22.393418713078937" lon="107.37115341499842">
        <ele>129.34890020359308</ele>
        <time>2023-02-13T10:47:48Z</time>
      </trkpt>
      <trkpt lat="22.393490288836926" lon="107.37119194765819">
        <ele>130.10254111420363</ele>
        <time>2023-02-13T10:47:51Z</time>
      </trkpt>
      <trkpt lat="22.393575358531244" lon="107.3712944684826">
        <ele>130.10531618632376</ele>
        <time>2023-02-13T10:48:00Z</time>
      </trkpt>
      <trkpt lat="22.393683470241378" lon="107.37136529032854">
        <ele>130.4033370865509</ele>
        <time>2023-02-13T10:48:09Z</time>
      </trkpt>
      <trkpt lat="22.39378843847675" lon="107.37139023349268">
        <ele>130.62169470265508</ele>
        <time>2023-02-13T10:48:21Z</time>
      </trkpt>
      <trkpt lat="22.39388859408337" lon="107.37138954698231">
        <ele>129.82113969977945</ele>
        <time>2023-02-13T10:48:29Z</time>
      </trkpt>
      <trkpt lat="22.393987257601083" lon="107.37137336284604">
        <ele>137.81344604492188</ele>
        <time>2023-02-13T10:49:53Z</time>
      </trkpt>
      <trkpt lat="22.394100675627023" lon="107.3715623060612">
        <ele>137.8134765625</ele>
        <time>2023-02-13T10:50:38Z</time>
      </trkpt>
      <trkpt lat="22.394166679676662" lon="107.37151313491061">
        <ele>137.8134765625</ele>
        <time>2023-02-13T10:50:51Z</time>
      </trkpt>
    </trkseg>
  </trk>
</gpx>