<?xml version="1.0" encoding="UTF-8"?>
<gpx xmlns="http://www.topografix.com/GPX/1/1" xmlns:gpxtpx="http://www.garmin.com/xmlschemas/TrackPointExtension/v1" xmlns:xsi="http://www.w3.org/2001/XMLSchema-instance" xsi:schemaLocation="http://www.topografix.com/GPX/1/1 http://www.topografix.com/GPX/1/1/gpx.xsd" version="1.1" creator="gpx.py -- https://github.com/tkrajina/gpxpy">
  <trk>
    <name>gpx from keep</name>
    <type>Walk</type>
    <trkseg>
      <trkpt lat="22.400360923678686" lon="107.39010847382076">
        <ele>136.40792100717047</ele>
        <time>2026-03-30T14:52:47Z</time>
      </trkpt>
      <trkpt lat="22.400345638722825" lon="107.39018852749612">
        <ele>136.40872782949418</ele>
        <time>2026-03-30T14:52:59Z</time>
      </trkpt>
      <trkpt lat="22.40023853406293" lon="107.39010613593459">
        <ele>139.7455931046245</ele>
        <time>2026-03-30T14:53:03Z</time>
      </trkpt>
      <trkpt lat="22.4001172793949" lon="107.39006300764713">
        <ele>136.01388014107943</ele>
        <time>2026-03-30T14:53:15Z</time>
      </trkpt>
      <trkpt lat="22.39999864753747" lon="107.39016888273942">
        <ele>140.56792100717047</ele>
        <time>2026-03-30T14:53:36Z</time>
      </trkpt>
      <trkpt lat="22.39995437911915" lon="107.39024588458706">
        <ele>140.56792100717047</ele>
        <time>2026-03-30T14:53:40Z</time>
      </trkpt>
      <trkpt lat="22.399940213758878" lon="107.39067489238455">
        <ele>139.8452821392566</ele>
        <time>2026-03-30T14:53:53Z</time>
      </trkpt>
      <trkpt lat="22.400047489092184" lon="107.39053502432677">
        <ele>141.9446846069768</ele>
        <time>2026-03-30T14:54:04Z</time>
      </trkpt>
      <trkpt lat="22.400004658585434" lon="107.39063253406829">
        <ele>139.81181133072823</ele>
        <time>2026-03-30T14:54:22Z</time>
      </trkpt>
      <trkpt lat="22.400010284341157" lon="107.39072770313008">
        <ele>138.44763170275837</ele>
        <time>2026-03-30T14:54:28Z</time>
      </trkpt>
      <trkpt lat="22.39996986227925" lon="107.39077534855902">
        <ele>138.93135568127036</ele>
        <time>2026-03-30T14:54:31Z</time>
      </trkpt>
      <trkpt lat="22.39990716972195" lon="107.39079717432116">
        <ele>142.89429302327335</ele>
        <time>2026-03-30T14:54:35Z</time>
      </trkpt>
      <trkpt lat="22.399868065599364" lon="107.39083586948965">
        <ele>148.09911792725325</ele>
        <time>2026-03-30T14:54:38Z</time>
      </trkpt>
      <trkpt lat="22.3998224433642" lon="107.39084988896458">
        <ele>148.2487915866077</ele>
        <time>2026-03-30T14:54:43Z</time>
      </trkpt>
      <trkpt lat="22.39982728901902" lon="107.39091474568599">
        <ele>146.38198706973344</ele>
        <time>2026-03-30T14:54:52Z</time>
      </trkpt>
      <trkpt lat="22.399979079961483" lon="107.39098790471954">
        <ele>143.66787391062826</ele>
        <time>2026-03-30T14:55:17Z</time>
      </trkpt>
      <trkpt lat="22.400079893175437" lon="107.39097863490075">
        <ele>142.26287484541535</ele>
        <time>2026-03-30T14:55:29Z</time>
      </trkpt>
    </trkseg>
  </trk>
</gpx>