<?xml version="1.0" encoding="UTF-8"?>
<gpx xmlns="http://www.topografix.com/GPX/1/1" xmlns:gpxtpx="http://www.garmin.com/xmlschemas/TrackPointExtension/v1" xmlns:xsi="http://www.w3.org/2001/XMLSchema-instance" xsi:schemaLocation="http://www.topografix.com/GPX/1/1 http://www.topografix.com/GPX/1/1/gpx.xsd" version="1.1" creator="gpx.py -- https://github.com/tkrajina/gpxpy">
  <trk>
    <name>gpx from keep</name>
    <type>Ride</type>
    <trkseg>
      <trkpt lat="22.647301206378717" lon="107.60926765875766">
        <ele>99.47140502929688</ele>
        <time>2023-01-31T08:45:00Z</time>
      </trkpt>
      <trkpt lat="22.64738649901628" lon="107.6093812666161">
        <ele>99.47206115722656</ele>
        <time>2023-01-31T08:45:08Z</time>
      </trkpt>
      <trkpt lat="22.647578450741076" lon="107.60953458417296">
        <ele>99.61264610290527</ele>
        <time>2023-01-31T08:45:17Z</time>
      </trkpt>
      <trkpt lat="22.647513234463126" lon="107.60971302543601">
        <ele>99.71661286987364</ele>
        <time>2023-01-31T08:45:20Z</time>
      </trkpt>
      <trkpt lat="22.647429645788954" lon="107.60970338239784">
        <ele>99.52245864085853</ele>
        <time>2023-01-31T08:45:22Z</time>
      </trkpt>
      <trkpt lat="22.647316096033563" lon="107.60981907020968">
        <ele>99.54219863936305</ele>
        <time>2023-01-31T08:45:27Z</time>
      </trkpt>
      <trkpt lat="22.647355632926438" lon="107.609922829993">
        <ele>100.0784725220874</ele>
        <time>2023-01-31T08:45:28Z</time>
      </trkpt>
      <trkpt lat="22.647206294062205" lon="107.60993857869036">
        <ele>100.23007688578218</ele>
        <time>2023-01-31T08:45:32Z</time>
      </trkpt>
      <trkpt lat="22.646826823917433" lon="107.61001906551776">
        <ele>99.890824877657</ele>
        <time>2023-01-31T08:45:40Z</time>
      </trkpt>
      <trkpt lat="22.646751332621513" lon="107.6099654807894">
        <ele>99.75458758790046</ele>
        <time>2023-01-31T08:45:42Z</time>
      </trkpt>
      <trkpt lat="22.646660262053413" lon="107.6096139961259">
        <ele>99.85166976694018</ele>
        <time>2023-01-31T08:45:49Z</time>
      </trkpt>
      <trkpt lat="22.64658130231343" lon="107.60957078849383">
        <ele>99.80295277014375</ele>
        <time>2023-01-31T08:45:51Z</time>
      </trkpt>
      <trkpt lat="22.646305942562513" lon="107.60963075684165">
        <ele>99.02213671710342</ele>
        <time>2023-01-31T08:45:57Z</time>
      </trkpt>
      <trkpt lat="22.64621908194921" lon="107.60958174337004">
        <ele>98.59414681233466</ele>
        <time>2023-01-31T08:45:59Z</time>
      </trkpt>
      <trkpt lat="22.64594135056022" lon="107.60916727481423">
        <ele>96.6615028232336</ele>
        <time>2023-01-31T08:46:06Z</time>
      </trkpt>
      <trkpt lat="22.64567315797445" lon="107.60874705623924">
        <ele>96.27018858771771</ele>
        <time>2023-01-31T08:46:12Z</time>
      </trkpt>
      <trkpt lat="22.645403736007232" lon="107.60823840638818">
        <ele>94.79853420797735</ele>
        <time>2023-01-31T08:46:19Z</time>
      </trkpt>
      <trkpt lat="22.645244698627945" lon="107.60794507271525">
        <ele>93.29146098997444</ele>
        <time>2023-01-31T08:46:23Z</time>
      </trkpt>
      <trkpt lat="22.64521700595917" lon="107.60781021155023">
        <ele>92.67228722106665</ele>
        <time>2023-01-31T08:46:25Z</time>
      </trkpt>
      <trkpt lat="22.645327450589946" lon="107.60768653678156">
        <ele>93.29201029147953</ele>
        <time>2023-01-31T08:46:28Z</time>
      </trkpt>
      <trkpt lat="22.645442430134388" lon="107.60764770463696">
        <ele>92.48110813461244</ele>
        <time>2023-01-31T08:46:30Z</time>
      </trkpt>
      <trkpt lat="22.64601183945971" lon="107.6075345984833">
        <ele>92.30681825522333</ele>
        <time>2023-01-31T08:46:38Z</time>
      </trkpt>
      <trkpt lat="22.646469971208028" lon="107.6074045699631">
        <ele>91.61404361668974</ele>
        <time>2023-01-31T08:46:44Z</time>
      </trkpt>
      <trkpt lat="22.646950333914624" lon="107.60726024536584">
        <ele>91.91484528128058</ele>
        <time>2023-01-31T08:46:50Z</time>
      </trkpt>
      <trkpt lat="22.64744239850822" lon="107.60713197195231">
        <ele>93.33097896911204</ele>
        <time>2023-01-31T08:46:56Z</time>
      </trkpt>
      <trkpt lat="22.647929213696617" lon="107.60700402369643">
        <ele>94.10018293652683</ele>
        <time>2023-01-31T08:47:02Z</time>
      </trkpt>
      <trkpt lat="22.648461111576697" lon="107.60684673545416">
        <ele>94.33441965002567</ele>
        <time>2023-01-31T08:47:10Z</time>
      </trkpt>
      <trkpt lat="22.64898317454673" lon="107.60669095274817">
        <ele>94.12906927336007</ele>
        <time>2023-01-31T08:47:18Z</time>
      </trkpt>
      <trkpt lat="22.64921327286404" lon="107.60658962087686">
        <ele>94.16213161218911</ele>
        <time>2023-01-31T08:47:22Z</time>
      </trkpt>
      <trkpt lat="22.649300185542657" lon="107.60652942982163">
        <ele>94.31652919761837</ele>
        <time>2023-01-31T08:47:24Z</time>
      </trkpt>
      <trkpt lat="22.64937636848927" lon="107.60653177410805">
        <ele>94.21036789566278</ele>
        <time>2023-01-31T08:47:26Z</time>
      </trkpt>
      <trkpt lat="22.64935552698893" lon="107.60645319652929">
        <ele>93.83379528205842</ele>
        <time>2023-01-31T08:49:40Z</time>
      </trkpt>
      <trkpt lat="22.649317602904834" lon="107.60654629137498">
        <ele>93.7513718334958</ele>
        <time>2023-01-31T08:49:51Z</time>
      </trkpt>
      <trkpt lat="22.64920498720573" lon="107.60660527092745">
        <ele>93.32981311623007</ele>
        <time>2023-01-31T08:49:54Z</time>
      </trkpt>
      <trkpt lat="22.64875827551531" lon="107.60673390375948">
        <ele>92.94725505914539</ele>
        <time>2023-01-31T08:50:01Z</time>
      </trkpt>
      <trkpt lat="22.648258667819" lon="107.60686830980836">
        <ele>93.1149745406583</ele>
        <time>2023-01-31T08:50:07Z</time>
      </trkpt>
      <trkpt lat="22.64783804100662" lon="107.60698830970816">
        <ele>93.14451595395803</ele>
        <time>2023-01-31T08:50:12Z</time>
      </trkpt>
      <trkpt lat="22.64740224898035" lon="107.60711197264733">
        <ele>93.5086906477809</ele>
        <time>2023-01-31T08:50:17Z</time>
      </trkpt>
      <trkpt lat="22.646941870332828" lon="107.6072414047322">
        <ele>93.5149997798726</ele>
        <time>2023-01-31T08:50:22Z</time>
      </trkpt>
      <trkpt lat="22.64645913274668" lon="107.60735459094317">
        <ele>92.92060239613056</ele>
        <time>2023-01-31T08:50:27Z</time>
      </trkpt>
      <trkpt lat="22.64601166321589" lon="107.60748642761868">
        <ele>92.82608040235937</ele>
        <time>2023-01-31T08:50:32Z</time>
      </trkpt>
      <trkpt lat="22.64559382029262" lon="107.60763453777297">
        <ele>93.06382859032601</ele>
        <time>2023-01-31T08:50:37Z</time>
      </trkpt>
      <trkpt lat="22.645272675034775" lon="107.60776727788345">
        <ele>93.14509135019034</ele>
        <time>2023-01-31T08:50:42Z</time>
      </trkpt>
      <trkpt lat="22.645169069734358" lon="107.6077492445607">
        <ele>92.93870731443167</ele>
        <time>2023-01-31T08:50:44Z</time>
      </trkpt>
      <trkpt lat="22.644893667172507" lon="107.60724512869628">
        <ele>93.64556812122464</ele>
        <time>2023-01-31T08:50:55Z</time>
      </trkpt>
      <trkpt lat="22.64459975034753" lon="107.60675669748164">
        <ele>93.5727941757068</ele>
        <time>2023-01-31T08:51:02Z</time>
      </trkpt>
      <trkpt lat="22.64428657324634" lon="107.60627534542887">
        <ele>94.81217068247497</ele>
        <time>2023-01-31T08:51:09Z</time>
      </trkpt>
      <trkpt lat="22.644047877764898" lon="107.60585602497609">
        <ele>95.8762323949486</ele>
        <time>2023-01-31T08:51:15Z</time>
      </trkpt>
      <trkpt lat="22.643785078877404" lon="107.60551997937672">
        <ele>98.88422433007509</ele>
        <time>2023-01-31T08:51:20Z</time>
      </trkpt>
      <trkpt lat="22.643593834688744" lon="107.60507432769607">
        <ele>102.59200498275459</ele>
        <time>2023-01-31T08:51:25Z</time>
      </trkpt>
      <trkpt lat="22.64348504399983" lon="107.60491579836886">
        <ele>104.3211431261152</ele>
        <time>2023-01-31T08:51:27Z</time>
      </trkpt>
      <trkpt lat="22.643396766485065" lon="107.6046562985078">
        <ele>106.99186425283551</ele>
        <time>2023-01-31T08:51:30Z</time>
      </trkpt>
      <trkpt lat="22.643380005890943" lon="107.60448966326742">
        <ele>108.13619946315885</ele>
        <time>2023-01-31T08:51:32Z</time>
      </trkpt>
      <trkpt lat="22.643412835118685" lon="107.60424813303614">
        <ele>109.21465062815696</ele>
        <time>2023-01-31T08:51:35Z</time>
      </trkpt>
      <trkpt lat="22.643437188478657" lon="107.60416418917067">
        <ele>109.44483786355704</ele>
        <time>2023-01-31T08:51:36Z</time>
      </trkpt>
      <trkpt lat="22.643481201402096" lon="107.6040871522143">
        <ele>109.67414222378284</ele>
        <time>2023-01-31T08:51:37Z</time>
      </trkpt>
      <trkpt lat="22.643546986106845" lon="107.60402428721065">
        <ele>109.75664923526347</ele>
        <time>2023-01-31T08:51:38Z</time>
      </trkpt>
      <trkpt lat="22.64363272774216" lon="107.60397664366022">
        <ele>109.83245733287185</ele>
        <time>2023-01-31T08:51:39Z</time>
      </trkpt>
      <trkpt lat="22.64420285170959" lon="107.60383813550419">
        <ele>107.12175363767892</ele>
        <time>2023-01-31T08:51:45Z</time>
      </trkpt>
      <trkpt lat="22.644677707956156" lon="107.60371763342332">
        <ele>102.03927221894264</ele>
        <time>2023-01-31T08:51:52Z</time>
      </trkpt>
      <trkpt lat="22.645194066238076" lon="107.60367020763762">
        <ele>96.5877184625715</ele>
        <time>2023-01-31T08:52:01Z</time>
      </trkpt>
      <trkpt lat="22.64526841213729" lon="107.60365488463067">
        <ele>96.17680864408612</ele>
        <time>2023-01-31T08:52:02Z</time>
      </trkpt>
      <trkpt lat="22.645432179998934" lon="107.60356300374914">
        <ele>95.54363755695522</ele>
        <time>2023-01-31T08:52:04Z</time>
      </trkpt>
      <trkpt lat="22.645880847746724" lon="107.60343681760365">
        <ele>94.13818508945405</ele>
        <time>2023-01-31T08:52:09Z</time>
      </trkpt>
      <trkpt lat="22.646150268827526" lon="107.60337131511079">
        <ele>94.28992061410099</ele>
        <time>2023-01-31T08:52:12Z</time>
      </trkpt>
      <trkpt lat="22.646652876496145" lon="107.6031978159626">
        <ele>96.74891825672239</ele>
        <time>2023-01-31T08:52:19Z</time>
      </trkpt>
      <trkpt lat="22.646748783177912" lon="107.6031514368231">
        <ele>97.05612724367529</ele>
        <time>2023-01-31T08:52:21Z</time>
      </trkpt>
      <trkpt lat="22.646856554016328" lon="107.60314627868996">
        <ele>97.29196282289922</ele>
        <time>2023-01-31T08:52:23Z</time>
      </trkpt>
      <trkpt lat="22.646903678717546" lon="107.60321823994879">
        <ele>97.35653299372643</ele>
        <time>2023-01-31T08:52:25Z</time>
      </trkpt>
      <trkpt lat="22.646929196590435" lon="107.603418575173">
        <ele>98.52094936277717</ele>
        <time>2023-01-31T08:52:30Z</time>
      </trkpt>
      <trkpt lat="22.646855280894524" lon="107.60346925150212">
        <ele>99.04849334061146</ele>
        <time>2023-01-31T08:52:33Z</time>
      </trkpt>
      <trkpt lat="22.646779748389307" lon="107.6034534697092">
        <ele>99.66473989095539</ele>
        <time>2023-01-31T08:52:37Z</time>
      </trkpt>
      <trkpt lat="22.64679678902336" lon="107.60353428819833">
        <ele>96.95560378488153</ele>
        <time>2023-01-31T08:56:55Z</time>
      </trkpt>
      <trkpt lat="22.646881716392283" lon="107.60349251366324">
        <ele>99.23534686490893</ele>
        <time>2023-01-31T08:57:19Z</time>
      </trkpt>
      <trkpt lat="22.64699320271953" lon="107.60346559003426">
        <ele>99.19657249562442</ele>
        <time>2023-01-31T08:57:27Z</time>
      </trkpt>
    </trkseg>
  </trk>
</gpx>