<?xml version="1.0" encoding="UTF-8"?>
<gpx xmlns="http://www.topografix.com/GPX/1/1" xmlns:gpxtpx="http://www.garmin.com/xmlschemas/TrackPointExtension/v1" xmlns:xsi="http://www.w3.org/2001/XMLSchema-instance" xsi:schemaLocation="http://www.topografix.com/GPX/1/1 http://www.topografix.com/GPX/1/1/gpx.xsd" version="1.1" creator="gpx.py -- https://github.com/tkrajina/gpxpy">
  <trk>
    <name>gpx from keep</name>
    <type>Walk</type>
    <trkseg>
      <trkpt lat="22.39384007293932" lon="107.37118356743925">
        <ele>132.97182095095516</ele>
        <time>2026-03-30T14:32:50Z</time>
      </trkpt>
      <trkpt lat="22.39383914504769" lon="107.37125088958784">
        <ele>132.87661589922237</ele>
        <time>2026-03-30T14:33:10Z</time>
      </trkpt>
      <trkpt lat="22.393801100749503" lon="107.37119189302118">
        <ele>133.31926448582306</ele>
        <time>2026-03-30T14:33:16Z</time>
      </trkpt>
      <trkpt lat="22.393864804426112" lon="107.37119558625459">
        <ele>133.24818439389847</ele>
        <time>2026-03-30T14:33:23Z</time>
      </trkpt>
      <trkpt lat="22.393815037936417" lon="107.37123064134241">
        <ele>130.57112487798872</ele>
        <time>2026-03-30T14:33:36Z</time>
      </trkpt>
      <trkpt lat="22.393791373994876" lon="107.37128262678446">
        <ele>130.57110977323913</ele>
        <time>2026-03-30T14:33:40Z</time>
      </trkpt>
      <trkpt lat="22.393688582492842" lon="107.37124814916304">
        <ele>130.60705424280448</ele>
        <time>2026-03-30T14:33:48Z</time>
      </trkpt>
      <trkpt lat="22.393624834493455" lon="107.37129525803905">
        <ele>130.36897603981197</ele>
        <time>2026-03-30T14:33:57Z</time>
      </trkpt>
      <trkpt lat="22.393667405933076" lon="107.37122497887935">
        <ele>130.28724953439087</ele>
        <time>2026-03-30T14:34:09Z</time>
      </trkpt>
      <trkpt lat="22.393630021064556" lon="107.37114292088043">
        <ele>129.98857582826167</ele>
        <time>2026-03-30T14:34:15Z</time>
      </trkpt>
      <trkpt lat="22.39358924784997" lon="107.37110299974997">
        <ele>129.68820906803012</ele>
        <time>2026-03-30T14:34:21Z</time>
      </trkpt>
      <trkpt lat="22.39359782976075" lon="107.37075886531382">
        <ele>130.59397256188095</ele>
        <time>2026-03-30T14:34:31Z</time>
      </trkpt>
      <trkpt lat="22.39348792881708" lon="107.37070668962436">
        <ele>130.02532513160259</ele>
        <time>2026-03-30T14:34:34Z</time>
      </trkpt>
      <trkpt lat="22.39335972033041" lon="107.37071858390004">
        <ele>130.3517751917243</ele>
        <time>2026-03-30T14:34:43Z</time>
      </trkpt>
      <trkpt lat="22.393330291872992" lon="107.37076691782633">
        <ele>130.11075819376856</ele>
        <time>2026-03-30T14:34:46Z</time>
      </trkpt>
      <trkpt lat="22.39328398126991" lon="107.37079486721329">
        <ele>130.02467200066894</ele>
        <time>2026-03-30T14:34:49Z</time>
      </trkpt>
      <trkpt lat="22.393196009663782" lon="107.37081004982036">
        <ele>130.62759706005454</ele>
        <time>2026-03-30T14:35:01Z</time>
      </trkpt>
      <trkpt lat="22.39314629335759" lon="107.3707665293339">
        <ele>131.30440668575466</ele>
        <time>2026-03-30T14:35:07Z</time>
      </trkpt>
      <trkpt lat="22.39310144512664" lon="107.37065401593378">
        <ele>129.66656211856753</ele>
        <time>2026-03-30T14:35:13Z</time>
      </trkpt>
      <trkpt lat="22.393059108961666" lon="107.37059931577295">
        <ele>129.24165548104793</ele>
        <time>2026-03-30T14:35:16Z</time>
      </trkpt>
      <trkpt lat="22.393049323775884" lon="107.37052812954164">
        <ele>129.2921460289508</ele>
        <time>2026-03-30T14:35:22Z</time>
      </trkpt>
      <trkpt lat="22.392960461818106" lon="107.37038162546901">
        <ele>129.09999249037355</ele>
        <time>2026-03-30T14:35:34Z</time>
      </trkpt>
      <trkpt lat="22.392932412430593" lon="107.37030045392164">
        <ele>130.37835006043315</ele>
        <time>2026-03-30T14:35:41Z</time>
      </trkpt>
      <trkpt lat="22.392957374532024" lon="107.37008752149593">
        <ele>129.3654220243916</ele>
        <time>2026-03-30T14:35:56Z</time>
      </trkpt>
      <trkpt lat="22.393019652809816" lon="107.36994342662263">
        <ele>128.3712797332555</ele>
        <time>2026-03-30T14:36:08Z</time>
      </trkpt>
      <trkpt lat="22.392979452814817" lon="107.36984830708707">
        <ele>127.7734085097909</ele>
        <time>2026-03-30T14:36:14Z</time>
      </trkpt>
      <trkpt lat="22.39298572867051" lon="107.36978051950948">
        <ele>128.17961305193603</ele>
        <time>2026-03-30T14:36:20Z</time>
      </trkpt>
      <trkpt lat="22.392967305518642" lon="107.36971310201127">
        <ele>128.5324826305732</ele>
        <time>2026-03-30T14:36:26Z</time>
      </trkpt>
      <trkpt lat="22.393025381831645" lon="107.36957479322066">
        <ele>127.89360784739256</ele>
        <time>2026-03-30T14:36:39Z</time>
      </trkpt>
      <trkpt lat="22.39308966855531" lon="107.36955427870059">
        <ele>129.94559874478728</ele>
        <time>2026-03-30T14:36:44Z</time>
      </trkpt>
      <trkpt lat="22.393030433194898" lon="107.36952716081456">
        <ele>130.41999991890043</ele>
        <time>2026-03-30T14:36:47Z</time>
      </trkpt>
      <trkpt lat="22.39287997255585" lon="107.36951016186556">
        <ele>131.29360379185528</ele>
        <time>2026-03-30T14:36:56Z</time>
      </trkpt>
      <trkpt lat="22.392673432597036" lon="107.36954180512183">
        <ele>129.4731287388131</ele>
        <time>2026-03-30T14:37:08Z</time>
      </trkpt>
      <trkpt lat="22.39261558828229" lon="107.36969037933726">
        <ele>128.9128134539351</ele>
        <time>2026-03-30T14:37:20Z</time>
      </trkpt>
      <trkpt lat="22.392632053626787" lon="107.36975766970338">
        <ele>129.07291214819998</ele>
        <time>2026-03-30T14:37:27Z</time>
      </trkpt>
      <trkpt lat="22.39255717913085" lon="107.36972493920695">
        <ele>125.45620015822351</ele>
        <time>2026-03-30T14:37:32Z</time>
      </trkpt>
      <trkpt lat="22.392490172432574" lon="107.36971762510956">
        <ele>127.20407768338919</ele>
        <time>2026-03-30T14:37:35Z</time>
      </trkpt>
      <trkpt lat="22.392575218927114" lon="107.3697214515812">
        <ele>128.5168233793229</ele>
        <time>2026-03-30T14:37:53Z</time>
      </trkpt>
      <trkpt lat="22.392443253067327" lon="107.36976174343107">
        <ele>128.06033731345087</ele>
        <time>2026-03-30T14:38:20Z</time>
      </trkpt>
      <trkpt lat="22.392464587818957" lon="107.36980516125067">
        <ele>127.71686850301921</ele>
        <time>2026-03-30T14:38:23Z</time>
      </trkpt>
      <trkpt lat="22.39247349679988" lon="107.37001567502934">
        <ele>129.54354669246823</ele>
        <time>2026-03-30T14:38:29Z</time>
      </trkpt>
      <trkpt lat="22.39244479543489" lon="107.37024330268446">
        <ele>129.3571320446208</ele>
        <time>2026-03-30T14:38:35Z</time>
      </trkpt>
      <trkpt lat="22.392414657381845" lon="107.37035474220536">
        <ele>129.14062531106174</ele>
        <time>2026-03-30T14:38:38Z</time>
      </trkpt>
      <trkpt lat="22.392396507973864" lon="107.37048447279906">
        <ele>128.9407506575808</ele>
        <time>2026-03-30T14:38:44Z</time>
      </trkpt>
      <trkpt lat="22.39249829514588" lon="107.37054159228185">
        <ele>129.35774635802954</ele>
        <time>2026-03-30T14:38:50Z</time>
      </trkpt>
      <trkpt lat="22.392609548574402" lon="107.37057139995022">
        <ele>129.2658445443958</ele>
        <time>2026-03-30T14:38:53Z</time>
      </trkpt>
      <trkpt lat="22.392533873316136" lon="107.37052298217073">
        <ele>129.22350939083844</ele>
        <time>2026-03-30T14:39:05Z</time>
      </trkpt>
    </trkseg>
  </trk>
</gpx>