<?xml version="1.0" encoding="UTF-8"?>
<gpx xmlns="http://www.topografix.com/GPX/1/1" xmlns:gpxtpx="http://www.garmin.com/xmlschemas/TrackPointExtension/v1" xmlns:xsi="http://www.w3.org/2001/XMLSchema-instance" xsi:schemaLocation="http://www.topografix.com/GPX/1/1 http://www.topografix.com/GPX/1/1/gpx.xsd" version="1.1" creator="gpx.py -- https://github.com/tkrajina/gpxpy">
  <trk>
    <name>gpx from keep</name>
    <type>Walk</type>
    <trkseg>
      <trkpt lat="22.39446862522526" lon="107.3692493612762">
        <ele>128.54749703736448</ele>
        <time>2026-03-30T15:12:46Z</time>
      </trkpt>
      <trkpt lat="22.394404937581186" lon="107.3692683264508">
        <ele>127.96617581043392</ele>
        <time>2026-03-30T15:12:54Z</time>
      </trkpt>
      <trkpt lat="22.394322650387853" lon="107.36925708817981">
        <ele>128.24733751639724</ele>
        <time>2026-03-30T15:13:02Z</time>
      </trkpt>
      <trkpt lat="22.39425424289148" lon="107.36927587257102">
        <ele>128.82926946040243</ele>
        <time>2026-03-30T15:13:10Z</time>
      </trkpt>
      <trkpt lat="22.39420401081388" lon="107.3693089377287">
        <ele>127.95221203751862</ele>
        <time>2026-03-30T15:13:14Z</time>
      </trkpt>
      <trkpt lat="22.394156757451505" lon="107.36930379547223">
        <ele>128.4883057018742</ele>
        <time>2026-03-30T15:13:26Z</time>
      </trkpt>
      <trkpt lat="22.39418540304548" lon="107.36938460026194">
        <ele>128.3723638970405</ele>
        <time>2026-03-30T15:13:38Z</time>
      </trkpt>
      <trkpt lat="22.3941566046102" lon="107.3694645214983">
        <ele>129.0156424259767</ele>
        <time>2026-03-30T15:13:46Z</time>
      </trkpt>
      <trkpt lat="22.394105797155813" lon="107.36949958518395">
        <ele>129.31511216703802</ele>
        <time>2026-03-30T15:13:50Z</time>
      </trkpt>
      <trkpt lat="22.3940873450295" lon="107.36954467871247">
        <ele>129.08187481947243</ele>
        <time>2026-03-30T15:13:58Z</time>
      </trkpt>
      <trkpt lat="22.39413877642153" lon="107.36990536105634">
        <ele>129.25162596721202</ele>
        <time>2026-03-30T15:14:18Z</time>
      </trkpt>
      <trkpt lat="22.39415650292269" lon="107.36996461154655">
        <ele>128.98557091038674</ele>
        <time>2026-03-30T15:14:22Z</time>
      </trkpt>
      <trkpt lat="22.394111182457046" lon="107.37000662108925">
        <ele>129.94092232454568</ele>
        <time>2026-03-30T15:14:34Z</time>
      </trkpt>
      <trkpt lat="22.39415117237739" lon="107.37006628864944">
        <ele>129.57453519571573</ele>
        <time>2026-03-30T15:14:42Z</time>
      </trkpt>
      <trkpt lat="22.394126152040357" lon="107.37014056868664">
        <ele>129.37040395010263</ele>
        <time>2026-03-30T15:14:46Z</time>
      </trkpt>
      <trkpt lat="22.394057841148875" lon="107.37016583925598">
        <ele>129.27105551306158</ele>
        <time>2026-03-30T15:14:50Z</time>
      </trkpt>
      <trkpt lat="22.394111817220388" lon="107.37019218878788">
        <ele>129.65686350595206</ele>
        <time>2026-03-30T15:14:53Z</time>
      </trkpt>
      <trkpt lat="22.39412137389518" lon="107.3702730291977">
        <ele>131.28180767782032</ele>
        <time>2026-03-30T15:15:02Z</time>
      </trkpt>
      <trkpt lat="22.39407069321212" lon="107.37033877305099">
        <ele>132.28424534015357</ele>
        <time>2026-03-30T15:15:08Z</time>
      </trkpt>
      <trkpt lat="22.3940545288608" lon="107.37040117753841">
        <ele>131.63626790046692</ele>
        <time>2026-03-30T15:15:14Z</time>
      </trkpt>
      <trkpt lat="22.39412439521903" lon="107.3704751108494">
        <ele>131.51415389031172</ele>
        <time>2026-03-30T15:15:17Z</time>
      </trkpt>
      <trkpt lat="22.39420123139917" lon="107.37059454445598">
        <ele>130.98752080183476</ele>
        <time>2026-03-30T15:15:23Z</time>
      </trkpt>
      <trkpt lat="22.394208847561814" lon="107.37067217933631">
        <ele>130.11492261569947</ele>
        <time>2026-03-30T15:15:29Z</time>
      </trkpt>
      <trkpt lat="22.394122038002394" lon="107.37072933682619">
        <ele>130.98866481520236</ele>
        <time>2026-03-30T15:15:35Z</time>
      </trkpt>
      <trkpt lat="22.394109138441486" lon="107.37078119435307">
        <ele>129.87656700145453</ele>
        <time>2026-03-30T15:15:41Z</time>
      </trkpt>
      <trkpt lat="22.39415391563594" lon="107.37090395498423">
        <ele>130.86766636557877</ele>
        <time>2026-03-30T15:15:49Z</time>
      </trkpt>
      <trkpt lat="22.394189863404893" lon="107.37095563702692">
        <ele>131.30446488317102</ele>
        <time>2026-03-30T15:15:53Z</time>
      </trkpt>
      <trkpt lat="22.39419461253131" lon="107.37101549529572">
        <ele>130.95256873779</ele>
        <time>2026-03-30T15:15:57Z</time>
      </trkpt>
      <trkpt lat="22.39413729257013" lon="107.37102256621039">
        <ele>131.25441111437976</ele>
        <time>2026-03-30T15:16:05Z</time>
      </trkpt>
      <trkpt lat="22.39409333343188" lon="107.37104867511218">
        <ele>131.66248873528093</ele>
        <time>2026-03-30T15:16:09Z</time>
      </trkpt>
      <trkpt lat="22.39398035611852" lon="107.3710659650103">
        <ele>130.80521052423865</ele>
        <time>2026-03-30T15:16:17Z</time>
      </trkpt>
      <trkpt lat="22.393930343307776" lon="107.37104964080686">
        <ele>132.95752920024097</ele>
        <time>2026-03-30T15:16:21Z</time>
      </trkpt>
      <trkpt lat="22.393860302367624" lon="107.37107412675927">
        <ele>133.37528742849827</ele>
        <time>2026-03-30T15:16:33Z</time>
      </trkpt>
      <trkpt lat="22.393856653054424" lon="107.37112696523448">
        <ele>132.4122326625511</ele>
        <time>2026-03-30T15:16:37Z</time>
      </trkpt>
      <trkpt lat="22.39381979507893" lon="107.37115570353508">
        <ele>131.30253183469176</ele>
        <time>2026-03-30T15:16:41Z</time>
      </trkpt>
      <trkpt lat="22.393916935955755" lon="107.37129305239515">
        <ele>133.25792100717047</ele>
        <time>2026-03-30T15:16:56Z</time>
      </trkpt>
      <trkpt lat="22.39395546335534" lon="107.37140058273967">
        <ele>135.44792100717046</ele>
        <time>2026-03-30T15:17:16Z</time>
      </trkpt>
      <trkpt lat="22.393987433536907" lon="107.37134642468008">
        <ele>138.62792100717047</ele>
        <time>2026-03-30T15:17:23Z</time>
      </trkpt>
      <trkpt lat="22.394032623834992" lon="107.37139794762456">
        <ele>140.7979210071705</ele>
        <time>2026-03-30T15:17:29Z</time>
      </trkpt>
      <trkpt lat="22.394111387295993" lon="107.37138328240513">
        <ele>140.7979210071705</ele>
        <time>2026-03-30T15:17:34Z</time>
      </trkpt>
      <trkpt lat="22.39407575384666" lon="107.3713457050869">
        <ele>140.7979210071705</ele>
        <time>2026-03-30T15:18:54Z</time>
      </trkpt>
    </trkseg>
  </trk>
</gpx>