<?xml version="1.0" encoding="UTF-8"?>
<gpx xmlns="http://www.topografix.com/GPX/1/1" xmlns:gpxtpx="http://www.garmin.com/xmlschemas/TrackPointExtension/v1" xmlns:xsi="http://www.w3.org/2001/XMLSchema-instance" xsi:schemaLocation="http://www.topografix.com/GPX/1/1 http://www.topografix.com/GPX/1/1/gpx.xsd" version="1.1" creator="gpx.py -- https://github.com/tkrajina/gpxpy">
  <trk>
    <name>gpx from keep</name>
    <type>Walk</type>
    <trkseg>
      <trkpt lat="22.394832606518914" lon="107.37199954262692">
        <ele>133.2859210651368</ele>
        <time>2026-05-04T07:59:57Z</time>
      </trkpt>
      <trkpt lat="22.394831026825727" lon="107.37199723148832">
        <ele>132.578133482486</ele>
        <time>2026-05-04T07:59:58Z</time>
      </trkpt>
      <trkpt lat="22.39482906412575" lon="107.37199445138639">
        <ele>131.91569348517805</ele>
        <time>2026-05-04T07:59:59Z</time>
      </trkpt>
      <trkpt lat="22.39482636198718" lon="107.3719911388009">
        <ele>131.30725706275553</ele>
        <time>2026-05-04T08:00:00Z</time>
      </trkpt>
      <trkpt lat="22.394822490637832" lon="107.37198708045011">
        <ele>130.76207916345447</ele>
        <time>2026-05-04T08:00:01Z</time>
      </trkpt>
      <trkpt lat="22.394817678986602" lon="107.37198243196269">
        <ele>130.29166604205966</ele>
        <time>2026-05-04T08:00:02Z</time>
      </trkpt>
      <trkpt lat="22.39481199431281" lon="107.37197726018063">
        <ele>129.9080669861287</ele>
        <time>2026-05-04T08:00:03Z</time>
      </trkpt>
      <trkpt lat="22.39480583165401" lon="107.37197165774518">
        <ele>129.6133093079552</ele>
        <time>2026-05-04T08:00:04Z</time>
      </trkpt>
      <trkpt lat="22.39479957393895" lon="107.3719654069438">
        <ele>129.39850910846144</ele>
        <time>2026-05-04T08:00:05Z</time>
      </trkpt>
      <trkpt lat="22.39479359791025" lon="107.3719582758629">
        <ele>129.2501122681424</ele>
        <time>2026-05-04T08:00:06Z</time>
      </trkpt>
      <trkpt lat="22.39478885633704" lon="107.37195025488506">
        <ele>129.15438940376043</ele>
        <time>2026-05-04T08:00:07Z</time>
      </trkpt>
      <trkpt lat="22.39478599621174" lon="107.37194128594994">
        <ele>129.09908627159894</ele>
        <time>2026-05-04T08:00:08Z</time>
      </trkpt>
      <trkpt lat="22.394784794664435" lon="107.37193214107654">
        <ele>129.07398809771985</ele>
        <time>2026-05-04T08:00:09Z</time>
      </trkpt>
      <trkpt lat="22.39478468911249" lon="107.3719234567398">
        <ele>129.0706401038915</ele>
        <time>2026-05-04T08:00:10Z</time>
      </trkpt>
      <trkpt lat="22.394784949197565" lon="107.3719153470857">
        <ele>129.08290864154696</ele>
        <time>2026-05-04T08:00:10Z</time>
      </trkpt>
      <trkpt lat="22.39478509176229" lon="107.37190724256021">
        <ele>129.10564836859703</ele>
        <time>2026-05-04T08:00:11Z</time>
      </trkpt>
      <trkpt lat="22.394784913362844" lon="107.37189892009931">
        <ele>129.13454292993993</ele>
        <time>2026-05-04T08:00:12Z</time>
      </trkpt>
      <trkpt lat="22.394784325285503" lon="107.3718903416088">
        <ele>129.16636613104492</ele>
        <time>2026-05-04T08:00:13Z</time>
      </trkpt>
      <trkpt lat="22.394782856483484" lon="107.37188197715739">
        <ele>129.19928170647472</ele>
        <time>2026-05-04T08:00:14Z</time>
      </trkpt>
      <trkpt lat="22.394779778200572" lon="107.37187399641127">
        <ele>129.2319817598909</ele>
        <time>2026-05-04T08:00:15Z</time>
      </trkpt>
      <trkpt lat="22.394774771929438" lon="107.37186633309773">
        <ele>129.26457573100924</ele>
        <time>2026-05-04T08:00:16Z</time>
      </trkpt>
      <trkpt lat="22.394768346689062" lon="107.37185880429672">
        <ele>129.29838242568076</ele>
        <time>2026-05-04T08:00:17Z</time>
      </trkpt>
      <trkpt lat="22.39476158319138" lon="107.37185149915479">
        <ele>129.33520102035254</ele>
        <time>2026-05-04T08:00:18Z</time>
      </trkpt>
      <trkpt lat="22.394754503161362" lon="107.3718449656113">
        <ele>129.3762479936704</ele>
        <time>2026-05-04T08:00:19Z</time>
      </trkpt>
      <trkpt lat="22.394747296503486" lon="107.3718391058194">
        <ele>129.4219415783882</ele>
        <time>2026-05-04T08:00:20Z</time>
      </trkpt>
      <trkpt lat="22.394739725119667" lon="107.37183374293602">
        <ele>129.4715549852699</ele>
        <time>2026-05-04T08:00:21Z</time>
      </trkpt>
      <trkpt lat="22.394731334290277" lon="107.37182845598082">
        <ele>129.52294822223485</ele>
        <time>2026-05-04T08:00:22Z</time>
      </trkpt>
      <trkpt lat="22.394721962468985" lon="107.37182302776431">
        <ele>129.5729172360152</ele>
        <time>2026-05-04T08:00:23Z</time>
      </trkpt>
      <trkpt lat="22.394711636893774" lon="107.37181751747008">
        <ele>129.61870427243412</ele>
        <time>2026-05-04T08:00:24Z</time>
      </trkpt>
      <trkpt lat="22.39470035619216" lon="107.3718122412737">
        <ele>129.65829924773425</ele>
        <time>2026-05-04T08:00:25Z</time>
      </trkpt>
      <trkpt lat="22.394688881720665" lon="107.37180757896039">
        <ele>129.69078355748206</ele>
        <time>2026-05-04T08:00:26Z</time>
      </trkpt>
      <trkpt lat="22.394677638387822" lon="107.37180396878375">
        <ele>129.71622694749385</ele>
        <time>2026-05-04T08:00:27Z</time>
      </trkpt>
      <trkpt lat="22.39466642522999" lon="107.37180146754856">
        <ele>129.7355102673173</ele>
        <time>2026-05-04T08:00:28Z</time>
      </trkpt>
      <trkpt lat="22.39465529247395" lon="107.37179998939659">
        <ele>129.74934040103108</ele>
        <time>2026-05-04T08:00:29Z</time>
      </trkpt>
      <trkpt lat="22.394644299323488" lon="107.37179926820318">
        <ele>129.75790602713823</ele>
        <time>2026-05-04T08:00:30Z</time>
      </trkpt>
      <trkpt lat="22.394633627321603" lon="107.3717988758152">
        <ele>129.76093008369207</ele>
        <time>2026-05-04T08:00:31Z</time>
      </trkpt>
      <trkpt lat="22.394623113625062" lon="107.37179864144309">
        <ele>129.75796225480735</ele>
        <time>2026-05-04T08:00:32Z</time>
      </trkpt>
      <trkpt lat="22.39461272933692" lon="107.37179827091349">
        <ele>129.74909537658095</ele>
        <time>2026-05-04T08:00:33Z</time>
      </trkpt>
      <trkpt lat="22.39460234803966" lon="107.37179759231333">
        <ele>129.7349230637774</ele>
        <time>2026-05-04T08:00:34Z</time>
      </trkpt>
      <trkpt lat="22.39459155477128" lon="107.37179644232573">
        <ele>129.7169642765075</ele>
        <time>2026-05-04T08:00:35Z</time>
      </trkpt>
      <trkpt lat="22.39458088722401" lon="107.37179496063537">
        <ele>129.6975402040407</ele>
        <time>2026-05-04T08:00:36Z</time>
      </trkpt>
      <trkpt lat="22.394571476622833" lon="107.37179370323308">
        <ele>129.67883386928588</ele>
        <time>2026-05-04T08:00:37Z</time>
      </trkpt>
      <trkpt lat="22.39456316647402" lon="107.37179223189293">
        <ele>129.66342452447861</ele>
        <time>2026-05-04T08:00:38Z</time>
      </trkpt>
      <trkpt lat="22.394555624442127" lon="107.3717898050533">
        <ele>129.6535431072116</ele>
        <time>2026-05-04T08:00:39Z</time>
      </trkpt>
      <trkpt lat="22.39454907333571" lon="107.37178644603539">
        <ele>129.65118759218603</ele>
        <time>2026-05-04T08:00:40Z</time>
      </trkpt>
      <trkpt lat="22.39454356303947" lon="107.37178207260082">
        <ele>129.6583136273548</ele>
        <time>2026-05-04T08:00:41Z</time>
      </trkpt>
      <trkpt lat="22.394539117643124" lon="107.3717767470938">
        <ele>129.67679337970912</ele>
        <time>2026-05-04T08:00:42Z</time>
      </trkpt>
      <trkpt lat="22.39453549810055" lon="107.3717705278928">
        <ele>129.7079735537991</ele>
        <time>2026-05-04T08:00:43Z</time>
      </trkpt>
      <trkpt lat="22.394532271825558" lon="107.37176296951202">
        <ele>129.75295072514564</ele>
        <time>2026-05-04T08:00:44Z</time>
      </trkpt>
      <trkpt lat="22.394529030469602" lon="107.37175416630163">
        <ele>129.81230713240802</ele>
        <time>2026-05-04T08:00:45Z</time>
      </trkpt>
      <trkpt lat="22.394525716538823" lon="107.37174440203782">
        <ele>129.8854848826304</ele>
        <time>2026-05-04T08:00:46Z</time>
      </trkpt>
      <trkpt lat="22.394522250905403" lon="107.3717337324382">
        <ele>129.97131903283298</ele>
        <time>2026-05-04T08:00:47Z</time>
      </trkpt>
      <trkpt lat="22.39451878458781" lon="107.37172209920546">
        <ele>130.06741709634662</ele>
        <time>2026-05-04T08:00:48Z</time>
      </trkpt>
      <trkpt lat="22.394515673873734" lon="107.37171006669317">
        <ele>130.1705135172233</ele>
        <time>2026-05-04T08:00:49Z</time>
      </trkpt>
      <trkpt lat="22.39451311982816" lon="107.37169802955746">
        <ele>130.2767644552514</ele>
        <time>2026-05-04T08:00:50Z</time>
      </trkpt>
      <trkpt lat="22.394510827695736" lon="107.37168628802766">
        <ele>130.38184367865324</ele>
        <time>2026-05-04T08:00:51Z</time>
      </trkpt>
      <trkpt lat="22.3945087842723" lon="107.37167450153561">
        <ele>130.48150945734233</ele>
        <time>2026-05-04T08:00:52Z</time>
      </trkpt>
      <trkpt lat="22.394506776646267" lon="107.3716622473919">
        <ele>130.5721317222342</ele>
        <time>2026-05-04T08:00:53Z</time>
      </trkpt>
      <trkpt lat="22.39450452529702" lon="107.37164842508771">
        <ele>130.65093407779932</ele>
        <time>2026-05-04T08:00:54Z</time>
      </trkpt>
      <trkpt lat="22.39450222430295" lon="107.37163299116831">
        <ele>130.716118844226</ele>
        <time>2026-05-04T08:00:55Z</time>
      </trkpt>
      <trkpt lat="22.394500172082772" lon="107.37161709060128">
        <ele>130.76759776938707</ele>
        <time>2026-05-04T08:00:56Z</time>
      </trkpt>
      <trkpt lat="22.394498378523636" lon="107.37160102728406">
        <ele>130.80633978545666</ele>
        <time>2026-05-04T08:00:57Z</time>
      </trkpt>
      <trkpt lat="22.39449708524262" lon="107.3715850114035">
        <ele>130.83422903716564</ele>
        <time>2026-05-04T08:00:58Z</time>
      </trkpt>
      <trkpt lat="22.39449662832223" lon="107.37156944324306">
        <ele>130.85382000543177</ele>
        <time>2026-05-04T08:00:59Z</time>
      </trkpt>
      <trkpt lat="22.394497043472082" lon="107.37155452190214">
        <ele>130.86824520025402</ele>
        <time>2026-05-04T08:01:00Z</time>
      </trkpt>
      <trkpt lat="22.39449782526046" lon="107.3715401208886">
        <ele>130.88021672796458</ele>
        <time>2026-05-04T08:01:01Z</time>
      </trkpt>
      <trkpt lat="22.3944984203298" lon="107.37152593691566">
        <ele>130.8921362636611</ele>
        <time>2026-05-04T08:01:02Z</time>
      </trkpt>
      <trkpt lat="22.394498835161404" lon="107.37151260973225">
        <ele>130.906104051508</ele>
        <time>2026-05-04T08:01:03Z</time>
      </trkpt>
      <trkpt lat="22.394499174762288" lon="107.3714999786136">
        <ele>130.92383072525263</ele>
        <time>2026-05-04T08:01:04Z</time>
      </trkpt>
      <trkpt lat="22.394499602239463" lon="107.37148785920105">
        <ele>130.9460599385202</ele>
        <time>2026-05-04T08:01:05Z</time>
      </trkpt>
      <trkpt lat="22.39450020896641" lon="107.37147601239643">
        <ele>130.97269094362855</ele>
        <time>2026-05-04T08:01:06Z</time>
      </trkpt>
      <trkpt lat="22.39450154371937" lon="107.37146470811194">
        <ele>131.00315582286566</ele>
        <time>2026-05-04T08:01:07Z</time>
      </trkpt>
      <trkpt lat="22.39450301359345" lon="107.37145382243897">
        <ele>131.03658565413207</ele>
        <time>2026-05-04T08:01:08Z</time>
      </trkpt>
      <trkpt lat="22.394504524880325" lon="107.3714440219454">
        <ele>131.07176935859025</ele>
        <time>2026-05-04T08:01:09Z</time>
      </trkpt>
      <trkpt lat="22.394505976041444" lon="107.3714358604193">
        <ele>131.1081124395132</ele>
        <time>2026-05-04T08:01:10Z</time>
      </trkpt>
      <trkpt lat="22.39450752863187" lon="107.371427632598">
        <ele>131.14539071079344</ele>
        <time>2026-05-04T08:01:11Z</time>
      </trkpt>
      <trkpt lat="22.39450954623716" lon="107.37141808290743">
        <ele>131.1834368184209</ele>
        <time>2026-05-04T08:01:12Z</time>
      </trkpt>
      <trkpt lat="22.394511991629653" lon="107.37140827296868">
        <ele>131.22155497595668</ele>
        <time>2026-05-04T08:01:13Z</time>
      </trkpt>
      <trkpt lat="22.394514620816622" lon="107.37139924494882">
        <ele>131.2582636801526</ele>
        <time>2026-05-04T08:01:14Z</time>
      </trkpt>
      <trkpt lat="22.394517636741508" lon="107.37139146032027">
        <ele>131.29140098579228</ele>
        <time>2026-05-04T08:01:15Z</time>
      </trkpt>
      <trkpt lat="22.394521060432005" lon="107.37138463401753">
        <ele>131.3186877677217</ele>
        <time>2026-05-04T08:01:16Z</time>
      </trkpt>
      <trkpt lat="22.394524974786428" lon="107.37137805939525">
        <ele>131.33815924078226</ele>
        <time>2026-05-04T08:01:17Z</time>
      </trkpt>
      <trkpt lat="22.394529293886436" lon="107.37137085546453">
        <ele>131.34867873974144</ele>
        <time>2026-05-04T08:01:18Z</time>
      </trkpt>
      <trkpt lat="22.39453374568854" lon="107.37136249717732">
        <ele>131.3502931855619</ele>
        <time>2026-05-04T08:01:19Z</time>
      </trkpt>
      <trkpt lat="22.394538066264314" lon="107.37135362771154">
        <ele>131.3440250987187</ele>
        <time>2026-05-04T08:01:20Z</time>
      </trkpt>
      <trkpt lat="22.394541837930042" lon="107.3713450596845">
        <ele>131.33138635754585</ele>
        <time>2026-05-04T08:01:21Z</time>
      </trkpt>
      <trkpt lat="22.39454502689101" lon="107.37133692758154">
        <ele>131.31413965765387</ele>
        <time>2026-05-04T08:01:22Z</time>
      </trkpt>
      <trkpt lat="22.39454764722866" lon="107.37132918488118">
        <ele>131.29420195613056</ele>
        <time>2026-05-04T08:01:23Z</time>
      </trkpt>
      <trkpt lat="22.394549801577096" lon="107.37132147121872">
        <ele>131.27292729355395</ele>
        <time>2026-05-04T08:01:24Z</time>
      </trkpt>
      <trkpt lat="22.39455149490019" lon="107.3713136024084">
        <ele>131.2513058949262</ele>
        <time>2026-05-04T08:01:25Z</time>
      </trkpt>
      <trkpt lat="22.394552574987053" lon="107.37130599344063">
        <ele>131.22961668949574</ele>
        <time>2026-05-04T08:01:26Z</time>
      </trkpt>
      <trkpt lat="22.394552995845558" lon="107.3712991738623">
        <ele>131.2074108030647</ele>
        <time>2026-05-04T08:01:27Z</time>
      </trkpt>
      <trkpt lat="22.394552783597653" lon="107.37129284837073">
        <ele>131.18357510771602</ele>
        <time>2026-05-04T08:01:28Z</time>
      </trkpt>
      <trkpt lat="22.394552118228482" lon="107.37128619668931">
        <ele>131.1568019753322</ele>
        <time>2026-05-04T08:01:29Z</time>
      </trkpt>
      <trkpt lat="22.394551106522826" lon="107.37127895768114">
        <ele>131.12555297184736</ele>
        <time>2026-05-04T08:01:30Z</time>
      </trkpt>
      <trkpt lat="22.39454978163313" lon="107.37127105661881">
        <ele>131.08859389089048</ele>
        <time>2026-05-04T08:01:31Z</time>
      </trkpt>
      <trkpt lat="22.394548440175107" lon="107.37126241717726">
        <ele>131.04538677912205</ele>
        <time>2026-05-04T08:01:32Z</time>
      </trkpt>
      <trkpt lat="22.3945473255049" lon="107.37125305709264">
        <ele>130.99588633608073</ele>
        <time>2026-05-04T08:01:33Z</time>
      </trkpt>
      <trkpt lat="22.394546622603436" lon="107.3712433125404">
        <ele>130.9410453569144</ele>
        <time>2026-05-04T08:01:34Z</time>
      </trkpt>
      <trkpt lat="22.39454630748524" lon="107.37123372887369">
        <ele>130.882521498017</ele>
        <time>2026-05-04T08:01:35Z</time>
      </trkpt>
      <trkpt lat="22.394546285803862" lon="107.37122459449726">
        <ele>130.8224450852722</ele>
        <time>2026-05-04T08:01:36Z</time>
      </trkpt>
      <trkpt lat="22.39454644078441" lon="107.37121594845729">
        <ele>130.76348469220102</ele>
        <time>2026-05-04T08:01:37Z</time>
      </trkpt>
      <trkpt lat="22.394546528189895" lon="107.3712077970886">
        <ele>130.7081803008914</ele>
        <time>2026-05-04T08:01:38Z</time>
      </trkpt>
      <trkpt lat="22.394546690578636" lon="107.37120015437692">
        <ele>130.65868385788053</ele>
        <time>2026-05-04T08:01:39Z</time>
      </trkpt>
      <trkpt lat="22.39454713256144" lon="107.37119289180484">
        <ele>130.61655881535262</ele>
        <time>2026-05-04T08:01:40Z</time>
      </trkpt>
      <trkpt lat="22.394547968267364" lon="107.37118605447095">
        <ele>130.582615416497</ele>
        <time>2026-05-04T08:01:41Z</time>
      </trkpt>
      <trkpt lat="22.39454923361613" lon="107.37117941084976">
        <ele>130.55673170927912</ele>
        <time>2026-05-04T08:01:42Z</time>
      </trkpt>
      <trkpt lat="22.394550896895776" lon="107.3711727607688">
        <ele>130.53810232225806</ele>
        <time>2026-05-04T08:01:43Z</time>
      </trkpt>
      <trkpt lat="22.394552740881533" lon="107.37116605991108">
        <ele>130.52535975258797</ele>
        <time>2026-05-04T08:01:44Z</time>
      </trkpt>
      <trkpt lat="22.39455433457659" lon="107.37115917076886">
        <ele>130.5167904207483</ele>
        <time>2026-05-04T08:01:45Z</time>
      </trkpt>
      <trkpt lat="22.394555133014737" lon="107.37115148098681">
        <ele>130.51055188290775</ele>
        <time>2026-05-04T08:01:46Z</time>
      </trkpt>
      <trkpt lat="22.394554830868202" lon="107.37114253325828">
        <ele>130.5050527881831</ele>
        <time>2026-05-04T08:01:47Z</time>
      </trkpt>
      <trkpt lat="22.3945531831409" lon="107.37113243652183">
        <ele>130.4989619879052</ele>
        <time>2026-05-04T08:01:48Z</time>
      </trkpt>
      <trkpt lat="22.394550314577415" lon="107.3711215936915">
        <ele>130.49138399679214</ele>
        <time>2026-05-04T08:01:49Z</time>
      </trkpt>
      <trkpt lat="22.394546454229342" lon="107.37111043275463">
        <ele>130.48189952410758</ele>
        <time>2026-05-04T08:01:50Z</time>
      </trkpt>
      <trkpt lat="22.394541927971453" lon="107.37109923210282">
        <ele>130.47056355699897</ele>
        <time>2026-05-04T08:01:51Z</time>
      </trkpt>
      <trkpt lat="22.394537076703674" lon="107.37108809238698">
        <ele>130.45776054169983</ele>
        <time>2026-05-04T08:01:52Z</time>
      </trkpt>
      <trkpt lat="22.394532123840314" lon="107.37107699573436">
        <ele>130.4441346200183</ele>
        <time>2026-05-04T08:01:53Z</time>
      </trkpt>
      <trkpt lat="22.39452735645633" lon="107.37106580240655">
        <ele>130.4304237086326</ele>
        <time>2026-05-04T08:01:54Z</time>
      </trkpt>
      <trkpt lat="22.39452298849246" lon="107.371054295182">
        <ele>130.41730127390474</ele>
        <time>2026-05-04T08:01:55Z</time>
      </trkpt>
      <trkpt lat="22.394519106683962" lon="107.37104238337935">
        <ele>130.40518735721707</ele>
        <time>2026-05-04T08:01:56Z</time>
      </trkpt>
      <trkpt lat="22.39451569195477" lon="107.37103020109944">
        <ele>130.39427527505904</ele>
        <time>2026-05-04T08:01:57Z</time>
      </trkpt>
      <trkpt lat="22.394512720482055" lon="107.37101799436238">
        <ele>130.3844572585076</ele>
        <time>2026-05-04T08:01:58Z</time>
      </trkpt>
      <trkpt lat="22.394510152218803" lon="107.37100569158058">
        <ele>130.37551505677402</ele>
        <time>2026-05-04T08:01:59Z</time>
      </trkpt>
      <trkpt lat="22.394507829492838" lon="107.37099322238379">
        <ele>130.36733248177916</ele>
        <time>2026-05-04T08:02:00Z</time>
      </trkpt>
      <trkpt lat="22.39450569763789" lon="107.37098059634386">
        <ele>130.35985982604325</ele>
        <time>2026-05-04T08:02:01Z</time>
      </trkpt>
      <trkpt lat="22.394503826405824" lon="107.3709676645764">
        <ele>130.3532279925421</ele>
        <time>2026-05-04T08:02:02Z</time>
      </trkpt>
      <trkpt lat="22.394502420096686" lon="107.37095413101746">
        <ele>130.34777106996626</ele>
        <time>2026-05-04T08:02:03Z</time>
      </trkpt>
      <trkpt lat="22.39450155785093" lon="107.37093994561222">
        <ele>130.34395928494632</ele>
        <time>2026-05-04T08:02:04Z</time>
      </trkpt>
      <trkpt lat="22.39450140305263" lon="107.37092514356218">
        <ele>130.342220146209</ele>
        <time>2026-05-04T08:02:05Z</time>
      </trkpt>
      <trkpt lat="22.394502125536334" lon="107.37090998632378">
        <ele>130.34299886226654</ele>
        <time>2026-05-04T08:02:06Z</time>
      </trkpt>
      <trkpt lat="22.394503356710153" lon="107.37089440217808">
        <ele>130.34653815813363</ele>
        <time>2026-05-04T08:02:07Z</time>
      </trkpt>
      <trkpt lat="22.39450458218241" lon="107.37087840856621">
        <ele>130.35288370214403</ele>
        <time>2026-05-04T08:02:08Z</time>
      </trkpt>
      <trkpt lat="22.394505682627162" lon="107.37086230291767">
        <ele>130.3617486860603</ele>
        <time>2026-05-04T08:02:09Z</time>
      </trkpt>
      <trkpt lat="22.394506720846593" lon="107.37084588380296">
        <ele>130.37256696633995</ele>
        <time>2026-05-04T08:02:10Z</time>
      </trkpt>
      <trkpt lat="22.394508222742257" lon="107.37082928931574">
        <ele>130.3845892092213</ele>
        <time>2026-05-04T08:02:11Z</time>
      </trkpt>
      <trkpt lat="22.394510380898094" lon="107.37081321424019">
        <ele>130.39698280300945</ele>
        <time>2026-05-04T08:02:12Z</time>
      </trkpt>
      <trkpt lat="22.394513066059243" lon="107.37079801900606">
        <ele>130.40900132618845</ele>
        <time>2026-05-04T08:02:13Z</time>
      </trkpt>
      <trkpt lat="22.394516061571412" lon="107.37078360157533">
        <ele>130.42014111112803</ele>
        <time>2026-05-04T08:02:14Z</time>
      </trkpt>
      <trkpt lat="22.39451906058728" lon="107.37076991786294">
        <ele>130.43009112030268</ele>
        <time>2026-05-04T08:02:15Z</time>
      </trkpt>
      <trkpt lat="22.394521973159257" lon="107.37075761886175">
        <ele>130.43877298012376</ele>
        <time>2026-05-04T08:02:16Z</time>
      </trkpt>
      <trkpt lat="22.394524954219165" lon="107.3707467234394">
        <ele>130.44625220168382</ele>
        <time>2026-05-04T08:02:17Z</time>
      </trkpt>
      <trkpt lat="22.39452782196515" lon="107.37073653581935">
        <ele>130.4524751631543</ele>
        <time>2026-05-04T08:02:18Z</time>
      </trkpt>
      <trkpt lat="22.39453094272994" lon="107.37072660977722">
        <ele>130.45746396761388</ele>
        <time>2026-05-04T08:02:19Z</time>
      </trkpt>
      <trkpt lat="22.39453448224092" lon="107.37071677360964">
        <ele>130.46080761682242</ele>
        <time>2026-05-04T08:02:20Z</time>
      </trkpt>
      <trkpt lat="22.39453879361161" lon="107.3707077921239">
        <ele>130.46212191320956</ele>
        <time>2026-05-04T08:02:21Z</time>
      </trkpt>
      <trkpt lat="22.39454351324786" lon="107.37069945105685">
        <ele>130.4609663616866</ele>
        <time>2026-05-04T08:02:22Z</time>
      </trkpt>
      <trkpt lat="22.394548535089747" lon="107.3706916524146">
        <ele>130.45679969340563</ele>
        <time>2026-05-04T08:02:23Z</time>
      </trkpt>
      <trkpt lat="22.39455385233776" lon="107.37068472364481">
        <ele>130.44876286480576</ele>
        <time>2026-05-04T08:02:24Z</time>
      </trkpt>
      <trkpt lat="22.394559418488363" lon="107.37067911102277">
        <ele>130.43657472264022</ele>
        <time>2026-05-04T08:02:25Z</time>
      </trkpt>
      <trkpt lat="22.394565091991918" lon="107.37067499548397">
        <ele>130.41988388542086</ele>
        <time>2026-05-04T08:02:26Z</time>
      </trkpt>
      <trkpt lat="22.394572059173004" lon="107.37067070139713">
        <ele>130.39846038259566</ele>
        <time>2026-05-04T08:02:27Z</time>
      </trkpt>
      <trkpt lat="22.39458082299308" lon="107.37066450589104">
        <ele>130.372645014897</ele>
        <time>2026-05-04T08:02:28Z</time>
      </trkpt>
      <trkpt lat="22.394589802632087" lon="107.37065692494059">
        <ele>130.34347660001367</ele>
        <time>2026-05-04T08:02:29Z</time>
      </trkpt>
      <trkpt lat="22.39459847252345" lon="107.37064925014784">
        <ele>130.31235968787223</ele>
        <time>2026-05-04T08:02:30Z</time>
      </trkpt>
      <trkpt lat="22.394606680332203" lon="107.37064212773174">
        <ele>130.28118938207626</ele>
        <time>2026-05-04T08:02:31Z</time>
      </trkpt>
      <trkpt lat="22.394613759614675" lon="107.37063581493659">
        <ele>130.25224638637155</ele>
        <time>2026-05-04T08:02:32Z</time>
      </trkpt>
      <trkpt lat="22.394619345298953" lon="107.3706295714858">
        <ele>130.2275950582698</ele>
        <time>2026-05-04T08:02:33Z</time>
      </trkpt>
      <trkpt lat="22.394623997720174" lon="107.37062284681348">
        <ele>130.20832039788365</ele>
        <time>2026-05-04T08:02:34Z</time>
      </trkpt>
      <trkpt lat="22.394628098831213" lon="107.37061498547934">
        <ele>130.19502199441195</ele>
        <time>2026-05-04T08:02:35Z</time>
      </trkpt>
      <trkpt lat="22.394631785762098" lon="107.37060573523145">
        <ele>130.18746134731919</ele>
        <time>2026-05-04T08:02:36Z</time>
      </trkpt>
      <trkpt lat="22.394635071486032" lon="107.37059473990607">
        <ele>130.18456887453794</ele>
        <time>2026-05-04T08:02:37Z</time>
      </trkpt>
      <trkpt lat="22.39463890484845" lon="107.37058277225107">
        <ele>130.18482840806246</ele>
        <time>2026-05-04T08:02:38Z</time>
      </trkpt>
      <trkpt lat="22.39464303919295" lon="107.37057147908162">
        <ele>130.18741485942155</ele>
        <time>2026-05-04T08:02:39Z</time>
      </trkpt>
      <trkpt lat="22.394645858014503" lon="107.3705610954074">
        <ele>130.1917501622811</ele>
        <time>2026-05-04T08:02:40Z</time>
      </trkpt>
      <trkpt lat="22.394647133225984" lon="107.37055100478929">
        <ele>130.19770813174546</ele>
        <time>2026-05-04T08:02:41Z</time>
      </trkpt>
      <trkpt lat="22.394646965566828" lon="107.37054109380296">
        <ele>130.20575232990086</ele>
        <time>2026-05-04T08:02:42Z</time>
      </trkpt>
      <trkpt lat="22.394645657699442" lon="107.37053135327582">
        <ele>130.21632992848754</ele>
        <time>2026-05-04T08:02:43Z</time>
      </trkpt>
      <trkpt lat="22.394643673398402" lon="107.37052163332463">
        <ele>130.22895520087332</ele>
        <time>2026-05-04T08:02:44Z</time>
      </trkpt>
      <trkpt lat="22.394641346934343" lon="107.37051206792731">
        <ele>130.24216142389923</ele>
        <time>2026-05-04T08:02:45Z</time>
      </trkpt>
      <trkpt lat="22.39463900360225" lon="107.37050291228391">
        <ele>130.25373241491616</ele>
        <time>2026-05-04T08:02:46Z</time>
      </trkpt>
      <trkpt lat="22.394636639651548" lon="107.37049404762072">
        <ele>130.26087777875364</ele>
        <time>2026-05-04T08:02:47Z</time>
      </trkpt>
      <trkpt lat="22.39463411368309" lon="107.37048483311452">
        <ele>130.26130602974445</ele>
        <time>2026-05-04T08:02:48Z</time>
      </trkpt>
      <trkpt lat="22.39463156249254" lon="107.37047521697377">
        <ele>130.25391647033393</ele>
        <time>2026-05-04T08:02:49Z</time>
      </trkpt>
      <trkpt lat="22.394629025610644" lon="107.37046541375537">
        <ele>130.23930018302053</ele>
        <time>2026-05-04T08:02:50Z</time>
      </trkpt>
      <trkpt lat="22.39462659682386" lon="107.370455482615">
        <ele>130.21951997838914</ele>
        <time>2026-05-04T08:02:51Z</time>
      </trkpt>
      <trkpt lat="22.394624168642647" lon="107.37044573798266">
        <ele>130.19776910822839</ele>
        <time>2026-05-04T08:02:52Z</time>
      </trkpt>
      <trkpt lat="22.39462174749799" lon="107.37043621429142">
        <ele>130.17709045950323</ele>
        <time>2026-05-04T08:02:53Z</time>
      </trkpt>
      <trkpt lat="22.39461920485813" lon="107.37042637091967">
        <ele>130.15979772247374</ele>
        <time>2026-05-04T08:02:54Z</time>
      </trkpt>
      <trkpt lat="22.394616342817503" lon="107.37041534516301">
        <ele>130.1470184288919</ele>
        <time>2026-05-04T08:02:55Z</time>
      </trkpt>
      <trkpt lat="22.39461367346394" lon="107.37040258120456">
        <ele>130.13893803022802</ele>
        <time>2026-05-04T08:02:56Z</time>
      </trkpt>
      <trkpt lat="22.39461160745119" lon="107.37038809872708">
        <ele>130.13464203011245</ele>
        <time>2026-05-04T08:02:57Z</time>
      </trkpt>
      <trkpt lat="22.394609968177036" lon="107.37037255972959">
        <ele>130.13278512470424</ele>
        <time>2026-05-04T08:02:58Z</time>
      </trkpt>
      <trkpt lat="22.394608711248726" lon="107.37035659291094">
        <ele>130.13209502585232</ele>
        <time>2026-05-04T08:02:59Z</time>
      </trkpt>
      <trkpt lat="22.3946077140205" lon="107.37033967807594">
        <ele>130.1318047819659</ele>
        <time>2026-05-04T08:03:00Z</time>
      </trkpt>
      <trkpt lat="22.39460632742545" lon="107.37032153218992">
        <ele>130.1313673555851</ele>
        <time>2026-05-04T08:03:01Z</time>
      </trkpt>
      <trkpt lat="22.394603650532662" lon="107.37030265917161">
        <ele>130.13109476212412</ele>
        <time>2026-05-04T08:03:02Z</time>
      </trkpt>
      <trkpt lat="22.3945993143943" lon="107.37028379866017">
        <ele>130.13168916944414</ele>
        <time>2026-05-04T08:03:03Z</time>
      </trkpt>
      <trkpt lat="22.394593927693244" lon="107.37026491984412">
        <ele>130.13388112094253</ele>
        <time>2026-05-04T08:03:04Z</time>
      </trkpt>
      <trkpt lat="22.394588479899696" lon="107.37024623764158">
        <ele>130.13798334170133</ele>
        <time>2026-05-04T08:03:05Z</time>
      </trkpt>
      <trkpt lat="22.394583449690188" lon="107.3702279024841">
        <ele>130.14269200712442</ele>
        <time>2026-05-04T08:03:06Z</time>
      </trkpt>
      <trkpt lat="22.39457920279549" lon="107.37021042283122">
        <ele>130.14594951923937</ele>
        <time>2026-05-04T08:03:07Z</time>
      </trkpt>
      <trkpt lat="22.39457577295808" lon="107.37019418578973">
        <ele>130.1448708800599</ele>
        <time>2026-05-04T08:03:08Z</time>
      </trkpt>
      <trkpt lat="22.394573200918746" lon="107.37017939912931">
        <ele>130.13614445831627</ele>
        <time>2026-05-04T08:03:09Z</time>
      </trkpt>
      <trkpt lat="22.394571547372262" lon="107.37016615310617">
        <ele>130.11639885418117</ele>
        <time>2026-05-04T08:03:10Z</time>
      </trkpt>
      <trkpt lat="22.394570600782284" lon="107.37015443896152">
        <ele>130.0837867576629</ele>
        <time>2026-05-04T08:03:11Z</time>
      </trkpt>
      <trkpt lat="22.394570306386914" lon="107.37014441957356">
        <ele>130.03679390251637</ele>
        <time>2026-05-04T08:03:12Z</time>
      </trkpt>
      <trkpt lat="22.394570655289513" lon="107.37013612899077">
        <ele>129.97503748815507</ele>
        <time>2026-05-04T08:03:13Z</time>
      </trkpt>
      <trkpt lat="22.394571721947557" lon="107.37013009830788">
        <ele>129.8996854443103</ele>
        <time>2026-05-04T08:03:14Z</time>
      </trkpt>
      <trkpt lat="22.39457362404619" lon="107.37012598748784">
        <ele>129.81325487978756</ele>
        <time>2026-05-04T08:03:15Z</time>
      </trkpt>
      <trkpt lat="22.39457662058249" lon="107.37012293585806">
        <ele>129.71939147356898</ele>
        <time>2026-05-04T08:03:16Z</time>
      </trkpt>
      <trkpt lat="22.394580584836202" lon="107.3701201205264">
        <ele>129.6229890808463</ele>
        <time>2026-05-04T08:03:17Z</time>
      </trkpt>
      <trkpt lat="22.394585654160785" lon="107.37011700156117">
        <ele>129.52965128794312</ele>
        <time>2026-05-04T08:03:18Z</time>
      </trkpt>
      <trkpt lat="22.394592144559805" lon="107.37011337731421">
        <ele>129.4448828175664</ele>
        <time>2026-05-04T08:03:19Z</time>
      </trkpt>
      <trkpt lat="22.39459998956669" lon="107.37011037151898">
        <ele>129.37293009087443</ele>
        <time>2026-05-04T08:03:20Z</time>
      </trkpt>
      <trkpt lat="22.394608779056153" lon="107.3701088658172">
        <ele>129.31693123001605</ele>
        <time>2026-05-04T08:03:21Z</time>
      </trkpt>
      <trkpt lat="22.394617839313057" lon="107.37010843303128">
        <ele>129.27810989320278</ele>
        <time>2026-05-04T08:03:22Z</time>
      </trkpt>
      <trkpt lat="22.394626925827406" lon="107.37010850311155">
        <ele>129.2556593650952</ele>
        <time>2026-05-04T08:03:23Z</time>
      </trkpt>
      <trkpt lat="22.394636122244926" lon="107.37010834460236">
        <ele>129.2471278551966</ele>
        <time>2026-05-04T08:03:24Z</time>
      </trkpt>
      <trkpt lat="22.394645892827374" lon="107.37010800904699">
        <ele>129.2498747659847</ele>
        <time>2026-05-04T08:03:25Z</time>
      </trkpt>
      <trkpt lat="22.394656730107357" lon="107.37010803215536">
        <ele>129.26115245837718</ele>
        <time>2026-05-04T08:03:26Z</time>
      </trkpt>
      <trkpt lat="22.3946683015444" lon="107.37010792603617">
        <ele>129.27876790426672</ele>
        <time>2026-05-04T08:03:27Z</time>
      </trkpt>
      <trkpt lat="22.394679344206345" lon="107.37010651038851">
        <ele>129.30123968981206</ele>
        <time>2026-05-04T08:03:28Z</time>
      </trkpt>
      <trkpt lat="22.39468960162883" lon="107.37010379225529">
        <ele>129.3277571517974</ele>
        <time>2026-05-04T08:03:29Z</time>
      </trkpt>
      <trkpt lat="22.39469862903401" lon="107.37009974991683">
        <ele>129.3570908056572</ele>
        <time>2026-05-04T08:03:30Z</time>
      </trkpt>
      <trkpt lat="22.3947063964491" lon="107.37009466449844">
        <ele>129.38779698126018</ele>
        <time>2026-05-04T08:03:31Z</time>
      </trkpt>
      <trkpt lat="22.39471301083811" lon="107.37008895729457">
        <ele>129.41826725192368</ele>
        <time>2026-05-04T08:03:32Z</time>
      </trkpt>
      <trkpt lat="22.394718254717557" lon="107.37008289859035">
        <ele>129.44710046611726</ele>
        <time>2026-05-04T08:03:33Z</time>
      </trkpt>
      <trkpt lat="22.39472302473559" lon="107.37007638688226">
        <ele>129.4732835497707</ele>
        <time>2026-05-04T08:03:34Z</time>
      </trkpt>
      <trkpt lat="22.394727597961353" lon="107.37006895039116">
        <ele>129.49690996669233</ele>
        <time>2026-05-04T08:03:35Z</time>
      </trkpt>
      <trkpt lat="22.39473134605432" lon="107.37006138377461">
        <ele>129.5191138489172</ele>
        <time>2026-05-04T08:03:36Z</time>
      </trkpt>
      <trkpt lat="22.39473436853164" lon="107.37005526333625">
        <ele>129.54169546067715</ele>
        <time>2026-05-04T08:03:37Z</time>
      </trkpt>
      <trkpt lat="22.394736811686982" lon="107.37005089090344">
        <ele>129.56653642002493</ele>
        <time>2026-05-04T08:03:38Z</time>
      </trkpt>
      <trkpt lat="22.394738953753286" lon="107.37004770423462">
        <ele>129.59507472254336</ele>
        <time>2026-05-04T08:03:39Z</time>
      </trkpt>
      <trkpt lat="22.394741393462958" lon="107.37004508245833">
        <ele>129.62784377206117</ele>
        <time>2026-05-04T08:03:40Z</time>
      </trkpt>
      <trkpt lat="22.394744332433813" lon="107.37004256480037">
        <ele>129.664238630794</ele>
        <time>2026-05-04T08:03:41Z</time>
      </trkpt>
      <trkpt lat="22.394747752144887" lon="107.37004038866668">
        <ele>129.70275934506208</ele>
        <time>2026-05-04T08:03:42Z</time>
      </trkpt>
      <trkpt lat="22.39475101665952" lon="107.37003919101915">
        <ele>129.74168308451772</ele>
        <time>2026-05-04T08:03:43Z</time>
      </trkpt>
      <trkpt lat="22.394753726112953" lon="107.37003892586276">
        <ele>129.77941570989788</ele>
        <time>2026-05-04T08:03:44Z</time>
      </trkpt>
      <trkpt lat="22.3947557113647" lon="107.37003943576319">
        <ele>129.8148349514231</ele>
        <time>2026-05-04T08:03:45Z</time>
      </trkpt>
      <trkpt lat="22.394757136550908" lon="107.37004060992163">
        <ele>129.84736418817192</ele>
        <time>2026-05-04T08:03:46Z</time>
      </trkpt>
      <trkpt lat="22.39475813295399" lon="107.3700423422898">
        <ele>129.8768485216424</ele>
        <time>2026-05-04T08:03:47Z</time>
      </trkpt>
      <trkpt lat="22.394759030332033" lon="107.37004460441003">
        <ele>129.90348311234266</ele>
        <time>2026-05-04T08:03:48Z</time>
      </trkpt>
      <trkpt lat="22.39475999813802" lon="107.37004727990941">
        <ele>129.92725489195436</ele>
        <time>2026-05-04T08:03:49Z</time>
      </trkpt>
      <trkpt lat="22.39476116608574" lon="107.37005009742977">
        <ele>129.9480850044638</ele>
        <time>2026-05-04T08:03:50Z</time>
      </trkpt>
      <trkpt lat="22.394762565314196" lon="107.37005288703305">
        <ele>129.96584220882505</ele>
        <time>2026-05-04T08:03:51Z</time>
      </trkpt>
      <trkpt lat="22.39476428097269" lon="107.37005553621671">
        <ele>129.98019430041313</ele>
        <time>2026-05-04T08:03:52Z</time>
      </trkpt>
      <trkpt lat="22.394766472311744" lon="107.37005774177783">
        <ele>129.99054129049182</ele>
        <time>2026-05-04T08:03:53Z</time>
      </trkpt>
      <trkpt lat="22.394769832753816" lon="107.37005938259045">
        <ele>129.9966568686068</ele>
        <time>2026-05-04T08:03:54Z</time>
      </trkpt>
      <trkpt lat="22.394773700720176" lon="107.3700607285189">
        <ele>129.99843864701688</ele>
        <time>2026-05-04T08:03:55Z</time>
      </trkpt>
      <trkpt lat="22.394777622103494" lon="107.37006274751883">
        <ele>129.99578577186912</ele>
        <time>2026-05-04T08:03:56Z</time>
      </trkpt>
      <trkpt lat="22.39478168150071" lon="107.37006504795357">
        <ele>129.9890953125432</ele>
        <time>2026-05-04T08:03:57Z</time>
      </trkpt>
      <trkpt lat="22.394785632565682" lon="107.37006760971445">
        <ele>129.97926955390722</ele>
        <time>2026-05-04T08:03:58Z</time>
      </trkpt>
      <trkpt lat="22.394789292095474" lon="107.37007035240082">
        <ele>129.96753660030663</ele>
        <time>2026-05-04T08:03:59Z</time>
      </trkpt>
      <trkpt lat="22.394792382132866" lon="107.37007333131972">
        <ele>129.9554928475991</ele>
        <time>2026-05-04T08:04:00Z</time>
      </trkpt>
      <trkpt lat="22.39479484929751" lon="107.37007633042288">
        <ele>129.9451531600207</ele>
        <time>2026-05-04T08:04:01Z</time>
      </trkpt>
      <trkpt lat="22.39479668243969" lon="107.37007956669589">
        <ele>129.93832896091044</ele>
        <time>2026-05-04T08:04:02Z</time>
      </trkpt>
      <trkpt lat="22.394797715056594" lon="107.37008274580403">
        <ele>129.936513886787</ele>
        <time>2026-05-04T08:04:03Z</time>
      </trkpt>
      <trkpt lat="22.394798062975408" lon="107.37008544377643">
        <ele>129.94007137510926</ele>
        <time>2026-05-04T08:04:04Z</time>
      </trkpt>
      <trkpt lat="22.394796576317233" lon="107.37008492729775">
        <ele>129.94807143881917</ele>
        <time>2026-05-04T08:04:05Z</time>
      </trkpt>
      <trkpt lat="22.39479531046232" lon="107.37008456537059">
        <ele>129.95876138657331</ele>
        <time>2026-05-04T08:04:06Z</time>
      </trkpt>
      <trkpt lat="22.394794099107063" lon="107.37008430615725">
        <ele>129.96945311594754</ele>
        <time>2026-05-04T08:04:07Z</time>
      </trkpt>
      <trkpt lat="22.39479284876622" lon="107.37008391326584">
        <ele>129.97703638207167</ele>
        <time>2026-05-04T08:04:08Z</time>
      </trkpt>
      <trkpt lat="22.3947915607486" lon="107.37008343763075">
        <ele>129.97886060271412</ele>
        <time>2026-05-04T08:04:09Z</time>
      </trkpt>
      <trkpt lat="22.394790138291437" lon="107.37008276834705">
        <ele>129.97329035121948</ele>
        <time>2026-05-04T08:04:10Z</time>
      </trkpt>
      <trkpt lat="22.394788568297418" lon="107.37008187962309">
        <ele>129.95917435456067</ele>
        <time>2026-05-04T08:04:11Z</time>
      </trkpt>
      <trkpt lat="22.39478720727854" lon="107.37008110113506">
        <ele>129.93646086473018</ele>
        <time>2026-05-04T08:04:12Z</time>
      </trkpt>
      <trkpt lat="22.394785535787605" lon="107.37007994629212">
        <ele>129.90603865496814</ele>
        <time>2026-05-04T08:04:13Z</time>
      </trkpt>
      <trkpt lat="22.394783514404594" lon="107.37007779974199">
        <ele>129.86980409454554</ele>
        <time>2026-05-04T08:04:14Z</time>
      </trkpt>
      <trkpt lat="22.394782148531288" lon="107.37007429824693">
        <ele>129.83013677876443</ele>
        <time>2026-05-04T08:04:15Z</time>
      </trkpt>
      <trkpt lat="22.394783189087413" lon="107.37006904442603">
        <ele>129.7900779210031</ele>
        <time>2026-05-04T08:04:16Z</time>
      </trkpt>
      <trkpt lat="22.39478564174512" lon="107.37006342463644">
        <ele>129.75258977431804</ele>
        <time>2026-05-04T08:04:17Z</time>
      </trkpt>
      <trkpt lat="22.394788974101573" lon="107.37005838770214">
        <ele>129.71997435577214</ele>
        <time>2026-05-04T08:04:18Z</time>
      </trkpt>
      <trkpt lat="22.394792353772644" lon="107.37005380424047">
        <ele>129.6932122623548</ele>
        <time>2026-05-04T08:04:19Z</time>
      </trkpt>
      <trkpt lat="22.39479561326115" lon="107.37004966332702">
        <ele>129.6720338985324</ele>
        <time>2026-05-04T08:04:20Z</time>
      </trkpt>
      <trkpt lat="22.39479841706967" lon="107.37004574782867">
        <ele>129.65482245385647</ele>
        <time>2026-05-04T08:04:21Z</time>
      </trkpt>
      <trkpt lat="22.394800580342263" lon="107.3700421233069">
        <ele>129.63954880833626</ele>
        <time>2026-05-04T08:04:22Z</time>
      </trkpt>
      <trkpt lat="22.39479896637581" lon="107.37003772222594">
        <ele>129.62411568313837</ele>
        <time>2026-05-04T08:04:23Z</time>
      </trkpt>
      <trkpt lat="22.394794730639592" lon="107.37003308281616">
        <ele>129.60720318183303</ele>
        <time>2026-05-04T08:04:24Z</time>
      </trkpt>
      <trkpt lat="22.394791822116876" lon="107.37002897880164">
        <ele>129.5883687157184</ele>
        <time>2026-05-04T08:04:25Z</time>
      </trkpt>
      <trkpt lat="22.394788175838936" lon="107.37002450454034">
        <ele>129.56823993939906</ele>
        <time>2026-05-04T08:04:26Z</time>
      </trkpt>
      <trkpt lat="22.394784636097793" lon="107.37002043908132">
        <ele>129.54805778432637</ele>
        <time>2026-05-04T08:04:27Z</time>
      </trkpt>
      <trkpt lat="22.39478053633314" lon="107.37001696062029">
        <ele>129.52936327736825</ele>
        <time>2026-05-04T08:04:28Z</time>
      </trkpt>
      <trkpt lat="22.394774933326275" lon="107.37001340470039">
        <ele>129.5137650668621</ele>
        <time>2026-05-04T08:04:29Z</time>
      </trkpt>
      <trkpt lat="22.394767298248432" lon="107.37000941135356">
        <ele>129.50182668026537</ele>
        <time>2026-05-04T08:04:30Z</time>
      </trkpt>
      <trkpt lat="22.394757927370527" lon="107.37000478761371">
        <ele>129.49340152181685</ele>
        <time>2026-05-04T08:04:31Z</time>
      </trkpt>
      <trkpt lat="22.394747342198166" lon="107.36999936364454">
        <ele>129.48758756555617</ele>
        <time>2026-05-04T08:04:32Z</time>
      </trkpt>
      <trkpt lat="22.394736370395922" lon="107.36999324354456">
        <ele>129.48283886536956</ele>
        <time>2026-05-04T08:04:33Z</time>
      </trkpt>
      <trkpt lat="22.39472569219172" lon="107.36998674473237">
        <ele>129.4769583409652</ele>
        <time>2026-05-04T08:04:34Z</time>
      </trkpt>
      <trkpt lat="22.3947154358991" lon="107.36998011257917">
        <ele>129.46811846643686</ele>
        <time>2026-05-04T08:04:35Z</time>
      </trkpt>
      <trkpt lat="22.3947058646414" lon="107.36997421049527">
        <ele>129.4545708252117</ele>
        <time>2026-05-04T08:04:36Z</time>
      </trkpt>
      <trkpt lat="22.39469712535015" lon="107.36996956865347">
        <ele>129.43506539054215</ele>
        <time>2026-05-04T08:04:37Z</time>
      </trkpt>
      <trkpt lat="22.394689342642934" lon="107.36996613384272">
        <ele>129.4093019189313</ele>
        <time>2026-05-04T08:04:38Z</time>
      </trkpt>
      <trkpt lat="22.394682491156626" lon="107.3699640104121">
        <ele>129.37789652496576</ele>
        <time>2026-05-04T08:04:39Z</time>
      </trkpt>
      <trkpt lat="22.394676546587778" lon="107.36996343961107">
        <ele>129.342697779648</ele>
        <time>2026-05-04T08:04:40Z</time>
      </trkpt>
      <trkpt lat="22.394671306013297" lon="107.36996446930507">
        <ele>129.30641380511224</ele>
        <time>2026-05-04T08:04:41Z</time>
      </trkpt>
      <trkpt lat="22.394666636997545" lon="107.36996704389391">
        <ele>129.2720493255183</ele>
        <time>2026-05-04T08:04:42Z</time>
      </trkpt>
      <trkpt lat="22.394662510444846" lon="107.36997097812531">
        <ele>129.2422201121226</ele>
        <time>2026-05-04T08:04:43Z</time>
      </trkpt>
      <trkpt lat="22.394658897650714" lon="107.36997601627698">
        <ele>129.21902247704566</ele>
        <time>2026-05-04T08:04:44Z</time>
      </trkpt>
      <trkpt lat="22.394655304862294" lon="107.3699817266183">
        <ele>129.2035259231925</ele>
        <time>2026-05-04T08:04:45Z</time>
      </trkpt>
      <trkpt lat="22.39465146792403" lon="107.36998757531444">
        <ele>129.19584190659225</ele>
        <time>2026-05-04T08:04:46Z</time>
      </trkpt>
      <trkpt lat="22.39464714284556" lon="107.36999292814771">
        <ele>129.19524212833494</ele>
        <time>2026-05-04T08:04:47Z</time>
      </trkpt>
      <trkpt lat="22.394642360108747" lon="107.36999742134144">
        <ele>129.20002223271877</ele>
        <time>2026-05-04T08:04:48Z</time>
      </trkpt>
      <trkpt lat="22.39463715261069" lon="107.370000818578">
        <ele>129.20789617765695</ele>
        <time>2026-05-04T08:04:49Z</time>
      </trkpt>
      <trkpt lat="22.394631669924514" lon="107.37000306969392">
        <ele>129.2164433915168</ele>
        <time>2026-05-04T08:04:50Z</time>
      </trkpt>
      <trkpt lat="22.394625914580285" lon="107.3700042380859">
        <ele>129.22337523289025</ele>
        <time>2026-05-04T08:04:51Z</time>
      </trkpt>
      <trkpt lat="22.394619986080038" lon="107.37000429002417">
        <ele>129.2267372775823</ele>
        <time>2026-05-04T08:04:52Z</time>
      </trkpt>
      <trkpt lat="22.39461415973037" lon="107.37000312970679">
        <ele>129.22569001559168</ele>
        <time>2026-05-04T08:04:53Z</time>
      </trkpt>
      <trkpt lat="22.3946083897327" lon="107.37000061126147">
        <ele>129.22009506076574</ele>
        <time>2026-05-04T08:04:54Z</time>
      </trkpt>
      <trkpt lat="22.39460240247867" lon="107.36999670983847">
        <ele>129.21035119798034</ele>
        <time>2026-05-04T08:04:55Z</time>
      </trkpt>
      <trkpt lat="22.394596218315634" lon="107.36999163388792">
        <ele>129.19734404422343</ele>
        <time>2026-05-04T08:04:56Z</time>
      </trkpt>
      <trkpt lat="22.394589809794837" lon="107.36998522725163">
        <ele>129.1825260547921</ele>
        <time>2026-05-04T08:04:57Z</time>
      </trkpt>
      <trkpt lat="22.39458294324233" lon="107.36997752105708">
        <ele>129.16757896821946</ele>
        <time>2026-05-04T08:04:58Z</time>
      </trkpt>
      <trkpt lat="22.39457601514081" lon="107.36996881498347">
        <ele>129.15424388088286</ele>
        <time>2026-05-04T08:04:59Z</time>
      </trkpt>
      <trkpt lat="22.394569119161694" lon="107.36995925767266">
        <ele>129.14391994290054</ele>
        <time>2026-05-04T08:05:00Z</time>
      </trkpt>
      <trkpt lat="22.39456237380042" lon="107.36994894717795">
        <ele>129.1373988930136</ele>
        <time>2026-05-04T08:05:01Z</time>
      </trkpt>
      <trkpt lat="22.394555898221476" lon="107.36993831810672">
        <ele>129.1347316754982</ele>
        <time>2026-05-04T08:05:02Z</time>
      </trkpt>
      <trkpt lat="22.394549667195452" lon="107.3699276412628">
        <ele>129.13513550441712</ele>
        <time>2026-05-04T08:05:03Z</time>
      </trkpt>
      <trkpt lat="22.394543837582162" lon="107.36991699302803">
        <ele>129.13736078888178</ele>
        <time>2026-05-04T08:05:04Z</time>
      </trkpt>
      <trkpt lat="22.394538269922094" lon="107.36990627874624">
        <ele>129.14011343196034</ele>
        <time>2026-05-04T08:05:05Z</time>
      </trkpt>
      <trkpt lat="22.394533197383865" lon="107.36989529874207">
        <ele>129.1423144824803</ele>
        <time>2026-05-04T08:05:06Z</time>
      </trkpt>
      <trkpt lat="22.394528798543448" lon="107.36988389518156">
        <ele>129.14314092323184</ele>
        <time>2026-05-04T08:05:07Z</time>
      </trkpt>
      <trkpt lat="22.394525497179306" lon="107.36987209152034">
        <ele>129.14218569733202</ele>
        <time>2026-05-04T08:05:08Z</time>
      </trkpt>
      <trkpt lat="22.394522732298704" lon="107.36985989957616">
        <ele>129.13936173170805</ele>
        <time>2026-05-04T08:05:09Z</time>
      </trkpt>
      <trkpt lat="22.39451941822863" lon="107.36984714130054">
        <ele>129.13481672853231</ele>
        <time>2026-05-04T08:05:10Z</time>
      </trkpt>
      <trkpt lat="22.39451510188879" lon="107.36983401752943">
        <ele>129.12884620856494</ele>
        <time>2026-05-04T08:05:11Z</time>
      </trkpt>
      <trkpt lat="22.394509872273648" lon="107.36982067203375">
        <ele>129.12187205534428</ele>
        <time>2026-05-04T08:05:12Z</time>
      </trkpt>
      <trkpt lat="22.394504271701756" lon="107.36980707719347">
        <ele>129.11440539173782</ele>
        <time>2026-05-04T08:05:13Z</time>
      </trkpt>
      <trkpt lat="22.394498602417546" lon="107.36979307807621">
        <ele>129.1069467291236</ele>
        <time>2026-05-04T08:05:14Z</time>
      </trkpt>
      <trkpt lat="22.394492930280993" lon="107.36977797941195">
        <ele>129.09988156985492</ele>
        <time>2026-05-04T08:05:15Z</time>
      </trkpt>
      <trkpt lat="22.394487172053356" lon="107.3697618558568">
        <ele>129.0935956435278</ele>
        <time>2026-05-04T08:05:16Z</time>
      </trkpt>
      <trkpt lat="22.394481446230415" lon="107.36974553911921">
        <ele>129.08837319724262</ele>
        <time>2026-05-04T08:05:17Z</time>
      </trkpt>
      <trkpt lat="22.39447606922818" lon="107.36972993228915">
        <ele>129.08427245728672</ele>
        <time>2026-05-04T08:05:18Z</time>
      </trkpt>
      <trkpt lat="22.394471223085468" lon="107.36971473906848">
        <ele>129.08122107759118</ele>
        <time>2026-05-04T08:05:19Z</time>
      </trkpt>
      <trkpt lat="22.39446680275634" lon="107.36970038471644">
        <ele>129.07920532207936</ele>
        <time>2026-05-04T08:05:20Z</time>
      </trkpt>
      <trkpt lat="22.394463073110696" lon="107.3696870702097">
        <ele>129.07809387519956</ele>
        <time>2026-05-04T08:05:21Z</time>
      </trkpt>
      <trkpt lat="22.394459963001264" lon="107.3696745716349">
        <ele>129.07773559447378</ele>
        <time>2026-05-04T08:05:22Z</time>
      </trkpt>
      <trkpt lat="22.394457178184222" lon="107.36966281657664">
        <ele>129.07796192727983</ele>
        <time>2026-05-04T08:05:23Z</time>
      </trkpt>
      <trkpt lat="22.394454736703793" lon="107.36965171037426">
        <ele>129.0785307046026</ele>
        <time>2026-05-04T08:05:24Z</time>
      </trkpt>
      <trkpt lat="22.394452643618774" lon="107.36964151607997">
        <ele>129.07897311076522</ele>
        <time>2026-05-04T08:05:25Z</time>
      </trkpt>
      <trkpt lat="22.39445114566953" lon="107.36963212139477">
        <ele>129.0787508878857</ele>
        <time>2026-05-04T08:05:26Z</time>
      </trkpt>
      <trkpt lat="22.39444992821916" lon="107.36962312803588">
        <ele>129.0772540923208</ele>
        <time>2026-05-04T08:05:27Z</time>
      </trkpt>
      <trkpt lat="22.39444896450069" lon="107.36961393705954">
        <ele>129.07414229679853</ele>
        <time>2026-05-04T08:05:28Z</time>
      </trkpt>
      <trkpt lat="22.394448075056225" lon="107.36960448446102">
        <ele>129.06956995651126</ele>
        <time>2026-05-04T08:05:29Z</time>
      </trkpt>
      <trkpt lat="22.394446712319002" lon="107.3695949671256">
        <ele>129.06370869092643</ele>
        <time>2026-05-04T08:05:30Z</time>
      </trkpt>
      <trkpt lat="22.3944446938327" lon="107.36958573038362">
        <ele>129.0577660454437</ele>
        <time>2026-05-04T08:05:31Z</time>
      </trkpt>
      <trkpt lat="22.394442263563583" lon="107.36957706444153">
        <ele>129.05323508381844</ele>
        <time>2026-05-04T08:05:32Z</time>
      </trkpt>
      <trkpt lat="22.394439716786597" lon="107.36956892136999">
        <ele>129.05176853202283</ele>
        <time>2026-05-04T08:05:33Z</time>
      </trkpt>
      <trkpt lat="22.394437059532265" lon="107.36956118662202">
        <ele>129.05529116652906</ele>
        <time>2026-05-04T08:05:34Z</time>
      </trkpt>
      <trkpt lat="22.394434445105354" lon="107.36955378319456">
        <ele>129.0660793101415</ele>
        <time>2026-05-04T08:05:35Z</time>
      </trkpt>
      <trkpt lat="22.394432184222993" lon="107.36954698377714">
        <ele>129.08586170803756</ele>
        <time>2026-05-04T08:05:36Z</time>
      </trkpt>
      <trkpt lat="22.394430327865344" lon="107.36954036599089">
        <ele>129.11613356601447</ele>
        <time>2026-05-04T08:05:37Z</time>
      </trkpt>
      <trkpt lat="22.394429214255215" lon="107.36953388926523">
        <ele>129.15802016761154</ele>
        <time>2026-05-04T08:05:38Z</time>
      </trkpt>
      <trkpt lat="22.394429049005943" lon="107.36952706885108">
        <ele>129.21150499209762</ele>
        <time>2026-05-04T08:05:39Z</time>
      </trkpt>
      <trkpt lat="22.394429667161518" lon="107.36951949526352">
        <ele>129.27553947176784</ele>
        <time>2026-05-04T08:05:40Z</time>
      </trkpt>
      <trkpt lat="22.394430811709423" lon="107.3695119070545">
        <ele>129.34782489202917</ele>
        <time>2026-05-04T08:05:41Z</time>
      </trkpt>
      <trkpt lat="22.39443251875294" lon="107.36950402689865">
        <ele>129.42500600032508</ele>
        <time>2026-05-04T08:05:42Z</time>
      </trkpt>
      <trkpt lat="22.3944346995359" lon="107.36949510357923">
        <ele>129.50306989625096</ele>
        <time>2026-05-04T08:05:43Z</time>
      </trkpt>
      <trkpt lat="22.394437388335948" lon="107.3694846433567">
        <ele>129.578043888323</ele>
        <time>2026-05-04T08:05:44Z</time>
      </trkpt>
      <trkpt lat="22.394440221059927" lon="107.36947348849888">
        <ele>129.64654842298478</ele>
        <time>2026-05-04T08:05:45Z</time>
      </trkpt>
      <trkpt lat="22.394442788698193" lon="107.36946231500991">
        <ele>129.7063383674249</ele>
        <time>2026-05-04T08:05:46Z</time>
      </trkpt>
      <trkpt lat="22.39444486619558" lon="107.36945128493745">
        <ele>129.75645639188588</ele>
        <time>2026-05-04T08:05:47Z</time>
      </trkpt>
      <trkpt lat="22.394446432232662" lon="107.36944037347753">
        <ele>129.797246533446</ele>
        <time>2026-05-04T08:05:48Z</time>
      </trkpt>
      <trkpt lat="22.394447618067076" lon="107.36942968513841">
        <ele>129.82983689941466</ele>
        <time>2026-05-04T08:05:49Z</time>
      </trkpt>
      <trkpt lat="22.394448834708907" lon="107.36941936992731">
        <ele>129.85594909079373</ele>
        <time>2026-05-04T08:05:50Z</time>
      </trkpt>
      <trkpt lat="22.39445092073834" lon="107.36940968087089">
        <ele>129.87726596742868</ele>
        <time>2026-05-04T08:05:51Z</time>
      </trkpt>
      <trkpt lat="22.39445418993622" lon="107.36940001106112">
        <ele>129.89505041390657</ele>
        <time>2026-05-04T08:05:52Z</time>
      </trkpt>
      <trkpt lat="22.394458483803998" lon="107.36939006028511">
        <ele>129.90999146923423</ele>
        <time>2026-05-04T08:05:53Z</time>
      </trkpt>
      <trkpt lat="22.394463025531344" lon="107.36937990115429">
        <ele>129.92234834935516</ele>
        <time>2026-05-04T08:05:54Z</time>
      </trkpt>
      <trkpt lat="22.39446721773616" lon="107.36937013398294">
        <ele>129.9316430380568</ele>
        <time>2026-05-04T08:05:55Z</time>
      </trkpt>
      <trkpt lat="22.394470390805573" lon="107.36936131168088">
        <ele>129.93740012403578</ele>
        <time>2026-05-04T08:05:56Z</time>
      </trkpt>
      <trkpt lat="22.39447280603171" lon="107.36935320271544">
        <ele>129.9400086272508</ele>
        <time>2026-05-04T08:05:57Z</time>
      </trkpt>
      <trkpt lat="22.394474581409295" lon="107.36934573436484">
        <ele>129.93991491757333</ele>
        <time>2026-05-04T08:05:58Z</time>
      </trkpt>
      <trkpt lat="22.394475602569916" lon="107.36933922488492">
        <ele>129.93863658420742</ele>
        <time>2026-05-04T08:05:59Z</time>
      </trkpt>
      <trkpt lat="22.394476396657623" lon="107.36933317603686">
        <ele>129.9385714493692</ele>
        <time>2026-05-04T08:06:00Z</time>
      </trkpt>
      <trkpt lat="22.394477873257827" lon="107.36932822320881">
        <ele>129.94291222188622</ele>
        <time>2026-05-04T08:06:01Z</time>
      </trkpt>
      <trkpt lat="22.394480170644343" lon="107.36932459556009">
        <ele>129.95522158127278</ele>
        <time>2026-05-04T08:06:02Z</time>
      </trkpt>
      <trkpt lat="22.39448206694846" lon="107.36932210917585">
        <ele>129.97932143509388</ele>
        <time>2026-05-04T08:06:03Z</time>
      </trkpt>
      <trkpt lat="22.394483107378957" lon="107.36932050336776">
        <ele>130.01875598169863</ele>
        <time>2026-05-04T08:06:04Z</time>
      </trkpt>
      <trkpt lat="22.394482877125984" lon="107.3693196390731">
        <ele>130.07608975004405</ele>
        <time>2026-05-04T08:06:05Z</time>
      </trkpt>
      <trkpt lat="22.394480958347977" lon="107.36931930878843">
        <ele>130.15218129660934</ele>
        <time>2026-05-04T08:06:06Z</time>
      </trkpt>
      <trkpt lat="22.39447735520953" lon="107.3693192495325">
        <ele>130.2459803475067</ele>
        <time>2026-05-04T08:06:07Z</time>
      </trkpt>
      <trkpt lat="22.394472722876298" lon="107.3693197830638">
        <ele>130.3549462230876</ele>
        <time>2026-05-04T08:06:08Z</time>
      </trkpt>
      <trkpt lat="22.394466962800855" lon="107.36932089419278">
        <ele>130.47557010967284</ele>
        <time>2026-05-04T08:06:09Z</time>
      </trkpt>
      <trkpt lat="22.394460284697605" lon="107.36932245320577">
        <ele>130.60414732340723</ele>
        <time>2026-05-04T08:06:10Z</time>
      </trkpt>
      <trkpt lat="22.394452702140153" lon="107.36932417199313">
        <ele>130.7375983633101</ele>
        <time>2026-05-04T08:06:11Z</time>
      </trkpt>
      <trkpt lat="22.394444171340645" lon="107.36932590734261">
        <ele>130.8733770335093</ele>
        <time>2026-05-04T08:06:12Z</time>
      </trkpt>
      <trkpt lat="22.394434651985634" lon="107.36932745367335">
        <ele>131.00986703112721</ele>
        <time>2026-05-04T08:06:13Z</time>
      </trkpt>
      <trkpt lat="22.39442441181744" lon="107.36932872097006">
        <ele>131.14566974621266</ele>
        <time>2026-05-04T08:06:14Z</time>
      </trkpt>
      <trkpt lat="22.39441394066513" lon="107.36932947272847">
        <ele>131.27937858831137</ele>
        <time>2026-05-04T08:06:15Z</time>
      </trkpt>
      <trkpt lat="22.394403256077535" lon="107.36932969908446">
        <ele>131.40983626898378</ele>
        <time>2026-05-04T08:06:16Z</time>
      </trkpt>
      <trkpt lat="22.394392375488568" lon="107.36932934348305">
        <ele>131.5354702528566</ele>
        <time>2026-05-04T08:06:17Z</time>
      </trkpt>
      <trkpt lat="22.394381155836225" lon="107.36932830970413">
        <ele>131.6546019781381</ele>
        <time>2026-05-04T08:06:18Z</time>
      </trkpt>
      <trkpt lat="22.394369676234145" lon="107.36932696022072">
        <ele>131.7654158929363</ele>
        <time>2026-05-04T08:06:19Z</time>
      </trkpt>
      <trkpt lat="22.394357139079546" lon="107.36932560141047">
        <ele>131.8661282211542</ele>
        <time>2026-05-04T08:06:20Z</time>
      </trkpt>
      <trkpt lat="22.39434417093033" lon="107.36932480964569">
        <ele>131.95494737569243</ele>
        <time>2026-05-04T08:06:21Z</time>
      </trkpt>
      <trkpt lat="22.394331861292518" lon="107.36932475930271">
        <ele>132.03094602376223</ele>
        <time>2026-05-04T08:06:22Z</time>
      </trkpt>
      <trkpt lat="22.394319514180626" lon="107.36932546968316">
        <ele>132.0937785319984</ele>
        <time>2026-05-04T08:06:23Z</time>
      </trkpt>
      <trkpt lat="22.394306366937233" lon="107.36932659001073">
        <ele>132.1440301956609</ele>
        <time>2026-05-04T08:06:24Z</time>
      </trkpt>
      <trkpt lat="22.39429309273957" lon="107.36932789221927">
        <ele>132.1835674205795</ele>
        <time>2026-05-04T08:06:25Z</time>
      </trkpt>
      <trkpt lat="22.39428022836788" lon="107.36932882298545">
        <ele>132.21507754083723</ele>
        <time>2026-05-04T08:06:26Z</time>
      </trkpt>
      <trkpt lat="22.39426819045427" lon="107.36932998458035">
        <ele>132.2417536629364</ele>
        <time>2026-05-04T08:06:27Z</time>
      </trkpt>
      <trkpt lat="22.394257456899002" lon="107.36933117382627">
        <ele>132.26720758527517</ele>
        <time>2026-05-04T08:06:28Z</time>
      </trkpt>
      <trkpt lat="22.394247659630437" lon="107.36933256357612">
        <ele>132.29509853757918</ele>
        <time>2026-05-04T08:06:29Z</time>
      </trkpt>
      <trkpt lat="22.394238183607982" lon="107.36933437736717">
        <ele>132.328029201366</ele>
        <time>2026-05-04T08:06:30Z</time>
      </trkpt>
      <trkpt lat="22.394229156543304" lon="107.36933712235151">
        <ele>132.36797779239714</ele>
        <time>2026-05-04T08:06:31Z</time>
      </trkpt>
      <trkpt lat="22.39422087257625" lon="107.36934083868823">
        <ele>132.41570473928005</ele>
        <time>2026-05-04T08:06:32Z</time>
      </trkpt>
      <trkpt lat="22.394213084572137" lon="107.36934566649097">
        <ele>132.47054361458868</ele>
        <time>2026-05-04T08:06:33Z</time>
      </trkpt>
      <trkpt lat="22.39420533807798" lon="107.36935139640607">
        <ele>132.53061795514077</ele>
        <time>2026-05-04T08:06:34Z</time>
      </trkpt>
      <trkpt lat="22.39419731198648" lon="107.3693580337761">
        <ele>132.59290161542594</ele>
        <time>2026-05-04T08:06:35Z</time>
      </trkpt>
      <trkpt lat="22.394189318742427" lon="107.36936562080886">
        <ele>132.6538823498413</ele>
        <time>2026-05-04T08:06:36Z</time>
      </trkpt>
      <trkpt lat="22.39418154871558" lon="107.36937422900037">
        <ele>132.71008831262589</ele>
        <time>2026-05-04T08:06:37Z</time>
      </trkpt>
      <trkpt lat="22.394174303735976" lon="107.36938367275472">
        <ele>132.75842000823468</ele>
        <time>2026-05-04T08:06:38Z</time>
      </trkpt>
      <trkpt lat="22.394167650864784" lon="107.36939397262212">
        <ele>132.79693539068103</ele>
        <time>2026-05-04T08:06:39Z</time>
      </trkpt>
      <trkpt lat="22.394161415180417" lon="107.36940522606778">
        <ele>132.82481928821653</ele>
        <time>2026-05-04T08:06:40Z</time>
      </trkpt>
      <trkpt lat="22.39415550093365" lon="107.36941737264158">
        <ele>132.84231077414006</ele>
        <time>2026-05-04T08:06:41Z</time>
      </trkpt>
      <trkpt lat="22.394149949215414" lon="107.36943018295668">
        <ele>132.8503594379872</ele>
        <time>2026-05-04T08:06:42Z</time>
      </trkpt>
      <trkpt lat="22.394144701332472" lon="107.36944388041391">
        <ele>132.85046425834298</ele>
        <time>2026-05-04T08:06:43Z</time>
      </trkpt>
      <trkpt lat="22.394139804337932" lon="107.36945832861356">
        <ele>132.84430484101176</ele>
        <time>2026-05-04T08:06:44Z</time>
      </trkpt>
      <trkpt lat="22.39413552215665" lon="107.3694731071896">
        <ele>132.83372653834522</ele>
        <time>2026-05-04T08:06:45Z</time>
      </trkpt>
      <trkpt lat="22.3941318791737" lon="107.36948828341473">
        <ele>132.82042736187577</ele>
        <time>2026-05-04T08:06:46Z</time>
      </trkpt>
      <trkpt lat="22.39412889836508" lon="107.36950383312586">
        <ele>132.8058145530522</ele>
        <time>2026-05-04T08:06:47Z</time>
      </trkpt>
      <trkpt lat="22.39412666576931" lon="107.3695192892914">
        <ele>132.7909372113645</ele>
        <time>2026-05-04T08:06:48Z</time>
      </trkpt>
      <trkpt lat="22.394124820217883" lon="107.36953470822564">
        <ele>132.7765061603859</ele>
        <time>2026-05-04T08:06:49Z</time>
      </trkpt>
      <trkpt lat="22.39412328367201" lon="107.36955007654905">
        <ele>132.7628251677379</ele>
        <time>2026-05-04T08:06:50Z</time>
      </trkpt>
      <trkpt lat="22.394122093331557" lon="107.36956521345282">
        <ele>132.74998265691102</ele>
        <time>2026-05-04T08:06:51Z</time>
      </trkpt>
      <trkpt lat="22.394121133765008" lon="107.36957991042082">
        <ele>132.7380184493959</ele>
        <time>2026-05-04T08:06:52Z</time>
      </trkpt>
      <trkpt lat="22.39412001432443" lon="107.36959455270625">
        <ele>132.72699923068285</ele>
        <time>2026-05-04T08:06:53Z</time>
      </trkpt>
      <trkpt lat="22.394118763448237" lon="107.36960941961777">
        <ele>132.7169889928773</ele>
        <time>2026-05-04T08:06:54Z</time>
      </trkpt>
      <trkpt lat="22.39411728900605" lon="107.36962438985616">
        <ele>132.70774373132735</ele>
        <time>2026-05-04T08:06:55Z</time>
      </trkpt>
      <trkpt lat="22.394115805249463" lon="107.36963987398893">
        <ele>132.6988989142701</ele>
        <time>2026-05-04T08:06:56Z</time>
      </trkpt>
      <trkpt lat="22.394113701886578" lon="107.36965597460868">
        <ele>132.69007130060345</ele>
        <time>2026-05-04T08:06:57Z</time>
      </trkpt>
      <trkpt lat="22.39411092373822" lon="107.36967287257413">
        <ele>132.6807138705626</ele>
        <time>2026-05-04T08:06:58Z</time>
      </trkpt>
      <trkpt lat="22.394107755967973" lon="107.36969051758543">
        <ele>132.67039344273508</ele>
        <time>2026-05-04T08:06:59Z</time>
      </trkpt>
      <trkpt lat="22.394104502852567" lon="107.36970905664819">
        <ele>132.6585566783324</ele>
        <time>2026-05-04T08:07:00Z</time>
      </trkpt>
      <trkpt lat="22.394101423258196" lon="107.36972793013588">
        <ele>132.6445156838745</ele>
        <time>2026-05-04T08:07:01Z</time>
      </trkpt>
      <trkpt lat="22.39409858954982" lon="107.36974746115605">
        <ele>132.62741146609187</ele>
        <time>2026-05-04T08:07:02Z</time>
      </trkpt>
      <trkpt lat="22.394095944620723" lon="107.36976776104838">
        <ele>132.60650320816785</ele>
        <time>2026-05-04T08:07:03Z</time>
      </trkpt>
      <trkpt lat="22.394092882561235" lon="107.36978868468086">
        <ele>132.5809790464118</ele>
        <time>2026-05-04T08:07:04Z</time>
      </trkpt>
      <trkpt lat="22.394089616899578" lon="107.36980917288759">
        <ele>132.5504467887804</ele>
        <time>2026-05-04T08:07:05Z</time>
      </trkpt>
      <trkpt lat="22.394086499628976" lon="107.36982836959834">
        <ele>132.51500489655882</ele>
        <time>2026-05-04T08:07:06Z</time>
      </trkpt>
      <trkpt lat="22.394083997033746" lon="107.36984657274064">
        <ele>132.4751610327512</ele>
        <time>2026-05-04T08:07:07Z</time>
      </trkpt>
      <trkpt lat="22.394081460380836" lon="107.36986504163448">
        <ele>132.43186587374657</ele>
        <time>2026-05-04T08:07:08Z</time>
      </trkpt>
      <trkpt lat="22.39407855058605" lon="107.36988354908506">
        <ele>132.38646775763482</ele>
        <time>2026-05-04T08:07:09Z</time>
      </trkpt>
      <trkpt lat="22.394075109239285" lon="107.36990195441659">
        <ele>132.34073146712035</ele>
        <time>2026-05-04T08:07:10Z</time>
      </trkpt>
      <trkpt lat="22.394070948588165" lon="107.36992060098797">
        <ele>132.29665836226195</ele>
        <time>2026-05-04T08:07:11Z</time>
      </trkpt>
      <trkpt lat="22.394066427475515" lon="107.36993935806498">
        <ele>132.2559700133279</ele>
        <time>2026-05-04T08:07:12Z</time>
      </trkpt>
      <trkpt lat="22.39406183832857" lon="107.36995797276865">
        <ele>132.2201989935711</ele>
        <time>2026-05-04T08:07:13Z</time>
      </trkpt>
      <trkpt lat="22.394057079456275" lon="107.36997636790551">
        <ele>132.1902564112097</ele>
        <time>2026-05-04T08:07:14Z</time>
      </trkpt>
      <trkpt lat="22.394052690084767" lon="107.36999417355375">
        <ele>132.16654599737376</ele>
        <time>2026-05-04T08:07:15Z</time>
      </trkpt>
      <trkpt lat="22.394048723710554" lon="107.37001221498527">
        <ele>132.14928483683616</ele>
        <time>2026-05-04T08:07:16Z</time>
      </trkpt>
      <trkpt lat="22.394044879001193" lon="107.3700307231515">
        <ele>132.13850442226976</ele>
        <time>2026-05-04T08:07:17Z</time>
      </trkpt>
      <trkpt lat="22.394041043866057" lon="107.3700493319539">
        <ele>132.13440106529742</ele>
        <time>2026-05-04T08:07:18Z</time>
      </trkpt>
      <trkpt lat="22.39403738645341" lon="107.37006796044619">
        <ele>132.13738719094545</ele>
        <time>2026-05-04T08:07:19Z</time>
      </trkpt>
      <trkpt lat="22.394033789377286" lon="107.37008676083019">
        <ele>132.14793366659433</ele>
        <time>2026-05-04T08:07:20Z</time>
      </trkpt>
      <trkpt lat="22.394030262188057" lon="107.37010535480938">
        <ele>132.16615012753755</ele>
        <time>2026-05-04T08:07:21Z</time>
      </trkpt>
      <trkpt lat="22.394027127006453" lon="107.37012365850023">
        <ele>132.19212335906923</ele>
        <time>2026-05-04T08:07:22Z</time>
      </trkpt>
      <trkpt lat="22.394024946628985" lon="107.37014110976097">
        <ele>132.22540535219014</ele>
        <time>2026-05-04T08:07:23Z</time>
      </trkpt>
      <trkpt lat="22.394024240156615" lon="107.37015733887657">
        <ele>132.26504284981638</ele>
        <time>2026-05-04T08:07:24Z</time>
      </trkpt>
      <trkpt lat="22.39402396684178" lon="107.37017296470613">
        <ele>132.30953962355852</ele>
        <time>2026-05-04T08:07:25Z</time>
      </trkpt>
      <trkpt lat="22.394023402339766" lon="107.3701889966633">
        <ele>132.3568862490356</ele>
        <time>2026-05-04T08:07:26Z</time>
      </trkpt>
      <trkpt lat="22.394022628251044" lon="107.37020488247795">
        <ele>132.40472516603768</ele>
        <time>2026-05-04T08:07:27Z</time>
      </trkpt>
      <trkpt lat="22.39402208747319" lon="107.37022025615693">
        <ele>132.45057226531208</ele>
        <time>2026-05-04T08:07:28Z</time>
      </trkpt>
      <trkpt lat="22.394022167275722" lon="107.37023456254835">
        <ele>132.4921809574589</ele>
        <time>2026-05-04T08:07:29Z</time>
      </trkpt>
      <trkpt lat="22.39402296086702" lon="107.37024686823742">
        <ele>132.52797247190028</ele>
        <time>2026-05-04T08:07:30Z</time>
      </trkpt>
      <trkpt lat="22.394024104739696" lon="107.37025803413333">
        <ele>132.55704977177083</ele>
        <time>2026-05-04T08:07:31Z</time>
      </trkpt>
      <trkpt lat="22.394025665779136" lon="107.37026977796607">
        <ele>132.57927229907364</ele>
        <time>2026-05-04T08:07:32Z</time>
      </trkpt>
      <trkpt lat="22.394027528717864" lon="107.37028164237327">
        <ele>132.59509309288114</ele>
        <time>2026-05-04T08:07:33Z</time>
      </trkpt>
      <trkpt lat="22.39402963536579" lon="107.3702939124691">
        <ele>132.6053022230044</ele>
        <time>2026-05-04T08:07:34Z</time>
      </trkpt>
      <trkpt lat="22.394031884469868" lon="107.3703070691889">
        <ele>132.61073311045766</ele>
        <time>2026-05-04T08:07:35Z</time>
      </trkpt>
      <trkpt lat="22.394034249392973" lon="107.37032099819987">
        <ele>132.6121257347986</ele>
        <time>2026-05-04T08:07:36Z</time>
      </trkpt>
      <trkpt lat="22.39403632864308" lon="107.370335382444">
        <ele>132.61007675901055</ele>
        <time>2026-05-04T08:07:37Z</time>
      </trkpt>
      <trkpt lat="22.394038260284475" lon="107.37034968692889">
        <ele>132.6050162287429</ele>
        <time>2026-05-04T08:07:38Z</time>
      </trkpt>
      <trkpt lat="22.39403984177036" lon="107.37036368280805">
        <ele>132.59724096115679</ele>
        <time>2026-05-04T08:07:39Z</time>
      </trkpt>
      <trkpt lat="22.394041048879217" lon="107.37037759119946">
        <ele>132.58709246385843</ele>
        <time>2026-05-04T08:07:40Z</time>
      </trkpt>
      <trkpt lat="22.39404195156521" lon="107.37039119685643">
        <ele>132.57486395630985</ele>
        <time>2026-05-04T08:07:41Z</time>
      </trkpt>
      <trkpt lat="22.39404254545896" lon="107.37040437172683">
        <ele>132.56080486159772</ele>
        <time>2026-05-04T08:07:42Z</time>
      </trkpt>
      <trkpt lat="22.394043068991973" lon="107.37041756209184">
        <ele>132.54512618109584</ele>
        <time>2026-05-04T08:07:43Z</time>
      </trkpt>
      <trkpt lat="22.39404364066445" lon="107.37043060075416">
        <ele>132.52807269245386</ele>
        <time>2026-05-04T08:07:44Z</time>
      </trkpt>
      <trkpt lat="22.394044308647256" lon="107.37044344287">
        <ele>132.5097152236849</ele>
        <time>2026-05-04T08:07:45Z</time>
      </trkpt>
      <trkpt lat="22.39404537898558" lon="107.37045543162773">
        <ele>132.4902026867494</ele>
        <time>2026-05-04T08:07:46Z</time>
      </trkpt>
      <trkpt lat="22.394046823382418" lon="107.370466798799">
        <ele>132.469727168791</ele>
        <time>2026-05-04T08:07:47Z</time>
      </trkpt>
      <trkpt lat="22.39404816754562" lon="107.37047818480345">
        <ele>132.44860351644456</ele>
        <time>2026-05-04T08:07:48Z</time>
      </trkpt>
      <trkpt lat="22.394049202128357" lon="107.37048991922025">
        <ele>132.4273536624387</ele>
        <time>2026-05-04T08:07:49Z</time>
      </trkpt>
      <trkpt lat="22.394049898062732" lon="107.37050160975014">
        <ele>132.40667650848627</ele>
        <time>2026-05-04T08:07:50Z</time>
      </trkpt>
      <trkpt lat="22.394050238794613" lon="107.37051325977453">
        <ele>132.38745304569602</ele>
        <time>2026-05-04T08:07:51Z</time>
      </trkpt>
      <trkpt lat="22.394050233440744" lon="107.37052507232707">
        <ele>132.37057484593242</ele>
        <time>2026-05-04T08:07:52Z</time>
      </trkpt>
      <trkpt lat="22.394049721289676" lon="107.37053693107818">
        <ele>132.35674016736448</ele>
        <time>2026-05-04T08:07:53Z</time>
      </trkpt>
      <trkpt lat="22.39404883567516" lon="107.37054870236796">
        <ele>132.34644886106253</ele>
        <time>2026-05-04T08:07:54Z</time>
      </trkpt>
      <trkpt lat="22.394047670496075" lon="107.37056033482673">
        <ele>132.33984690811485</ele>
        <time>2026-05-04T08:07:55Z</time>
      </trkpt>
      <trkpt lat="22.39404624712142" lon="107.3705720071559">
        <ele>132.3369161337614</ele>
        <time>2026-05-04T08:07:56Z</time>
      </trkpt>
      <trkpt lat="22.394044706018835" lon="107.37058424455275">
        <ele>132.33753538876772</ele>
        <time>2026-05-04T08:07:57Z</time>
      </trkpt>
      <trkpt lat="22.394043100971615" lon="107.37059718400036">
        <ele>132.34148048702627</ele>
        <time>2026-05-04T08:07:58Z</time>
      </trkpt>
      <trkpt lat="22.394041520828385" lon="107.37061067285387">
        <ele>132.34876747615635</ele>
        <time>2026-05-04T08:07:59Z</time>
      </trkpt>
      <trkpt lat="22.39403973013076" lon="107.37062458266767">
        <ele>132.35953612532467</ele>
        <time>2026-05-04T08:08:00Z</time>
      </trkpt>
      <trkpt lat="22.394037994882844" lon="107.3706384353841">
        <ele>132.37398277036846</ele>
        <time>2026-05-04T08:08:01Z</time>
      </trkpt>
      <trkpt lat="22.394036281880265" lon="107.3706518452632">
        <ele>132.39233127888292</ele>
        <time>2026-05-04T08:08:02Z</time>
      </trkpt>
      <trkpt lat="22.39403476337842" lon="107.37066500550482">
        <ele>132.41491874773055</ele>
        <time>2026-05-04T08:08:03Z</time>
      </trkpt>
      <trkpt lat="22.394033601010065" lon="107.37067792481385">
        <ele>132.44182761386037</ele>
        <time>2026-05-04T08:08:04Z</time>
      </trkpt>
      <trkpt lat="22.39403277256499" lon="107.37069084550637">
        <ele>132.47302386537194</ele>
        <time>2026-05-04T08:08:05Z</time>
      </trkpt>
      <trkpt lat="22.39403247468894" lon="107.37070399947184">
        <ele>132.50819571502507</ele>
        <time>2026-05-04T08:08:06Z</time>
      </trkpt>
      <trkpt lat="22.394032257693954" lon="107.37071707472641">
        <ele>132.54665751568973</ele>
        <time>2026-05-04T08:08:07Z</time>
      </trkpt>
      <trkpt lat="22.394032308890065" lon="107.37073050823592">
        <ele>132.58749445155263</ele>
        <time>2026-05-04T08:08:08Z</time>
      </trkpt>
      <trkpt lat="22.39403245027778" lon="107.37074440427222">
        <ele>132.62934538442641</ele>
        <time>2026-05-04T08:08:09Z</time>
      </trkpt>
      <trkpt lat="22.394032944800713" lon="107.37075830955763">
        <ele>132.67072954028845</ele>
        <time>2026-05-04T08:08:10Z</time>
      </trkpt>
      <trkpt lat="22.394034339643902" lon="107.37077301442234">
        <ele>132.71024883445352</ele>
        <time>2026-05-04T08:08:11Z</time>
      </trkpt>
      <trkpt lat="22.394036472938982" lon="107.3707875231495">
        <ele>132.7466809777543</ele>
        <time>2026-05-04T08:08:12Z</time>
      </trkpt>
      <trkpt lat="22.394039291442326" lon="107.37080072464401">
        <ele>132.779091456905</ele>
        <time>2026-05-04T08:08:13Z</time>
      </trkpt>
      <trkpt lat="22.394042213025628" lon="107.37081319815071">
        <ele>132.80687062814832</ele>
        <time>2026-05-04T08:08:14Z</time>
      </trkpt>
      <trkpt lat="22.3940455873798" lon="107.37082641869313">
        <ele>132.82969680894166</ele>
        <time>2026-05-04T08:08:15Z</time>
      </trkpt>
      <trkpt lat="22.3940489019483" lon="107.3708400555469">
        <ele>132.84749152511358</ele>
        <time>2026-05-04T08:08:16Z</time>
      </trkpt>
      <trkpt lat="22.394052054713832" lon="107.37085388211621">
        <ele>132.8604063615203</ele>
        <time>2026-05-04T08:08:17Z</time>
      </trkpt>
      <trkpt lat="22.394054683117215" lon="107.37086756347732">
        <ele>132.8687845254317</ele>
        <time>2026-05-04T08:08:18Z</time>
      </trkpt>
      <trkpt lat="22.394056802155863" lon="107.37088147354027">
        <ele>132.8732065455988</ele>
        <time>2026-05-04T08:08:19Z</time>
      </trkpt>
      <trkpt lat="22.394058690136262" lon="107.37089611382294">
        <ele>132.87437950912863</ele>
        <time>2026-05-04T08:08:20Z</time>
      </trkpt>
      <trkpt lat="22.394060468728497" lon="107.37091122775335">
        <ele>132.87300774082541</ele>
        <time>2026-05-04T08:08:21Z</time>
      </trkpt>
      <trkpt lat="22.394062115444303" lon="107.3709270807042">
        <ele>132.86989295762032</ele>
        <time>2026-05-04T08:08:22Z</time>
      </trkpt>
      <trkpt lat="22.394063589575698" lon="107.3709433317233">
        <ele>132.86576342768967</ele>
        <time>2026-05-04T08:08:23Z</time>
      </trkpt>
      <trkpt lat="22.39406480964971" lon="107.37095975664467">
        <ele>132.86132732685655</ele>
        <time>2026-05-04T08:08:24Z</time>
      </trkpt>
      <trkpt lat="22.394065945890226" lon="107.37097615040935">
        <ele>132.85725814662874</ele>
        <time>2026-05-04T08:08:25Z</time>
      </trkpt>
      <trkpt lat="22.394066980494696" lon="107.37099167740983">
        <ele>132.8542265566066</ele>
        <time>2026-05-04T08:08:26Z</time>
      </trkpt>
      <trkpt lat="22.39406800366888" lon="107.37100649807307">
        <ele>132.8526750979945</ele>
        <time>2026-05-04T08:08:27Z</time>
      </trkpt>
      <trkpt lat="22.394068966739795" lon="107.37102060141366">
        <ele>132.85296988859773</ele>
        <time>2026-05-04T08:08:28Z</time>
      </trkpt>
      <trkpt lat="22.394069954641456" lon="107.37103423137357">
        <ele>132.85533355455846</ele>
        <time>2026-05-04T08:08:29Z</time>
      </trkpt>
      <trkpt lat="22.3940712065479" lon="107.37104772072684">
        <ele>132.85980575997382</ele>
        <time>2026-05-04T08:08:30Z</time>
      </trkpt>
      <trkpt lat="22.394072314580896" lon="107.37106015211688">
        <ele>132.86616417393088</ele>
        <time>2026-05-04T08:08:31Z</time>
      </trkpt>
      <trkpt lat="22.39407306784441" lon="107.37107197095273">
        <ele>132.87403910048306</ele>
        <time>2026-05-04T08:08:32Z</time>
      </trkpt>
      <trkpt lat="22.39407357794753" lon="107.37108358238596">
        <ele>132.8829084848985</ele>
        <time>2026-05-04T08:08:33Z</time>
      </trkpt>
      <trkpt lat="22.39407354404483" lon="107.37109439796846">
        <ele>132.89213126245886</ele>
        <time>2026-05-04T08:08:34Z</time>
      </trkpt>
      <trkpt lat="22.394073296103723" lon="107.37110498382462">
        <ele>132.901084410958</ele>
        <time>2026-05-04T08:08:35Z</time>
      </trkpt>
      <trkpt lat="22.39407277352806" lon="107.3711158813711">
        <ele>132.9093024218455</ele>
        <time>2026-05-04T08:08:36Z</time>
      </trkpt>
      <trkpt lat="22.394071776187914" lon="107.37112708370198">
        <ele>132.91659071855247</ele>
        <time>2026-05-04T08:08:37Z</time>
      </trkpt>
      <trkpt lat="22.39407058771226" lon="107.37113812457761">
        <ele>132.92296278197318</ele>
        <time>2026-05-04T08:08:38Z</time>
      </trkpt>
      <trkpt lat="22.394069250515326" lon="107.37114894862665">
        <ele>132.9285614900291</ele>
        <time>2026-05-04T08:08:39Z</time>
      </trkpt>
      <trkpt lat="22.39406762909316" lon="107.37115938480719">
        <ele>132.93351474963129</ele>
        <time>2026-05-04T08:08:40Z</time>
      </trkpt>
      <trkpt lat="22.394065564614866" lon="107.37116930663814">
        <ele>132.9378705918789</ele>
        <time>2026-05-04T08:08:41Z</time>
      </trkpt>
      <trkpt lat="22.39406290272133" lon="107.37117860395674">
        <ele>132.94157752767205</ele>
        <time>2026-05-04T08:08:42Z</time>
      </trkpt>
      <trkpt lat="22.39405956595132" lon="107.37118718961321">
        <ele>132.94455200061202</ele>
        <time>2026-05-04T08:08:43Z</time>
      </trkpt>
      <trkpt lat="22.39405542881714" lon="107.37119499197748">
        <ele>132.9467506762594</ele>
        <time>2026-05-04T08:08:44Z</time>
      </trkpt>
      <trkpt lat="22.3940506453289" lon="107.37120215108817">
        <ele>132.9482621513307</ele>
        <time>2026-05-04T08:08:45Z</time>
      </trkpt>
      <trkpt lat="22.394045225564835" lon="107.3712089208739">
        <ele>132.94926280714571</ele>
        <time>2026-05-04T08:08:46Z</time>
      </trkpt>
      <trkpt lat="22.394039265062943" lon="107.37121562724617">
        <ele>132.94983835984021</ele>
        <time>2026-05-04T08:08:47Z</time>
      </trkpt>
      <trkpt lat="22.394032546781293" lon="107.37122200607138">
        <ele>132.950023971498</ele>
        <time>2026-05-04T08:08:48Z</time>
      </trkpt>
      <trkpt lat="22.39402477126959" lon="107.37122863800418">
        <ele>132.949885959737</ele>
        <time>2026-05-04T08:08:49Z</time>
      </trkpt>
      <trkpt lat="22.394016075246615" lon="107.3712356368663">
        <ele>132.949444453232</ele>
        <time>2026-05-04T08:08:50Z</time>
      </trkpt>
      <trkpt lat="22.39400653046353" lon="107.37124310143544">
        <ele>132.94868934433907</ele>
        <time>2026-05-04T08:08:51Z</time>
      </trkpt>
      <trkpt lat="22.39399639546047" lon="107.37125059315807">
        <ele>132.94755585864186</ele>
        <time>2026-05-04T08:08:52Z</time>
      </trkpt>
      <trkpt lat="22.393985499095322" lon="107.37125833285005">
        <ele>132.9458878468722</ele>
        <time>2026-05-04T08:08:53Z</time>
      </trkpt>
      <trkpt lat="22.393974055939427" lon="107.37126634618652">
        <ele>132.9434170667082</ele>
        <time>2026-05-04T08:08:54Z</time>
      </trkpt>
      <trkpt lat="22.393962058827388" lon="107.37127408374668">
        <ele>132.93974983785301</ele>
        <time>2026-05-04T08:08:55Z</time>
      </trkpt>
      <trkpt lat="22.393949601821376" lon="107.37128175927427">
        <ele>132.9345008134842</ele>
        <time>2026-05-04T08:08:56Z</time>
      </trkpt>
      <trkpt lat="22.39393681071404" lon="107.37128981000208">
        <ele>132.9274860918522</ele>
        <time>2026-05-04T08:08:57Z</time>
      </trkpt>
      <trkpt lat="22.39392322929084" lon="107.37129813949153">
        <ele>132.9187799775973</ele>
        <time>2026-05-04T08:08:58Z</time>
      </trkpt>
      <trkpt lat="22.393909683316114" lon="107.37130663777886">
        <ele>132.90855863504112</ele>
        <time>2026-05-04T08:08:59Z</time>
      </trkpt>
      <trkpt lat="22.39389644875923" lon="107.3713145313198">
        <ele>132.8972399868071</ele>
        <time>2026-05-04T08:09:00Z</time>
      </trkpt>
      <trkpt lat="22.393883637535808" lon="107.37132135693253">
        <ele>132.88531097769737</ele>
        <time>2026-05-04T08:09:01Z</time>
      </trkpt>
      <trkpt lat="22.393871313061656" lon="107.37132674985803">
        <ele>132.8732658084482</ele>
        <time>2026-05-04T08:09:02Z</time>
      </trkpt>
      <trkpt lat="22.393859386087907" lon="107.3713305430473">
        <ele>132.8615835858509</ele>
        <time>2026-05-04T08:09:03Z</time>
      </trkpt>
      <trkpt lat="22.393848153609724" lon="107.3713333220859">
        <ele>132.8507354101166</ele>
        <time>2026-05-04T08:09:04Z</time>
      </trkpt>
      <trkpt lat="22.393837600402996" lon="107.37133532283183">
        <ele>132.84124278090894</ele>
        <time>2026-05-04T08:09:05Z</time>
      </trkpt>
      <trkpt lat="22.393827823143486" lon="107.37133676531572">
        <ele>132.8335785092786</ele>
        <time>2026-05-04T08:09:06Z</time>
      </trkpt>
      <trkpt lat="22.393818943278294" lon="107.37133798793441">
        <ele>132.8280787197873</ele>
        <time>2026-05-04T08:09:07Z</time>
      </trkpt>
      <trkpt lat="22.393810614472226" lon="107.37133881326753">
        <ele>132.82491224072874</ele>
        <time>2026-05-04T08:09:08Z</time>
      </trkpt>
      <trkpt lat="22.393802685179534" lon="107.3713390852769">
        <ele>132.82423394359648</ele>
        <time>2026-05-04T08:09:09Z</time>
      </trkpt>
      <trkpt lat="22.39379516497363" lon="107.37133871240444">
        <ele>132.8256918154657</ele>
        <time>2026-05-04T08:09:10Z</time>
      </trkpt>
      <trkpt lat="22.39378801627031" lon="107.37133807767036">
        <ele>132.8287250045687</ele>
        <time>2026-05-04T08:09:11Z</time>
      </trkpt>
      <trkpt lat="22.393781185506413" lon="107.37133726615991">
        <ele>132.83113225921988</ele>
        <time>2026-05-04T08:09:12Z</time>
      </trkpt>
      <trkpt lat="22.393774700084336" lon="107.37133638770112">
        <ele>132.83358998969197</ele>
        <time>2026-05-04T08:09:13Z</time>
      </trkpt>
      <trkpt lat="22.39376861677378" lon="107.37133556519285">
        <ele>132.84404626861215</ele>
        <time>2026-05-04T08:09:14Z</time>
      </trkpt>
      <trkpt lat="22.39376297997414" lon="107.37133492781184">
        <ele>132.83363063260913</ele>
        <time>2026-05-04T08:09:15Z</time>
      </trkpt>
      <trkpt lat="22.393757810295554" lon="107.37133465860418">
        <ele>132.80556271690875</ele>
        <time>2026-05-04T08:09:16Z</time>
      </trkpt>
      <trkpt lat="22.393753146835973" lon="107.3713348740468">
        <ele>132.75135564990342</ele>
        <time>2026-05-04T08:09:17Z</time>
      </trkpt>
      <trkpt lat="22.39374899453486" lon="107.37133556444888">
        <ele>132.66085274610668</ele>
        <time>2026-05-04T08:09:18Z</time>
      </trkpt>
      <trkpt lat="22.39374532136334" lon="107.37133664090639">
        <ele>132.52282682526857</ele>
        <time>2026-05-04T08:09:19Z</time>
      </trkpt>
      <trkpt lat="22.39374205789788" lon="107.37133802803041">
        <ele>132.32611873466522</ele>
        <time>2026-05-04T08:09:20Z</time>
      </trkpt>
      <trkpt lat="22.39373911479786" lon="107.37133965374764">
        <ele>132.06140432599932</ele>
        <time>2026-05-04T08:09:21Z</time>
      </trkpt>
      <trkpt lat="22.39373606939342" lon="107.37134170026191">
        <ele>131.66357341129333</ele>
        <time>2026-05-04T08:09:23Z</time>
      </trkpt>
      <trkpt lat="22.393733563191514" lon="107.37134362951078">
        <ele>131.22606980521232</ele>
        <time>2026-05-04T08:09:24Z</time>
      </trkpt>
      <trkpt lat="22.393731155955315" lon="107.3713456105051">
        <ele>130.73309436626732</ele>
        <time>2026-05-04T08:09:25Z</time>
      </trkpt>
    </trkseg>
  </trk>
</gpx>