<?xml version="1.0" encoding="UTF-8"?>
<gpx xmlns="http://www.topografix.com/GPX/1/1" xmlns:gpxtpx="http://www.garmin.com/xmlschemas/TrackPointExtension/v1" xmlns:xsi="http://www.w3.org/2001/XMLSchema-instance" xsi:schemaLocation="http://www.topografix.com/GPX/1/1 http://www.topografix.com/GPX/1/1/gpx.xsd" version="1.1" creator="gpx.py -- https://github.com/tkrajina/gpxpy">
  <trk>
    <name>gpx from keep</name>
    <type>Walk</type>
    <trkseg>
      <trkpt lat="22.647831776116128" lon="107.60989823700478">
        <ele>100.55108833312988</ele>
        <time>2023-01-30T13:27:45Z</time>
      </trkpt>
      <trkpt lat="22.647809720048937" lon="107.60985025726946">
        <ele>100.4443473815918</ele>
        <time>2023-01-30T13:27:51Z</time>
      </trkpt>
      <trkpt lat="22.648039950322033" lon="107.60971222125677">
        <ele>99.16624069213867</ele>
        <time>2023-01-30T13:28:05Z</time>
      </trkpt>
      <trkpt lat="22.64793979245857" lon="107.6096717431726">
        <ele>98.69327926635742</ele>
        <time>2023-01-30T13:28:08Z</time>
      </trkpt>
      <trkpt lat="22.647991936412133" lon="107.60961768858067">
        <ele>98.46952438354492</ele>
        <time>2023-01-30T13:28:11Z</time>
      </trkpt>
      <trkpt lat="22.64792712248035" lon="107.60966325295807">
        <ele>97.43973879702389</ele>
        <time>2023-01-30T13:28:15Z</time>
      </trkpt>
      <trkpt lat="22.647914899440504" lon="107.60955662645014">
        <ele>95.08964116685092</ele>
        <time>2023-01-30T13:28:18Z</time>
      </trkpt>
      <trkpt lat="22.64798790450802" lon="107.60922722806443">
        <ele>98.09733168315142</ele>
        <time>2023-01-30T13:28:25Z</time>
      </trkpt>
      <trkpt lat="22.64791818872812" lon="107.60928775295065">
        <ele>96.11173588596284</ele>
        <time>2023-01-30T13:28:29Z</time>
      </trkpt>
      <trkpt lat="22.64797362957741" lon="107.60966346477683">
        <ele>98.36130860820413</ele>
        <time>2023-01-30T13:28:36Z</time>
      </trkpt>
      <trkpt lat="22.647794331071072" lon="107.60962590153768">
        <ele>94.40928223356605</ele>
        <time>2023-01-30T13:28:39Z</time>
      </trkpt>
      <trkpt lat="22.647772318490933" lon="107.60976372322584">
        <ele>97.3820749539882</ele>
        <time>2023-01-30T13:28:43Z</time>
      </trkpt>
      <trkpt lat="22.64780192298777" lon="107.60980239360039">
        <ele>97.63453133124858</ele>
        <time>2023-01-30T13:28:46Z</time>
      </trkpt>
      <trkpt lat="22.647549828980544" lon="107.60976707862417">
        <ele>101.14249396696687</ele>
        <time>2023-01-30T13:29:16Z</time>
      </trkpt>
      <trkpt lat="22.647473319271196" lon="107.60980564447678">
        <ele>101.2755693141371</ele>
        <time>2023-01-30T13:29:23Z</time>
      </trkpt>
      <trkpt lat="22.64739907127339" lon="107.60981151024586">
        <ele>101.3666389901191</ele>
        <time>2023-01-30T13:29:30Z</time>
      </trkpt>
      <trkpt lat="22.647309083579295" lon="107.60961448583828">
        <ele>102.69698267802596</ele>
        <time>2023-01-30T13:29:52Z</time>
      </trkpt>
      <trkpt lat="22.647328076532546" lon="107.60955260545444">
        <ele>104.30516562983394</ele>
        <time>2023-01-30T13:29:58Z</time>
      </trkpt>
      <trkpt lat="22.647430378776768" lon="107.60943223719956">
        <ele>103.32061669044197</ele>
        <time>2023-01-30T13:30:11Z</time>
      </trkpt>
      <trkpt lat="22.647471836884243" lon="107.60932511312218">
        <ele>101.21711641084403</ele>
        <time>2023-01-30T13:30:28Z</time>
      </trkpt>
      <trkpt lat="22.647477063179085" lon="107.60915778022009">
        <ele>101.80521446466446</ele>
        <time>2023-01-30T13:30:43Z</time>
      </trkpt>
      <trkpt lat="22.64757623521703" lon="107.60906370431846">
        <ele>100.79428183380514</ele>
        <time>2023-01-30T13:30:52Z</time>
      </trkpt>
      <trkpt lat="22.64760992364355" lon="107.60912688104547">
        <ele>99.19961577933282</ele>
        <time>2023-01-30T13:31:01Z</time>
      </trkpt>
      <trkpt lat="22.64756795654602" lon="107.60916569544257">
        <ele>99.25617428030819</ele>
        <time>2023-01-30T13:31:04Z</time>
      </trkpt>
      <trkpt lat="22.647584289484563" lon="107.60928887932268">
        <ele>99.31364853680134</ele>
        <time>2023-01-30T13:31:07Z</time>
      </trkpt>
      <trkpt lat="22.647522145674095" lon="107.6093499925988">
        <ele>99.21587170287967</ele>
        <time>2023-01-30T13:31:25Z</time>
      </trkpt>
      <trkpt lat="22.647671488971984" lon="107.60936132585648">
        <ele>98.84877230692655</ele>
        <time>2023-01-30T13:32:23Z</time>
      </trkpt>
      <trkpt lat="22.647652055262682" lon="107.60920067023594">
        <ele>99.10830670315772</ele>
        <time>2023-01-30T13:32:35Z</time>
      </trkpt>
      <trkpt lat="22.647764030700394" lon="107.60920075402893">
        <ele>99.22255294956267</ele>
        <time>2023-01-30T13:32:38Z</time>
      </trkpt>
      <trkpt lat="22.647537652020663" lon="107.60913584530144">
        <ele>98.00174396019429</ele>
        <time>2023-01-30T13:33:44Z</time>
      </trkpt>
      <trkpt lat="22.64747978346231" lon="107.60904350674367">
        <ele>97.3856533234939</ele>
        <time>2023-01-30T13:33:47Z</time>
      </trkpt>
      <trkpt lat="22.64742889993545" lon="107.60904622050154">
        <ele>98.45339830499142</ele>
        <time>2023-01-30T13:33:53Z</time>
      </trkpt>
      <trkpt lat="22.647428602525185" lon="107.60918783186526">
        <ele>98.82253351714462</ele>
        <time>2023-01-30T13:33:56Z</time>
      </trkpt>
      <trkpt lat="22.647296715971585" lon="107.60930785746994">
        <ele>99.01480154599994</ele>
        <time>2023-01-30T13:34:02Z</time>
      </trkpt>
      <trkpt lat="22.647467408280985" lon="107.60929948745083">
        <ele>98.5945882992819</ele>
        <time>2023-01-30T13:34:08Z</time>
      </trkpt>
      <trkpt lat="22.647452309746896" lon="107.60937906751403">
        <ele>99.00872574280947</ele>
        <time>2023-01-30T13:34:14Z</time>
      </trkpt>
      <trkpt lat="22.647317624228698" lon="107.60954208991183">
        <ele>99.17009587213397</ele>
        <time>2023-01-30T13:34:30Z</time>
      </trkpt>
      <trkpt lat="22.647347715136256" lon="107.60969553757322">
        <ele>99.83878358639777</ele>
        <time>2023-01-30T13:34:44Z</time>
      </trkpt>
      <trkpt lat="22.647382938789544" lon="107.60975999486759">
        <ele>99.57483906764537</ele>
        <time>2023-01-30T13:34:50Z</time>
      </trkpt>
      <trkpt lat="22.647432121574674" lon="107.60980922752508">
        <ele>99.59370913542807</ele>
        <time>2023-01-30T13:34:56Z</time>
      </trkpt>
      <trkpt lat="22.647723316003127" lon="107.60974696558098">
        <ele>99.9658968122676</ele>
        <time>2023-01-30T13:35:26Z</time>
      </trkpt>
      <trkpt lat="22.647792895558204" lon="107.60974255121339">
        <ele>100.32313398923725</ele>
        <time>2023-01-30T13:35:35Z</time>
      </trkpt>
      <trkpt lat="22.647890521632625" lon="107.60979213442468">
        <ele>100.27385392878205</ele>
        <time>2023-01-30T13:35:50Z</time>
      </trkpt>
      <trkpt lat="22.647933052814764" lon="107.6098360645673">
        <ele>100.31391579378396</ele>
        <time>2023-01-30T13:35:56Z</time>
      </trkpt>
      <trkpt lat="22.647879442920093" lon="107.60979503333161">
        <ele>99.51933012343943</ele>
        <time>2023-01-30T13:36:05Z</time>
      </trkpt>
      <trkpt lat="22.647957879646352" lon="107.60984950953826">
        <ele>99.76585065294057</ele>
        <time>2023-01-30T13:36:11Z</time>
      </trkpt>
      <trkpt lat="22.647971858765256" lon="107.6097308801641">
        <ele>99.6310606924817</ele>
        <time>2023-01-30T13:36:14Z</time>
      </trkpt>
      <trkpt lat="22.647948263719105" lon="107.60977530728029">
        <ele>99.19686324801296</ele>
        <time>2023-01-30T13:36:17Z</time>
      </trkpt>
      <trkpt lat="22.64798198866184" lon="107.60987467234672">
        <ele>99.57974280510098</ele>
        <time>2023-01-30T13:36:20Z</time>
      </trkpt>
      <trkpt lat="22.648041271318807" lon="107.60994123164049">
        <ele>99.42483433801681</ele>
        <time>2023-01-30T13:36:26Z</time>
      </trkpt>
      <trkpt lat="22.64797571646891" lon="107.6098757511336">
        <ele>99.04185519460589</ele>
        <time>2023-01-30T13:36:36Z</time>
      </trkpt>
      <trkpt lat="22.64800750112244" lon="107.61008448897013">
        <ele>99.38982059434056</ele>
        <time>2023-01-30T13:36:48Z</time>
      </trkpt>
      <trkpt lat="22.64797358946019" lon="107.61013230970593">
        <ele>99.0908857230097</ele>
        <time>2023-01-30T13:37:00Z</time>
      </trkpt>
      <trkpt lat="22.64798957524342" lon="107.61007532776799">
        <ele>104.77873611450195</ele>
        <time>2023-01-30T13:37:35Z</time>
      </trkpt>
      <trkpt lat="22.648056977808622" lon="107.61009735174771">
        <ele>104.60573959350586</ele>
        <time>2023-01-30T13:38:37Z</time>
      </trkpt>
      <trkpt lat="22.648056977808622" lon="107.61009735174771">
        <ele>104.60573959350586</ele>
        <time>2023-01-30T13:38:44Z</time>
      </trkpt>
    </trkseg>
  </trk>
</gpx>