<?xml version="1.0" encoding="UTF-8"?>
<gpx xmlns="http://www.topografix.com/GPX/1/1" xmlns:gpxtpx="http://www.garmin.com/xmlschemas/TrackPointExtension/v1" xmlns:xsi="http://www.w3.org/2001/XMLSchema-instance" xsi:schemaLocation="http://www.topografix.com/GPX/1/1 http://www.topografix.com/GPX/1/1/gpx.xsd" version="1.1" creator="gpx.py -- https://github.com/tkrajina/gpxpy">
  <trk>
    <name>gpx from keep</name>
    <type>Walk</type>
    <trkseg>
      <trkpt lat="22.392530482788988" lon="107.3694433400912">
        <ele>131.29327164031565</ele>
        <time>2026-03-23T06:02:57Z</time>
      </trkpt>
      <trkpt lat="22.39275059109295" lon="107.36944763370653">
        <ele>132.0426817741245</ele>
        <time>2026-03-23T06:03:08Z</time>
      </trkpt>
      <trkpt lat="22.39280732901974" lon="107.36940270983726">
        <ele>130.84969634190202</ele>
        <time>2026-03-23T06:03:12Z</time>
      </trkpt>
      <trkpt lat="22.392897044820707" lon="107.36951551369064">
        <ele>129.1535303266719</ele>
        <time>2026-03-23T06:03:20Z</time>
      </trkpt>
      <trkpt lat="22.393022122227475" lon="107.36959341226196">
        <ele>127.82748532574624</ele>
        <time>2026-03-23T06:03:28Z</time>
      </trkpt>
      <trkpt lat="22.393052525131246" lon="107.3696617725205">
        <ele>128.51487404480577</ele>
        <time>2026-03-23T06:03:32Z</time>
      </trkpt>
      <trkpt lat="22.39307567793195" lon="107.36985423118918">
        <ele>129.24802930280566</ele>
        <time>2026-03-23T06:03:48Z</time>
      </trkpt>
      <trkpt lat="22.39304935154623" lon="107.36994232988899">
        <ele>129.34765974339098</ele>
        <time>2026-03-23T06:03:56Z</time>
      </trkpt>
      <trkpt lat="22.39305569967392" lon="107.37003239515228">
        <ele>129.73554819263518</ele>
        <time>2026-03-23T06:04:04Z</time>
      </trkpt>
      <trkpt lat="22.39301942774214" lon="107.37011193751992">
        <ele>130.39391868561506</ele>
        <time>2026-03-23T06:04:12Z</time>
      </trkpt>
      <trkpt lat="22.3930526863096" lon="107.37020372493609">
        <ele>130.39662453439087</ele>
        <time>2026-03-23T06:04:20Z</time>
      </trkpt>
      <trkpt lat="22.393061747522452" lon="107.37028863523477">
        <ele>131.11690986622125</ele>
        <time>2026-03-23T06:04:28Z</time>
      </trkpt>
      <trkpt lat="22.393021490951515" lon="107.37034075314956">
        <ele>130.69880233611912</ele>
        <time>2026-03-23T06:04:32Z</time>
      </trkpt>
      <trkpt lat="22.393059627683673" lon="107.37056614647726">
        <ele>131.06780174560845</ele>
        <time>2026-03-23T06:04:55Z</time>
      </trkpt>
      <trkpt lat="22.39305967995457" lon="107.37066125433395">
        <ele>131.07626614440233</ele>
        <time>2026-03-23T06:05:02Z</time>
      </trkpt>
      <trkpt lat="22.393019332721707" lon="107.37071796503672">
        <ele>131.80900500249118</ele>
        <time>2026-03-23T06:05:12Z</time>
      </trkpt>
      <trkpt lat="22.393060611776146" lon="107.37096422231839">
        <ele>130.85917271208018</ele>
        <time>2026-03-23T06:05:36Z</time>
      </trkpt>
      <trkpt lat="22.393093043834323" lon="107.3710145510536">
        <ele>131.58895071130246</ele>
        <time>2026-03-23T06:05:42Z</time>
      </trkpt>
      <trkpt lat="22.393065485153592" lon="107.37107323116655">
        <ele>131.10514552611858</ele>
        <time>2026-03-23T06:05:51Z</time>
      </trkpt>
      <trkpt lat="22.393045669038262" lon="107.37102238588326">
        <ele>130.83203590475023</ele>
        <time>2026-03-23T06:05:54Z</time>
      </trkpt>
      <trkpt lat="22.39293534452555" lon="107.37106191897406">
        <ele>129.99243832752109</ele>
        <time>2026-03-23T06:06:00Z</time>
      </trkpt>
      <trkpt lat="22.392915520697805" lon="107.37111533454664">
        <ele>129.34336362686008</ele>
        <time>2026-03-23T06:06:06Z</time>
      </trkpt>
      <trkpt lat="22.393060680608794" lon="107.3712859339949">
        <ele>128.87848469242454</ele>
        <time>2026-03-23T06:06:09Z</time>
      </trkpt>
      <trkpt lat="22.39325196399864" lon="107.37121694964615">
        <ele>129.24430794641376</ele>
        <time>2026-03-23T06:06:12Z</time>
      </trkpt>
      <trkpt lat="22.393477175309748" lon="107.37132336591904">
        <ele>130.17059075273573</ele>
        <time>2026-03-23T06:06:21Z</time>
      </trkpt>
      <trkpt lat="22.39354049857908" lon="107.37128448171119">
        <ele>129.87877607904375</ele>
        <time>2026-03-23T06:06:27Z</time>
      </trkpt>
      <trkpt lat="22.39359835616814" lon="107.37129617981503">
        <ele>130.62964367400855</ele>
        <time>2026-03-23T06:06:36Z</time>
      </trkpt>
      <trkpt lat="22.393773697157595" lon="107.371223307557">
        <ele>132.01001400966197</ele>
        <time>2026-03-23T06:06:54Z</time>
      </trkpt>
      <trkpt lat="22.39383267333826" lon="107.37116832927188">
        <ele>131.35663944110274</ele>
        <time>2026-03-23T06:06:57Z</time>
      </trkpt>
      <trkpt lat="22.39388719389709" lon="107.37117870996506">
        <ele>129.960686462</ele>
        <time>2026-03-23T06:07:00Z</time>
      </trkpt>
      <trkpt lat="22.393887985550116" lon="107.37111604398208">
        <ele>130.24821172095835</ele>
        <time>2026-03-23T06:07:09Z</time>
      </trkpt>
      <trkpt lat="22.39386451407896" lon="107.37107188115861">
        <ele>130.45996477734298</ele>
        <time>2026-03-23T06:07:12Z</time>
      </trkpt>
      <trkpt lat="22.393812020781795" lon="107.37129806493438">
        <ele>132.94442187309267</ele>
        <time>2026-03-23T06:07:32Z</time>
      </trkpt>
      <trkpt lat="22.393933108555228" lon="107.37158603556328">
        <ele>132.94442187309267</ele>
        <time>2026-03-23T06:07:42Z</time>
      </trkpt>
      <trkpt lat="22.393978197860154" lon="107.37139860486779">
        <ele>132.94442187309267</ele>
        <time>2026-03-23T06:07:50Z</time>
      </trkpt>
      <trkpt lat="22.394037603918704" lon="107.3712967900052">
        <ele>132.94442187309267</ele>
        <time>2026-03-23T06:07:57Z</time>
      </trkpt>
      <trkpt lat="22.394098778626496" lon="107.37137726437655">
        <ele>138.75442187309267</ele>
        <time>2026-03-23T06:08:07Z</time>
      </trkpt>
      <trkpt lat="22.39410618363421" lon="107.3714273656303">
        <ele>139.03442187309264</ele>
        <time>2026-03-23T06:08:37Z</time>
      </trkpt>
      <trkpt lat="22.39410618363421" lon="107.3714273656303">
        <ele>139.03442187309264</ele>
        <time>2026-03-23T06:08:41Z</time>
      </trkpt>
    </trkseg>
  </trk>
</gpx>