<?xml version="1.0" encoding="UTF-8"?>
<gpx xmlns="http://www.topografix.com/GPX/1/1" xmlns:gpxtpx="http://www.garmin.com/xmlschemas/TrackPointExtension/v1" xmlns:xsi="http://www.w3.org/2001/XMLSchema-instance" xsi:schemaLocation="http://www.topografix.com/GPX/1/1 http://www.topografix.com/GPX/1/1/gpx.xsd" version="1.1" creator="gpx.py -- https://github.com/tkrajina/gpxpy">
  <trk>
    <name>gpx from keep</name>
    <type>Walk</type>
    <trkseg>
      <trkpt lat="22.393708964143258" lon="107.37108901668583">
        <ele>131.11308985576034</ele>
        <time>2026-03-06T09:27:20Z</time>
      </trkpt>
      <trkpt lat="22.393650939866532" lon="107.37104014491906">
        <ele>130.85345223918557</ele>
        <time>2026-03-06T09:27:23Z</time>
      </trkpt>
      <trkpt lat="22.393611673577364" lon="107.37098055756863">
        <ele>131.55611278116703</ele>
        <time>2026-03-06T09:27:29Z</time>
      </trkpt>
      <trkpt lat="22.393650924658424" lon="107.37087346093153">
        <ele>131.1293027838692</ele>
        <time>2026-03-06T09:27:35Z</time>
      </trkpt>
      <trkpt lat="22.39361321585215" lon="107.37076347494553">
        <ele>130.31821562629193</ele>
        <time>2026-03-06T09:27:43Z</time>
      </trkpt>
      <trkpt lat="22.3936136319552" lon="107.37069810209842">
        <ele>130.8582840533927</ele>
        <time>2026-03-06T09:27:47Z</time>
      </trkpt>
      <trkpt lat="22.393698319815975" lon="107.37051759956088">
        <ele>130.95393466763198</ele>
        <time>2026-03-06T09:28:03Z</time>
      </trkpt>
      <trkpt lat="22.393707812227557" lon="107.37046760504226">
        <ele>131.23040278162807</ele>
        <time>2026-03-06T09:28:07Z</time>
      </trkpt>
      <trkpt lat="22.393678168120335" lon="107.37033682340687">
        <ele>131.6241709990427</ele>
        <time>2026-03-06T09:28:15Z</time>
      </trkpt>
      <trkpt lat="22.39369822722638" lon="107.37013074623121">
        <ele>131.74828289542347</ele>
        <time>2026-03-06T09:28:27Z</time>
      </trkpt>
      <trkpt lat="22.393661413770676" lon="107.3700441132697">
        <ele>131.5195694770664</ele>
        <time>2026-03-06T09:28:35Z</time>
      </trkpt>
      <trkpt lat="22.393527090612356" lon="107.36999341077099">
        <ele>129.73696301039308</ele>
        <time>2026-03-06T09:28:51Z</time>
      </trkpt>
      <trkpt lat="22.393463006572645" lon="107.36998919121802">
        <ele>130.2527586435899</ele>
        <time>2026-03-06T09:28:55Z</time>
      </trkpt>
      <trkpt lat="22.39340654952212" lon="107.37001822149885">
        <ele>130.54544850531965</ele>
        <time>2026-03-06T09:28:58Z</time>
      </trkpt>
      <trkpt lat="22.393190470133597" lon="107.370011333724">
        <ele>129.48177837207913</ele>
        <time>2026-03-06T09:29:10Z</time>
      </trkpt>
      <trkpt lat="22.393109104939864" lon="107.36996741714783">
        <ele>129.42424904648215</ele>
        <time>2026-03-06T09:29:16Z</time>
      </trkpt>
      <trkpt lat="22.393051189756118" lon="107.36982571517227">
        <ele>131.36410110909492</ele>
        <time>2026-03-06T09:29:28Z</time>
      </trkpt>
      <trkpt lat="22.393004084703964" lon="107.36976637429046">
        <ele>129.77889407612383</ele>
        <time>2026-03-06T09:29:34Z</time>
      </trkpt>
      <trkpt lat="22.39298943130911" lon="107.36971021500815">
        <ele>130.1625652583316</ele>
        <time>2026-03-06T09:29:37Z</time>
      </trkpt>
      <trkpt lat="22.393002589794673" lon="107.36961536801525">
        <ele>130.0787383504212</ele>
        <time>2026-03-06T09:29:44Z</time>
      </trkpt>
      <trkpt lat="22.392848079087106" lon="107.36956057324815">
        <ele>128.61221657600254</ele>
        <time>2026-03-06T09:30:00Z</time>
      </trkpt>
      <trkpt lat="22.39278042849603" lon="107.36955164060292">
        <ele>128.4239055197686</ele>
        <time>2026-03-06T09:30:04Z</time>
      </trkpt>
      <trkpt lat="22.392730391055938" lon="107.36943743225687">
        <ele>131.10083862487227</ele>
        <time>2026-03-06T09:30:12Z</time>
      </trkpt>
      <trkpt lat="22.392701150795624" lon="107.36931268597732">
        <ele>130.7051350660622</ele>
        <time>2026-03-06T09:30:20Z</time>
      </trkpt>
      <trkpt lat="22.392641274813762" lon="107.36921318146194">
        <ele>130.9614209011197</ele>
        <time>2026-03-06T09:30:28Z</time>
      </trkpt>
      <trkpt lat="22.392544502526555" lon="107.36921660212808">
        <ele>131.71586989983916</ele>
        <time>2026-03-06T09:30:40Z</time>
      </trkpt>
      <trkpt lat="22.39259274807547" lon="107.36920755097563">
        <ele>131.17294612713158</ele>
        <time>2026-03-06T09:30:56Z</time>
      </trkpt>
      <trkpt lat="22.392533855759464" lon="107.36918947516459">
        <ele>130.40835901908576</ele>
        <time>2026-03-06T09:31:15Z</time>
      </trkpt>
      <trkpt lat="22.392585436776116" lon="107.36918947846866">
        <ele>133.45920713059604</ele>
        <time>2026-03-06T09:32:45Z</time>
      </trkpt>
      <trkpt lat="22.39301868870842" lon="107.36964161234205">
        <ele>129.6299942964688</ele>
        <time>2026-03-06T09:34:19Z</time>
      </trkpt>
      <trkpt lat="22.393050099930786" lon="107.36989746509522">
        <ele>126.54035259224474</ele>
        <time>2026-03-06T09:34:35Z</time>
      </trkpt>
      <trkpt lat="22.393214378865984" lon="107.36991905999471">
        <ele>132.32753357104957</ele>
        <time>2026-03-06T09:34:43Z</time>
      </trkpt>
      <trkpt lat="22.393267465923426" lon="107.36999269851941">
        <ele>130.65530483610928</ele>
        <time>2026-03-06T09:34:47Z</time>
      </trkpt>
      <trkpt lat="22.39337418439265" lon="107.36996871407598">
        <ele>129.1912483498454</ele>
        <time>2026-03-06T09:34:51Z</time>
      </trkpt>
      <trkpt lat="22.39350305092864" lon="107.37001479485156">
        <ele>128.95258075091988</ele>
        <time>2026-03-06T09:34:55Z</time>
      </trkpt>
      <trkpt lat="22.39360940144302" lon="107.37002280414633">
        <ele>129.21143899019808</ele>
        <time>2026-03-06T09:34:59Z</time>
      </trkpt>
      <trkpt lat="22.393458214325758" lon="107.36996845955521">
        <ele>128.70086311735213</ele>
        <time>2026-03-06T09:35:03Z</time>
      </trkpt>
      <trkpt lat="22.39367442493861" lon="107.37012373962098">
        <ele>129.16367516480386</ele>
        <time>2026-03-06T09:35:10Z</time>
      </trkpt>
      <trkpt lat="22.39368435449718" lon="107.37026837061408">
        <ele>129.30793971940875</ele>
        <time>2026-03-06T09:35:14Z</time>
      </trkpt>
      <trkpt lat="22.393744782457063" lon="107.3704333261795">
        <ele>129.97792770620435</ele>
        <time>2026-03-06T09:35:29Z</time>
      </trkpt>
      <trkpt lat="22.393728408231926" lon="107.3705376908919">
        <ele>130.13206623867154</ele>
        <time>2026-03-06T09:35:39Z</time>
      </trkpt>
      <trkpt lat="22.393683068078644" lon="107.37059235109838">
        <ele>130.06485133618116</ele>
        <time>2026-03-06T09:35:43Z</time>
      </trkpt>
      <trkpt lat="22.393737750134452" lon="107.37065544249451">
        <ele>129.66216525621712</ele>
        <time>2026-03-06T09:35:47Z</time>
      </trkpt>
      <trkpt lat="22.39373443440999" lon="107.37073004066258">
        <ele>129.40300016012043</ele>
        <time>2026-03-06T09:35:51Z</time>
      </trkpt>
      <trkpt lat="22.393671705379624" lon="107.37091278331845">
        <ele>129.74017937667668</ele>
        <time>2026-03-06T09:35:55Z</time>
      </trkpt>
      <trkpt lat="22.393589238910135" lon="107.37103651201937">
        <ele>129.79845856968313</ele>
        <time>2026-03-06T09:35:59Z</time>
      </trkpt>
      <trkpt lat="22.393714931788242" lon="107.37113062958082">
        <ele>130.17162729986012</ele>
        <time>2026-03-06T09:36:03Z</time>
      </trkpt>
      <trkpt lat="22.393865895415075" lon="107.37129785070452">
        <ele>130.4856375362724</ele>
        <time>2026-03-06T09:36:11Z</time>
      </trkpt>
      <trkpt lat="22.393912044347676" lon="107.37133138149254">
        <ele>130.5430632745847</ele>
        <time>2026-03-06T09:36:15Z</time>
      </trkpt>
      <trkpt lat="22.393947941311374" lon="107.37115025019129">
        <ele>130.9154213005677</ele>
        <time>2026-03-06T09:36:19Z</time>
      </trkpt>
      <trkpt lat="22.393997914933077" lon="107.37108660700167">
        <ele>130.8409309927374</ele>
        <time>2026-03-06T09:36:23Z</time>
      </trkpt>
      <trkpt lat="22.39411639311704" lon="107.37109937965563">
        <ele>130.8372438410297</ele>
        <time>2026-03-06T09:36:27Z</time>
      </trkpt>
      <trkpt lat="22.393914507746967" lon="107.37136983142668">
        <ele>133.0225325093701</ele>
        <time>2026-03-06T09:36:49Z</time>
      </trkpt>
      <trkpt lat="22.394044856468383" lon="107.37142206825699">
        <ele>133.23242767755954</ele>
        <time>2026-03-06T09:36:59Z</time>
      </trkpt>
      <trkpt lat="22.394023701157874" lon="107.37131591379199">
        <ele>133.08369552612305</ele>
        <time>2026-03-06T09:37:18Z</time>
      </trkpt>
      <trkpt lat="22.393922512517342" lon="107.37131505915929">
        <ele>130.5450421142578</ele>
        <time>2026-03-06T09:37:30Z</time>
      </trkpt>
      <trkpt lat="22.39399797229204" lon="107.37139973031425">
        <ele>131.15651972870737</ele>
        <time>2026-03-06T09:37:39Z</time>
      </trkpt>
      <trkpt lat="22.39426253664786" lon="107.37136066845262">
        <ele>129.85563685186207</ele>
        <time>2026-03-06T09:37:45Z</time>
      </trkpt>
      <trkpt lat="22.39415875650925" lon="107.37139701909557">
        <ele>130.686701413244</ele>
        <time>2026-03-06T09:37:53Z</time>
      </trkpt>
      <trkpt lat="22.394124109329592" lon="107.3712875368243">
        <ele>130.43270997796208</ele>
        <time>2026-03-06T09:38:02Z</time>
      </trkpt>
      <trkpt lat="22.394184024607416" lon="107.37116500775144">
        <ele>131.8092434052378</ele>
        <time>2026-03-06T09:38:08Z</time>
      </trkpt>
      <trkpt lat="22.394108205201054" lon="107.37120374981218">
        <ele>135.53314542397857</ele>
        <time>2026-03-06T09:38:14Z</time>
      </trkpt>
      <trkpt lat="22.394017497331966" lon="107.37105195732724">
        <ele>134.6366454269737</ele>
        <time>2026-03-06T09:38:17Z</time>
      </trkpt>
      <trkpt lat="22.393961061616253" lon="107.3709249643552">
        <ele>133.22454058006406</ele>
        <time>2026-03-06T09:38:20Z</time>
      </trkpt>
      <trkpt lat="22.393818172844792" lon="107.37083170363113">
        <ele>132.27650022413582</ele>
        <time>2026-03-06T09:38:23Z</time>
      </trkpt>
      <trkpt lat="22.39377389487853" lon="107.37073903270951">
        <ele>131.54371080175042</ele>
        <time>2026-03-06T09:38:26Z</time>
      </trkpt>
      <trkpt lat="22.39384738613335" lon="107.3706408431633">
        <ele>133.3676930181682</ele>
        <time>2026-03-06T09:38:29Z</time>
      </trkpt>
      <trkpt lat="22.393875762171444" lon="107.37054207905726">
        <ele>132.90832648985088</ele>
        <time>2026-03-06T09:38:32Z</time>
      </trkpt>
      <trkpt lat="22.393682314396056" lon="107.37051138696526">
        <ele>132.37623979803175</ele>
        <time>2026-03-06T09:38:35Z</time>
      </trkpt>
      <trkpt lat="22.393591646648087" lon="107.37076277026866">
        <ele>133.17817186843604</ele>
        <time>2026-03-06T09:38:41Z</time>
      </trkpt>
      <trkpt lat="22.392639018517873" lon="107.37178613000259">
        <ele>128.44057650864124</ele>
        <time>2026-03-06T09:39:05Z</time>
      </trkpt>
      <trkpt lat="22.392140700946623" lon="107.37181231137733">
        <ele>127.34289841912687</ele>
        <time>2026-03-06T09:39:12Z</time>
      </trkpt>
      <trkpt lat="22.39192540364069" lon="107.3718279805911">
        <ele>127.90547683369368</ele>
        <time>2026-03-06T09:39:16Z</time>
      </trkpt>
      <trkpt lat="22.3916943221093" lon="107.37186790138433">
        <ele>127.12647308688611</ele>
        <time>2026-03-06T09:39:20Z</time>
      </trkpt>
      <trkpt lat="22.391315542591524" lon="107.37189576523642">
        <ele>127.16843068227172</ele>
        <time>2026-03-06T09:39:27Z</time>
      </trkpt>
      <trkpt lat="22.391212698517798" lon="107.37189770411389">
        <ele>127.65716083720326</ele>
        <time>2026-03-06T09:39:31Z</time>
      </trkpt>
      <trkpt lat="22.391212698517798" lon="107.37189770411389">
        <ele>127.65716083720326</ele>
        <time>2026-03-06T09:39:44Z</time>
      </trkpt>
    </trkseg>
  </trk>
</gpx>