<?xml version="1.0" encoding="UTF-8"?>
<gpx xmlns="http://www.topografix.com/GPX/1/1" xmlns:gpxtpx="http://www.garmin.com/xmlschemas/TrackPointExtension/v1" xmlns:xsi="http://www.w3.org/2001/XMLSchema-instance" xsi:schemaLocation="http://www.topografix.com/GPX/1/1 http://www.topografix.com/GPX/1/1/gpx.xsd" version="1.1" creator="gpx.py -- https://github.com/tkrajina/gpxpy">
  <trk>
    <name>gpx from keep</name>
    <type>Walk</type>
    <trkseg>
      <trkpt lat="22.404479291261566" lon="107.34462207970031">
        <ele>120.63331755530089</ele>
        <time>2023-01-30T02:26:51Z</time>
      </trkpt>
      <trkpt lat="22.40456406082228" lon="107.3446826565134">
        <ele>121.31900371424854</ele>
        <time>2023-01-30T02:27:06Z</time>
      </trkpt>
      <trkpt lat="22.404613716700712" lon="107.3446970636924">
        <ele>122.18523046374321</ele>
        <time>2023-01-30T02:27:12Z</time>
      </trkpt>
      <trkpt lat="22.404716055880638" lon="107.3448251948927">
        <ele>118.19860653579235</ele>
        <time>2023-01-30T02:27:27Z</time>
      </trkpt>
      <trkpt lat="22.404832479054956" lon="107.34479588772072">
        <ele>117.85197374317795</ele>
        <time>2023-01-30T02:27:39Z</time>
      </trkpt>
      <trkpt lat="22.40490392418052" lon="107.34480861565193">
        <ele>117.1462271772325</ele>
        <time>2023-01-30T02:27:45Z</time>
      </trkpt>
      <trkpt lat="22.405058761921836" lon="107.3448672976247">
        <ele>119.20848842803389</ele>
        <time>2023-01-30T02:28:00Z</time>
      </trkpt>
      <trkpt lat="22.405095902617624" lon="107.34492467346902">
        <ele>118.33548141177744</ele>
        <time>2023-01-30T02:28:06Z</time>
      </trkpt>
      <trkpt lat="22.405215048640578" lon="107.34498821021727">
        <ele>117.48351610265672</ele>
        <time>2023-01-30T02:28:19Z</time>
      </trkpt>
      <trkpt lat="22.40527470773615" lon="107.34499194218166">
        <ele>116.81784307863563</ele>
        <time>2023-01-30T02:28:25Z</time>
      </trkpt>
      <trkpt lat="22.405528836450813" lon="107.34517759076124">
        <ele>114.86744785681367</ele>
        <time>2023-01-30T02:28:53Z</time>
      </trkpt>
      <trkpt lat="22.405700901872642" lon="107.34524706488342">
        <ele>116.55475065484643</ele>
        <time>2023-01-30T02:29:11Z</time>
      </trkpt>
      <trkpt lat="22.40581298826085" lon="107.3453200886165">
        <ele>116.91204637568444</ele>
        <time>2023-01-30T02:29:23Z</time>
      </trkpt>
      <trkpt lat="22.405964454684906" lon="107.34561366446091">
        <ele>111.3586015412584</ele>
        <time>2023-01-30T02:29:50Z</time>
      </trkpt>
      <trkpt lat="22.40605631520027" lon="107.34575585031247">
        <ele>110.72892009280622</ele>
        <time>2023-01-30T02:30:02Z</time>
      </trkpt>
      <trkpt lat="22.406103838592664" lon="107.34580137864714">
        <ele>112.11079831235111</ele>
        <time>2023-01-30T02:30:08Z</time>
      </trkpt>
      <trkpt lat="22.406235176534366" lon="107.34601964532287">
        <ele>120.17198894359171</ele>
        <time>2023-01-30T02:30:28Z</time>
      </trkpt>
      <trkpt lat="22.406252193233442" lon="107.34610559359325">
        <ele>119.55241361726075</ele>
        <time>2023-01-30T02:30:36Z</time>
      </trkpt>
      <trkpt lat="22.406281791636186" lon="107.34615585965871">
        <ele>118.43657496292144</ele>
        <time>2023-01-30T02:30:40Z</time>
      </trkpt>
      <trkpt lat="22.406300616026698" lon="107.34647897241457">
        <ele>110.4594440087676</ele>
        <time>2023-01-30T02:31:05Z</time>
      </trkpt>
      <trkpt lat="22.40627172894393" lon="107.34677104682474">
        <ele>110.52298262622207</ele>
        <time>2023-01-30T02:31:29Z</time>
      </trkpt>
      <trkpt lat="22.40627058535453" lon="107.34692196809345">
        <ele>112.33179532829672</ele>
        <time>2023-01-30T02:31:42Z</time>
      </trkpt>
      <trkpt lat="22.406284658147552" lon="107.34696887513968">
        <ele>112.22147719655186</ele>
        <time>2023-01-30T02:31:45Z</time>
      </trkpt>
      <trkpt lat="22.406273490107175" lon="107.34717485290639">
        <ele>113.11905156634748</ele>
        <time>2023-01-30T02:32:03Z</time>
      </trkpt>
      <trkpt lat="22.40622262676419" lon="107.34741523171994">
        <ele>109.95335803832859</ele>
        <time>2023-01-30T02:32:21Z</time>
      </trkpt>
      <trkpt lat="22.40626051370266" lon="107.34773053493377">
        <ele>111.22581526264548</ele>
        <time>2023-01-30T02:32:46Z</time>
      </trkpt>
      <trkpt lat="22.406293278830898" lon="107.3478473620254">
        <ele>112.81526109855622</ele>
        <time>2023-01-30T02:32:54Z</time>
      </trkpt>
      <trkpt lat="22.406296295130613" lon="107.34811441491033">
        <ele>113.86567535158247</ele>
        <time>2023-01-30T02:33:14Z</time>
      </trkpt>
      <trkpt lat="22.406273704493607" lon="107.3482103659848">
        <ele>114.1238239724189</ele>
        <time>2023-01-30T02:33:22Z</time>
      </trkpt>
      <trkpt lat="22.40628348335394" lon="107.34828706752269">
        <ele>114.6538722710684</ele>
        <time>2023-01-30T02:33:28Z</time>
      </trkpt>
      <trkpt lat="22.406210778516666" lon="107.34850737156549">
        <ele>113.5886253612116</ele>
        <time>2023-01-30T02:33:46Z</time>
      </trkpt>
      <trkpt lat="22.40624980338008" lon="107.34856202644836">
        <ele>117.10783291235566</ele>
        <time>2023-01-30T02:33:58Z</time>
      </trkpt>
      <trkpt lat="22.406272515083877" lon="107.34870927993624">
        <ele>117.93031507637352</ele>
        <time>2023-01-30T02:34:07Z</time>
      </trkpt>
      <trkpt lat="22.40625224415217" lon="107.34886155500902">
        <ele>119.62593841459602</ele>
        <time>2023-01-30T02:34:19Z</time>
      </trkpt>
      <trkpt lat="22.406200792411774" lon="107.34894513323917">
        <ele>112.96827917266637</ele>
        <time>2023-01-30T02:34:25Z</time>
      </trkpt>
      <trkpt lat="22.406187883173715" lon="107.34899229099875">
        <ele>110.78900389000773</ele>
        <time>2023-01-30T02:34:28Z</time>
      </trkpt>
      <trkpt lat="22.40616113036146" lon="107.34903961694108">
        <ele>112.2902630995959</ele>
        <time>2023-01-30T02:34:49Z</time>
      </trkpt>
      <trkpt lat="22.40616711872254" lon="107.34913507447031">
        <ele>111.90474628843367</ele>
        <time>2023-01-30T02:35:05Z</time>
      </trkpt>
      <trkpt lat="22.40614407830827" lon="107.34936562336412">
        <ele>112.61014008894563</ele>
        <time>2023-01-30T02:35:25Z</time>
      </trkpt>
      <trkpt lat="22.406197013261465" lon="107.34934272013884">
        <ele>108.05492898728698</ele>
        <time>2023-01-30T02:35:49Z</time>
      </trkpt>
      <trkpt lat="22.40646157609989" lon="107.34928275852103">
        <ele>107.96656007133424</ele>
        <time>2023-01-30T02:36:41Z</time>
      </trkpt>
      <trkpt lat="22.406671876873933" lon="107.34921511706902">
        <ele>113.58401706069708</ele>
        <time>2023-01-30T02:37:01Z</time>
      </trkpt>
      <trkpt lat="22.406781941029198" lon="107.34930515097109">
        <ele>114.17175270989537</ele>
        <time>2023-01-30T02:37:09Z</time>
      </trkpt>
      <trkpt lat="22.406835533571996" lon="107.34937348195658">
        <ele>117.91055462136865</ele>
        <time>2023-01-30T02:37:17Z</time>
      </trkpt>
      <trkpt lat="22.40693516623912" lon="107.34942797603306">
        <ele>114.62486285716295</ele>
        <time>2023-01-30T02:37:25Z</time>
      </trkpt>
      <trkpt lat="22.40698895082085" lon="107.3496506025737">
        <ele>111.4433293454349</ele>
        <time>2023-01-30T02:37:41Z</time>
      </trkpt>
      <trkpt lat="22.407084880543287" lon="107.34960474970181">
        <ele>104.45949907135218</ele>
        <time>2023-01-30T02:37:45Z</time>
      </trkpt>
      <trkpt lat="22.407131520536375" lon="107.34965176483684">
        <ele>104.43227725289762</ele>
        <time>2023-01-30T02:37:53Z</time>
      </trkpt>
      <trkpt lat="22.406805873386887" lon="107.34952585838886">
        <ele>100.11312442086637</ele>
        <time>2023-01-30T02:38:01Z</time>
      </trkpt>
      <trkpt lat="22.407002945987095" lon="107.34994710289459">
        <ele>111.85127067565918</ele>
        <time>2023-01-30T02:38:21Z</time>
      </trkpt>
      <trkpt lat="22.406991760931756" lon="107.35004130202844">
        <ele>113.92823791503906</ele>
        <time>2023-01-30T02:38:33Z</time>
      </trkpt>
      <trkpt lat="22.407110987976253" lon="107.3498775284348">
        <ele>114.25141716003418</ele>
        <time>2023-01-30T02:38:39Z</time>
      </trkpt>
      <trkpt lat="22.407095592481785" lon="107.35002405854691">
        <ele>114.4966049194336</ele>
        <time>2023-01-30T02:38:46Z</time>
      </trkpt>
      <trkpt lat="22.407185204564374" lon="107.3498482981348">
        <ele>114.04267501831055</ele>
        <time>2023-01-30T02:38:54Z</time>
      </trkpt>
      <trkpt lat="22.407101765533668" lon="107.34991330142978">
        <ele>113.58098983764648</ele>
        <time>2023-01-30T02:39:09Z</time>
      </trkpt>
      <trkpt lat="22.407066366881693" lon="107.35001810462443">
        <ele>113.4578857421875</ele>
        <time>2023-01-30T02:39:15Z</time>
      </trkpt>
      <trkpt lat="22.407077415574573" lon="107.35021221497028">
        <ele>112.46459770202637</ele>
        <time>2023-01-30T02:39:28Z</time>
      </trkpt>
      <trkpt lat="22.407214743893995" lon="107.35007024519827">
        <ele>111.68273735046387</ele>
        <time>2023-01-30T02:39:41Z</time>
      </trkpt>
      <trkpt lat="22.407239470621246" lon="107.35013715968189">
        <ele>111.85728454589844</ele>
        <time>2023-01-30T02:39:54Z</time>
      </trkpt>
      <trkpt lat="22.407283649020115" lon="107.35010288920896">
        <ele>111.98800659179688</ele>
        <time>2023-01-30T02:40:00Z</time>
      </trkpt>
      <trkpt lat="22.407193887060245" lon="107.35024327063944">
        <ele>111.92193984985352</ele>
        <time>2023-01-30T02:40:06Z</time>
      </trkpt>
      <trkpt lat="22.407290272620163" lon="107.35034127952248">
        <ele>112.8668368216604</ele>
        <time>2023-01-30T02:40:10Z</time>
      </trkpt>
      <trkpt lat="22.407236323677985" lon="107.35044705445968">
        <ele>111.27215968817472</ele>
        <time>2023-01-30T02:40:22Z</time>
      </trkpt>
      <trkpt lat="22.40724919207266" lon="107.3505007674886">
        <ele>110.63639032747597</ele>
        <time>2023-01-30T02:40:30Z</time>
      </trkpt>
      <trkpt lat="22.40730290406066" lon="107.35052139797881">
        <ele>110.49329951405525</ele>
        <time>2023-01-30T02:40:38Z</time>
      </trkpt>
      <trkpt lat="22.407246879954" lon="107.35057410195218">
        <ele>110.11877728439867</ele>
        <time>2023-01-30T02:40:46Z</time>
      </trkpt>
      <trkpt lat="22.40733178786453" lon="107.35061192529835">
        <ele>110.4438311997801</ele>
        <time>2023-01-30T02:40:50Z</time>
      </trkpt>
      <trkpt lat="22.407293574147268" lon="107.35067215029515">
        <ele>110.4169389763847</ele>
        <time>2023-01-30T02:40:54Z</time>
      </trkpt>
      <trkpt lat="22.407310651832574" lon="107.35058501143382">
        <ele>110.57811793964356</ele>
        <time>2023-01-30T02:40:58Z</time>
      </trkpt>
      <trkpt lat="22.40745897955178" lon="107.35051905437166">
        <ele>110.41195799876004</ele>
        <time>2023-01-30T02:41:06Z</time>
      </trkpt>
      <trkpt lat="22.40735718018159" lon="107.3504918235651">
        <ele>111.0163130396977</ele>
        <time>2023-01-30T02:41:10Z</time>
      </trkpt>
      <trkpt lat="22.407248114090393" lon="107.35041082357586">
        <ele>110.53761274833232</ele>
        <time>2023-01-30T02:41:18Z</time>
      </trkpt>
      <trkpt lat="22.407248466178913" lon="107.35035872642332">
        <ele>110.40854851808399</ele>
        <time>2023-01-30T02:41:26Z</time>
      </trkpt>
      <trkpt lat="22.407302194136374" lon="107.35031715752481">
        <ele>109.54608454182744</ele>
        <time>2023-01-30T02:41:30Z</time>
      </trkpt>
      <trkpt lat="22.40728088243506" lon="107.3501687697903">
        <ele>110.90677741914988</ele>
        <time>2023-01-30T02:41:42Z</time>
      </trkpt>
      <trkpt lat="22.407321266752156" lon="107.35010337247783">
        <ele>111.15754966810346</ele>
        <time>2023-01-30T02:41:46Z</time>
      </trkpt>
      <trkpt lat="22.407282399130256" lon="107.35016169319788">
        <ele>111.19680921453983</ele>
        <time>2023-01-30T02:41:50Z</time>
      </trkpt>
      <trkpt lat="22.407222762280586" lon="107.35019546993449">
        <ele>111.28103539068252</ele>
        <time>2023-01-30T02:42:24Z</time>
      </trkpt>
      <trkpt lat="22.407222762280586" lon="107.35019546993449">
        <ele>111.28103539068252</ele>
        <time>2023-01-30T02:42:24Z</time>
      </trkpt>
      <trkpt lat="22.407129859507254" lon="107.35024247760292">
        <ele>115.13016510009766</ele>
        <time>2023-01-30T02:47:03Z</time>
      </trkpt>
      <trkpt lat="22.407160679891213" lon="107.35017576806443">
        <ele>114.29576110839844</ele>
        <time>2023-01-30T02:47:14Z</time>
      </trkpt>
      <trkpt lat="22.407016486856037" lon="107.35024451739031">
        <ele>114.02145957946777</ele>
        <time>2023-01-30T02:47:21Z</time>
      </trkpt>
      <trkpt lat="22.407157633481642" lon="107.35011747995702">
        <ele>113.49093246459961</ele>
        <time>2023-01-30T02:47:28Z</time>
      </trkpt>
      <trkpt lat="22.407229175107076" lon="107.35002160832778">
        <ele>112.77565002441406</ele>
        <time>2023-01-30T02:47:41Z</time>
      </trkpt>
      <trkpt lat="22.407023518463756" lon="107.35007749545139">
        <ele>113.26688194274902</ele>
        <time>2023-01-30T02:48:00Z</time>
      </trkpt>
      <trkpt lat="22.406944409679316" lon="107.35006800278836">
        <ele>108.06997178401798</ele>
        <time>2023-01-30T02:48:07Z</time>
      </trkpt>
      <trkpt lat="22.406659400221365" lon="107.35011733444007">
        <ele>142.9751849649474</ele>
        <time>2023-01-30T02:48:23Z</time>
      </trkpt>
      <trkpt lat="22.4067279043805" lon="107.35030996373611">
        <ele>150.74508267454803</ele>
        <time>2023-01-30T02:48:37Z</time>
      </trkpt>
      <trkpt lat="22.40702948354579" lon="107.35045618809613">
        <ele>167.45134735107422</ele>
        <time>2023-01-30T02:48:53Z</time>
      </trkpt>
      <trkpt lat="22.40708121930395" lon="107.35060733088355">
        <ele>93.57986059132963</ele>
        <time>2023-01-30T02:49:06Z</time>
      </trkpt>
      <trkpt lat="22.407159084011493" lon="107.35061140552864">
        <ele>81.1756854550913</ele>
        <time>2023-01-30T02:49:12Z</time>
      </trkpt>
      <trkpt lat="22.407363192200666" lon="107.35056062325482">
        <ele>111.9139996599406</ele>
        <time>2023-01-30T02:49:18Z</time>
      </trkpt>
      <trkpt lat="22.40678012256196" lon="107.35073034980661">
        <ele>112.55541855469346</ele>
        <time>2023-01-30T02:49:49Z</time>
      </trkpt>
      <trkpt lat="22.406833741416317" lon="107.35069547817852">
        <ele>112.3138334704563</ele>
        <time>2023-01-30T02:49:53Z</time>
      </trkpt>
      <trkpt lat="22.406909382910143" lon="107.35056714534285">
        <ele>110.06570010446012</ele>
        <time>2023-01-30T02:50:08Z</time>
      </trkpt>
      <trkpt lat="22.40691709016387" lon="107.35051215537159">
        <ele>111.21645694132894</ele>
        <time>2023-01-30T02:50:12Z</time>
      </trkpt>
      <trkpt lat="22.406965721058373" lon="107.35044869291951">
        <ele>115.2456319462508</ele>
        <time>2023-01-30T02:50:16Z</time>
      </trkpt>
      <trkpt lat="22.407028647669552" lon="107.35043168224486">
        <ele>116.2216449258849</ele>
        <time>2023-01-30T02:50:20Z</time>
      </trkpt>
      <trkpt lat="22.406982186363614" lon="107.35036509609593">
        <ele>118.13360595703125</ele>
        <time>2023-01-30T02:50:58Z</time>
      </trkpt>
      <trkpt lat="22.407034709433912" lon="107.35023885455267">
        <ele>114.76969909667969</ele>
        <time>2023-01-30T02:51:11Z</time>
      </trkpt>
      <trkpt lat="22.407023355555502" lon="107.35016430957313">
        <ele>114.16079330444336</ele>
        <time>2023-01-30T02:51:17Z</time>
      </trkpt>
      <trkpt lat="22.407078339708452" lon="107.35022987518423">
        <ele>114.01583480834961</ele>
        <time>2023-01-30T02:51:24Z</time>
      </trkpt>
      <trkpt lat="22.40710321609859" lon="107.3500171445329">
        <ele>113.59012031555176</ele>
        <time>2023-01-30T02:51:37Z</time>
      </trkpt>
      <trkpt lat="22.40707215812783" lon="107.34995212686158">
        <ele>113.46220397949219</ele>
        <time>2023-01-30T02:51:44Z</time>
      </trkpt>
      <trkpt lat="22.407094640617274" lon="107.34988739765062">
        <ele>113.10177993774414</ele>
        <time>2023-01-30T02:52:03Z</time>
      </trkpt>
      <trkpt lat="22.407041677129982" lon="107.34978152007388">
        <ele>113.42177200317383</ele>
        <time>2023-01-30T02:52:29Z</time>
      </trkpt>
      <trkpt lat="22.40702232285354" lon="107.34985742587592">
        <ele>113.6107063293457</ele>
        <time>2023-01-30T02:52:36Z</time>
      </trkpt>
      <trkpt lat="22.407019131782633" lon="107.34978766445498">
        <ele>113.77517318725586</ele>
        <time>2023-01-30T02:52:42Z</time>
      </trkpt>
      <trkpt lat="22.407092758909023" lon="107.34972595428091">
        <ele>113.59244918823242</ele>
        <time>2023-01-30T02:52:50Z</time>
      </trkpt>
      <trkpt lat="22.40704973710289" lon="107.34978554609833">
        <ele>113.49456405639648</ele>
        <time>2023-01-30T02:52:53Z</time>
      </trkpt>
      <trkpt lat="22.407023617414477" lon="107.34971265837802">
        <ele>113.52045059204102</ele>
        <time>2023-01-30T02:52:59Z</time>
      </trkpt>
      <trkpt lat="22.40697883484602" lon="107.34973027586432">
        <ele>113.58023071289062</ele>
        <time>2023-01-30T02:53:05Z</time>
      </trkpt>
      <trkpt lat="22.407027901369492" lon="107.34976305103311">
        <ele>113.73008346557617</ele>
        <time>2023-01-30T02:53:12Z</time>
      </trkpt>
      <trkpt lat="22.407082111570364" lon="107.34976777208595">
        <ele>113.75443840026855</ele>
        <time>2023-01-30T02:53:18Z</time>
      </trkpt>
      <trkpt lat="22.407134048532043" lon="107.34965104100957">
        <ele>113.66882514953613</ele>
        <time>2023-01-30T02:53:37Z</time>
      </trkpt>
      <trkpt lat="22.40708954019813" lon="107.3497350713532">
        <ele>113.59723472595215</ele>
        <time>2023-01-30T02:53:44Z</time>
      </trkpt>
      <trkpt lat="22.40703780966182" lon="107.34972277447746">
        <ele>113.60905647277832</ele>
        <time>2023-01-30T02:53:50Z</time>
      </trkpt>
      <trkpt lat="22.407149786484094" lon="107.34970358475678">
        <ele>113.547119140625</ele>
        <time>2023-01-30T02:53:56Z</time>
      </trkpt>
      <trkpt lat="22.407087938022407" lon="107.34966723633472">
        <ele>113.50594329833984</ele>
        <time>2023-01-30T02:54:03Z</time>
      </trkpt>
      <trkpt lat="22.40705337866144" lon="107.34975830693311">
        <ele>113.43143844604492</ele>
        <time>2023-01-30T02:54:35Z</time>
      </trkpt>
      <trkpt lat="22.40711011262744" lon="107.34968216428649">
        <ele>113.40155029296875</ele>
        <time>2023-01-30T02:54:42Z</time>
      </trkpt>
      <trkpt lat="22.407095972029033" lon="107.34975940089065">
        <ele>113.4486141204834</ele>
        <time>2023-01-30T02:54:55Z</time>
      </trkpt>
      <trkpt lat="22.407116053833015" lon="107.34966725658973">
        <ele>113.43477821350098</ele>
        <time>2023-01-30T02:55:01Z</time>
      </trkpt>
      <trkpt lat="22.407050353696597" lon="107.34971013107705">
        <ele>113.39259719848633</ele>
        <time>2023-01-30T02:55:14Z</time>
      </trkpt>
      <trkpt lat="22.407126172177534" lon="107.34974946692044">
        <ele>113.42164421081543</ele>
        <time>2023-01-30T02:55:20Z</time>
      </trkpt>
      <trkpt lat="22.407075610670212" lon="107.34982913662199">
        <ele>113.42618179321289</ele>
        <time>2023-01-30T02:55:27Z</time>
      </trkpt>
      <trkpt lat="22.40710387657776" lon="107.34973802706686">
        <ele>113.5495548248291</ele>
        <time>2023-01-30T02:55:40Z</time>
      </trkpt>
      <trkpt lat="22.40702515193502" lon="107.3497323817282">
        <ele>113.56677627563477</ele>
        <time>2023-01-30T02:55:46Z</time>
      </trkpt>
      <trkpt lat="22.407014664536245" lon="107.34962397831484">
        <ele>113.55496406555176</ele>
        <time>2023-01-30T02:55:59Z</time>
      </trkpt>
      <trkpt lat="22.407015480463766" lon="107.3497192077809">
        <ele>113.50371170043945</ele>
        <time>2023-01-30T02:56:05Z</time>
      </trkpt>
      <trkpt lat="22.407159421945746" lon="107.34970376482268">
        <ele>113.4163818359375</ele>
        <time>2023-01-30T02:56:18Z</time>
      </trkpt>
      <trkpt lat="22.40709631838408" lon="107.34979299892514">
        <ele>113.38810348510742</ele>
        <time>2023-01-30T02:56:25Z</time>
      </trkpt>
      <trkpt lat="22.406968380968134" lon="107.34969857670266">
        <ele>113.4973258972168</ele>
        <time>2023-01-30T02:56:39Z</time>
      </trkpt>
      <trkpt lat="22.406935068798447" lon="107.34963484871673">
        <ele>113.69881057739258</ele>
        <time>2023-01-30T02:56:46Z</time>
      </trkpt>
      <trkpt lat="22.407103450207728" lon="107.3497801649718">
        <ele>113.7498893737793</ele>
        <time>2023-01-30T02:57:01Z</time>
      </trkpt>
      <trkpt lat="22.407040942433614" lon="107.3498028905569">
        <ele>113.82474136352539</ele>
        <time>2023-01-30T02:57:13Z</time>
      </trkpt>
      <trkpt lat="22.407101772766268" lon="107.34979990768909">
        <ele>113.97050857543945</ele>
        <time>2023-01-30T02:57:28Z</time>
      </trkpt>
      <trkpt lat="22.407160530041654" lon="107.3497770388078">
        <ele>113.75725173950195</ele>
        <time>2023-01-30T02:57:52Z</time>
      </trkpt>
      <trkpt lat="22.40721935824126" lon="107.34978947659208">
        <ele>113.67030715942383</ele>
        <time>2023-01-30T02:58:12Z</time>
      </trkpt>
      <trkpt lat="22.407093622601785" lon="107.3498894441138">
        <ele>113.74417877197266</ele>
        <time>2023-01-30T02:58:20Z</time>
      </trkpt>
      <trkpt lat="22.40703916298899" lon="107.34995423443472">
        <ele>113.19549179077148</ele>
        <time>2023-01-30T02:58:46Z</time>
      </trkpt>
      <trkpt lat="22.407163212298876" lon="107.34972177145585">
        <ele>113.30143737792969</ele>
        <time>2023-01-30T02:58:59Z</time>
      </trkpt>
      <trkpt lat="22.407268088940228" lon="107.34985872102493">
        <ele>113.22966766357422</ele>
        <time>2023-01-30T02:59:20Z</time>
      </trkpt>
      <trkpt lat="22.407258524267224" lon="107.3499611352179">
        <ele>113.08405303955078</ele>
        <time>2023-01-30T02:59:33Z</time>
      </trkpt>
      <trkpt lat="22.40725739547498" lon="107.34977439165569">
        <ele>112.93021202087402</ele>
        <time>2023-01-30T02:59:52Z</time>
      </trkpt>
      <trkpt lat="22.407270276015065" lon="107.34982650367802">
        <ele>113.11407089233398</ele>
        <time>2023-01-30T03:00:05Z</time>
      </trkpt>
      <trkpt lat="22.40723670890585" lon="107.34988502886985">
        <ele>112.96326637268066</ele>
        <time>2023-01-30T03:00:18Z</time>
      </trkpt>
      <trkpt lat="22.407271274447186" lon="107.3498511805491">
        <ele>113.08194351196289</ele>
        <time>2023-01-30T03:00:24Z</time>
      </trkpt>
      <trkpt lat="22.407263233951728" lon="107.34991877700726">
        <ele>112.99396705627441</ele>
        <time>2023-01-30T03:00:37Z</time>
      </trkpt>
      <trkpt lat="22.407232805236678" lon="107.34987554151637">
        <ele>113.10379219055176</ele>
        <time>2023-01-30T03:00:43Z</time>
      </trkpt>
      <trkpt lat="22.40717336376735" lon="107.34996827472787">
        <ele>113.12827682495117</ele>
        <time>2023-01-30T03:00:49Z</time>
      </trkpt>
      <trkpt lat="22.407200480887226" lon="107.35007997881627">
        <ele>112.66670417785645</ele>
        <time>2023-01-30T03:00:54Z</time>
      </trkpt>
      <trkpt lat="22.40725169997818" lon="107.35006873270358">
        <ele>112.10450553894043</ele>
        <time>2023-01-30T03:01:00Z</time>
      </trkpt>
      <trkpt lat="22.407199297071305" lon="107.35025485751251">
        <ele>111.69824028015137</ele>
        <time>2023-01-30T03:01:19Z</time>
      </trkpt>
      <trkpt lat="22.40726379033027" lon="107.35014252353442">
        <ele>112.09006881713867</ele>
        <time>2023-01-30T03:01:25Z</time>
      </trkpt>
      <trkpt lat="22.407082173091215" lon="107.35032748360148">
        <ele>112.56654357910156</ele>
        <time>2023-01-30T03:01:33Z</time>
      </trkpt>
      <trkpt lat="22.40702321898471" lon="107.35040287869134">
        <ele>112.95832443237305</ele>
        <time>2023-01-30T03:03:08Z</time>
      </trkpt>
      <trkpt lat="22.40706516844399" lon="107.35033956847838">
        <ele>112.81523132324219</ele>
        <time>2023-01-30T03:03:27Z</time>
      </trkpt>
      <trkpt lat="22.407021406036485" lon="107.35042003514187">
        <ele>112.62845802307129</ele>
        <time>2023-01-30T03:03:40Z</time>
      </trkpt>
      <trkpt lat="22.40702027466229" lon="107.35047997452811">
        <ele>112.33612442016602</ele>
        <time>2023-01-30T03:05:23Z</time>
      </trkpt>
      <trkpt lat="22.406977079452773" lon="107.35044400904364">
        <ele>112.39488792419434</ele>
        <time>2023-01-30T03:05:36Z</time>
      </trkpt>
      <trkpt lat="22.407029958882376" lon="107.350486572898">
        <ele>112.45008087158203</ele>
        <time>2023-01-30T03:06:38Z</time>
      </trkpt>
      <trkpt lat="22.407015040567963" lon="107.35054394382">
        <ele>113.50893211364746</ele>
        <time>2023-01-30T03:07:14Z</time>
      </trkpt>
      <trkpt lat="22.40704603794399" lon="107.3504683578697">
        <ele>112.3645971706137</ele>
        <time>2023-01-30T03:07:25Z</time>
      </trkpt>
      <trkpt lat="22.407211430449117" lon="107.35062825458549">
        <ele>118.30446963384748</ele>
        <time>2023-01-30T03:08:22Z</time>
      </trkpt>
      <trkpt lat="22.40703544246647" lon="107.35045345214758">
        <ele>118.37266540527344</ele>
        <time>2023-01-30T03:08:35Z</time>
      </trkpt>
      <trkpt lat="22.406920923451942" lon="107.35027305538313">
        <ele>115.8294849395752</ele>
        <time>2023-01-30T03:08:52Z</time>
      </trkpt>
      <trkpt lat="22.40707285427781" lon="107.35012239494078">
        <ele>114.62106132507324</ele>
        <time>2023-01-30T03:09:05Z</time>
      </trkpt>
      <trkpt lat="22.406840170023195" lon="107.3500041330942">
        <ele>111.23885214794427</ele>
        <time>2023-01-30T03:09:15Z</time>
      </trkpt>
      <trkpt lat="22.406880065421365" lon="107.35026377855381">
        <ele>116.50191836617887</ele>
        <time>2023-01-30T03:09:31Z</time>
      </trkpt>
      <trkpt lat="22.406933432490813" lon="107.3501806488373">
        <ele>116.5057258605957</ele>
        <time>2023-01-30T03:10:11Z</time>
      </trkpt>
      <trkpt lat="22.406928352738895" lon="107.35028950368977">
        <ele>115.63788223266602</ele>
        <time>2023-01-30T03:10:18Z</time>
      </trkpt>
      <trkpt lat="22.40695016648457" lon="107.35018625234268">
        <ele>114.8342170715332</ele>
        <time>2023-01-30T03:10:37Z</time>
      </trkpt>
      <trkpt lat="22.40689832187523" lon="107.35031762029172">
        <ele>115.22568893432617</ele>
        <time>2023-01-30T03:10:50Z</time>
      </trkpt>
      <trkpt lat="22.406967845205045" lon="107.35034250994">
        <ele>114.7504825592041</ele>
        <time>2023-01-30T03:10:57Z</time>
      </trkpt>
      <trkpt lat="22.40693797956482" lon="107.35007928463126">
        <ele>114.3855037689209</ele>
        <time>2023-01-30T03:11:03Z</time>
      </trkpt>
      <trkpt lat="22.40708646613624" lon="107.35007279867074">
        <ele>114.55544090270996</ele>
        <time>2023-01-30T03:19:47Z</time>
      </trkpt>
      <trkpt lat="22.407218466548517" lon="107.35002597454697">
        <ele>113.58425903320312</ele>
        <time>2023-01-30T03:19:57Z</time>
      </trkpt>
      <trkpt lat="22.407109645217894" lon="107.35023448924274">
        <ele>112.16567232087255</ele>
        <time>2023-01-30T03:20:05Z</time>
      </trkpt>
      <trkpt lat="22.406765298147285" lon="107.35039219403942">
        <ele>110.9539453657344</ele>
        <time>2023-01-30T03:20:36Z</time>
      </trkpt>
      <trkpt lat="22.40668838517739" lon="107.35045926110374">
        <ele>112.46096420288086</ele>
        <time>2023-01-30T03:20:39Z</time>
      </trkpt>
      <trkpt lat="22.406907533391635" lon="107.35033596292536">
        <ele>116.66236877441406</ele>
        <time>2023-01-30T03:21:02Z</time>
      </trkpt>
      <trkpt lat="22.406977994808926" lon="107.35034371228015">
        <ele>115.77106094360352</ele>
        <time>2023-01-30T03:21:18Z</time>
      </trkpt>
      <trkpt lat="22.406968490806122" lon="107.3502876370417">
        <ele>111.81253515277058</ele>
        <time>2023-01-30T03:22:22Z</time>
      </trkpt>
      <trkpt lat="22.406931362926084" lon="107.35038151792445">
        <ele>113.46962928771973</ele>
        <time>2023-01-30T03:24:02Z</time>
      </trkpt>
      <trkpt lat="22.407046935810953" lon="107.35047344982954">
        <ele>111.45911026000977</ele>
        <time>2023-01-30T03:24:17Z</time>
      </trkpt>
      <trkpt lat="22.40704587144119" lon="107.35059104799055">
        <ele>111.34957122802734</ele>
        <time>2023-01-30T03:24:24Z</time>
      </trkpt>
      <trkpt lat="22.40704261451095" lon="107.35052240118011">
        <ele>115.02749638538808</ele>
        <time>2023-01-30T03:24:28Z</time>
      </trkpt>
      <trkpt lat="22.406904334752703" lon="107.35052865741879">
        <ele>111.38081145752221</ele>
        <time>2023-01-30T03:25:22Z</time>
      </trkpt>
      <trkpt lat="22.407093954020002" lon="107.35043633918463">
        <ele>108.94531529955566</ele>
        <time>2023-01-30T03:26:05Z</time>
      </trkpt>
      <trkpt lat="22.407038268570368" lon="107.35070496456005">
        <ele>108.95965484343469</ele>
        <time>2023-01-30T03:26:18Z</time>
      </trkpt>
      <trkpt lat="22.407002700618936" lon="107.3503361595509">
        <ele>115.25262260437012</ele>
        <time>2023-01-30T03:26:52Z</time>
      </trkpt>
      <trkpt lat="22.40735185235243" lon="107.35011753193596">
        <ele>111.29626206867397</ele>
        <time>2023-01-30T03:27:33Z</time>
      </trkpt>
      <trkpt lat="22.407324935087683" lon="107.35018479874564">
        <ele>113.65385292470455</ele>
        <time>2023-01-30T03:27:49Z</time>
      </trkpt>
      <trkpt lat="22.407303508173968" lon="107.35031082767325">
        <ele>114.76882197614759</ele>
        <time>2023-01-30T03:28:01Z</time>
      </trkpt>
      <trkpt lat="22.40731053231537" lon="107.35043689364375">
        <ele>116.16321234032512</ele>
        <time>2023-01-30T03:28:13Z</time>
      </trkpt>
      <trkpt lat="22.407275260632424" lon="107.3502941128475">
        <ele>112.84134966135025</ele>
        <time>2023-01-30T03:28:37Z</time>
      </trkpt>
      <trkpt lat="22.407328987628308" lon="107.35024078748988">
        <ele>114.40545832924545</ele>
        <time>2023-01-30T03:28:43Z</time>
      </trkpt>
      <trkpt lat="22.40748314707583" lon="107.35021809296587">
        <ele>119.53064830414951</ele>
        <time>2023-01-30T03:28:55Z</time>
      </trkpt>
      <trkpt lat="22.407522510340865" lon="107.35014628499076">
        <ele>117.77669844869524</ele>
        <time>2023-01-30T03:29:04Z</time>
      </trkpt>
      <trkpt lat="22.407528391563016" lon="107.35009026388839">
        <ele>115.40425314381719</ele>
        <time>2023-01-30T03:29:13Z</time>
      </trkpt>
      <trkpt lat="22.407596508531178" lon="107.35008666897444">
        <ele>113.00357523746789</ele>
        <time>2023-01-30T03:29:34Z</time>
      </trkpt>
      <trkpt lat="22.407524810025325" lon="107.35006556362883">
        <ele>111.88077126722783</ele>
        <time>2023-01-30T03:30:02Z</time>
      </trkpt>
      <trkpt lat="22.407582501045756" lon="107.35004610461947">
        <ele>111.92317122686654</ele>
        <time>2023-01-30T03:30:06Z</time>
      </trkpt>
      <trkpt lat="22.40764136691178" lon="107.35007950689509">
        <ele>112.25085882563144</ele>
        <time>2023-01-30T03:30:10Z</time>
      </trkpt>
      <trkpt lat="22.4075965132731" lon="107.35015496648722">
        <ele>112.41433164197952</ele>
        <time>2023-01-30T03:30:21Z</time>
      </trkpt>
      <trkpt lat="22.407630958719725" lon="107.35019793682899">
        <ele>111.79444451164454</ele>
        <time>2023-01-30T03:30:42Z</time>
      </trkpt>
      <trkpt lat="22.40758545075537" lon="107.35010696733679">
        <ele>112.5663792155683</ele>
        <time>2023-01-30T03:31:06Z</time>
      </trkpt>
      <trkpt lat="22.407624177092032" lon="107.35016810562907">
        <ele>112.28675325401127</ele>
        <time>2023-01-30T03:31:12Z</time>
      </trkpt>
      <trkpt lat="22.40761348880829" lon="107.35011134803739">
        <ele>111.89610516745597</ele>
        <time>2023-01-30T03:31:33Z</time>
      </trkpt>
      <trkpt lat="22.40753860662078" lon="107.3501531895695">
        <ele>112.24339338392019</ele>
        <time>2023-01-30T03:31:47Z</time>
      </trkpt>
      <trkpt lat="22.40751095620363" lon="107.35007948910344">
        <ele>112.54886061511934</ele>
        <time>2023-01-30T03:31:51Z</time>
      </trkpt>
      <trkpt lat="22.407606467836494" lon="107.35007568956698">
        <ele>111.67602870892733</ele>
        <time>2023-01-30T03:32:03Z</time>
      </trkpt>
      <trkpt lat="22.40761265867214" lon="107.35012959823077">
        <ele>110.96517212409526</ele>
        <time>2023-01-30T03:32:34Z</time>
      </trkpt>
      <trkpt lat="22.40761118337601" lon="107.3500733822886">
        <ele>112.20771724078804</ele>
        <time>2023-01-30T03:33:07Z</time>
      </trkpt>
      <trkpt lat="22.407561110710542" lon="107.35012527004807">
        <ele>112.195417502895</ele>
        <time>2023-01-30T03:33:16Z</time>
      </trkpt>
      <trkpt lat="22.407591281668566" lon="107.35008597622671">
        <ele>112.47651084139943</ele>
        <time>2023-01-30T03:33:22Z</time>
      </trkpt>
      <trkpt lat="22.407558139856615" lon="107.35005309806014">
        <ele>112.32057716324925</ele>
        <time>2023-01-30T03:33:34Z</time>
      </trkpt>
      <trkpt lat="22.407585627161126" lon="107.35011760929588">
        <ele>112.31669592205435</ele>
        <time>2023-01-30T03:33:46Z</time>
      </trkpt>
      <trkpt lat="22.40763235780043" lon="107.3501542131679">
        <ele>111.44695333018899</ele>
        <time>2023-01-30T03:34:41Z</time>
      </trkpt>
      <trkpt lat="22.407603324785814" lon="107.35009563232128">
        <ele>111.43526575155556</ele>
        <time>2023-01-30T03:34:50Z</time>
      </trkpt>
      <trkpt lat="22.407640279067323" lon="107.35013412401997">
        <ele>111.12781957071275</ele>
        <time>2023-01-30T03:35:08Z</time>
      </trkpt>
      <trkpt lat="22.407633427391694" lon="107.3500780879037">
        <ele>112.19927098602057</ele>
        <time>2023-01-30T03:35:17Z</time>
      </trkpt>
      <trkpt lat="22.407591666282755" lon="107.35012743154982">
        <ele>113.170404327102</ele>
        <time>2023-01-30T03:36:28Z</time>
      </trkpt>
      <trkpt lat="22.407635194775057" lon="107.35010956201558">
        <ele>110.95862005650997</ele>
        <time>2023-01-30T03:36:36Z</time>
      </trkpt>
      <trkpt lat="22.407578030296555" lon="107.35012004730338">
        <ele>108.73314386047423</ele>
        <time>2023-01-30T03:38:08Z</time>
      </trkpt>
      <trkpt lat="22.40766202160034" lon="107.35017864585366">
        <ele>112.24108031671494</ele>
        <time>2023-01-30T03:39:04Z</time>
      </trkpt>
      <trkpt lat="22.407588170295334" lon="107.35010085497326">
        <ele>110.39014733489603</ele>
        <time>2023-01-30T03:40:00Z</time>
      </trkpt>
      <trkpt lat="22.40760765006704" lon="107.35005487381866">
        <ele>113.61609983444214</ele>
        <time>2023-01-30T03:45:15Z</time>
      </trkpt>
      <trkpt lat="22.407608333627593" lon="107.34997129180049">
        <ele>113.6458434658125</ele>
        <time>2023-01-30T03:45:24Z</time>
      </trkpt>
      <trkpt lat="22.40756375584713" lon="107.34971464450058">
        <ele>119.36616795416921</ele>
        <time>2023-01-30T03:45:51Z</time>
      </trkpt>
      <trkpt lat="22.407441013243336" lon="107.34977617844979">
        <ele>125.2815606975928</ele>
        <time>2023-01-30T03:46:03Z</time>
      </trkpt>
      <trkpt lat="22.40739106355116" lon="107.34975358798725">
        <ele>123.32527809776366</ele>
        <time>2023-01-30T03:46:09Z</time>
      </trkpt>
      <trkpt lat="22.407370217630735" lon="107.34970726470107">
        <ele>120.29761391319335</ele>
        <time>2023-01-30T03:46:12Z</time>
      </trkpt>
      <trkpt lat="22.40729485067081" lon="107.34963601995426">
        <ele>116.21692407038063</ele>
        <time>2023-01-30T03:46:18Z</time>
      </trkpt>
      <trkpt lat="22.407227390687325" lon="107.34951093150019">
        <ele>111.0744251171127</ele>
        <time>2023-01-30T03:46:31Z</time>
      </trkpt>
      <trkpt lat="22.407232510208523" lon="107.34945437087163">
        <ele>110.65005311649293</ele>
        <time>2023-01-30T03:46:37Z</time>
      </trkpt>
      <trkpt lat="22.40725616003058" lon="107.34949806621294">
        <ele>113.0324484501034</ele>
        <time>2023-01-30T03:46:49Z</time>
      </trkpt>
      <trkpt lat="22.407266939354173" lon="107.34957033642594">
        <ele>113.78854661807418</ele>
        <time>2023-01-30T03:46:52Z</time>
      </trkpt>
      <trkpt lat="22.407229488186406" lon="107.349532275434">
        <ele>114.98915574327111</ele>
        <time>2023-01-30T03:48:04Z</time>
      </trkpt>
    </trkseg>
  </trk>
</gpx>