<?xml version="1.0" encoding="UTF-8"?>
<gpx xmlns="http://www.topografix.com/GPX/1/1" xmlns:gpxtpx="http://www.garmin.com/xmlschemas/TrackPointExtension/v1" xmlns:xsi="http://www.w3.org/2001/XMLSchema-instance" xsi:schemaLocation="http://www.topografix.com/GPX/1/1 http://www.topografix.com/GPX/1/1/gpx.xsd" version="1.1" creator="gpx.py -- https://github.com/tkrajina/gpxpy">
  <trk>
    <name>gpx from keep</name>
    <type>Walk</type>
    <trkseg>
      <trkpt lat="22.649351720521206" lon="107.60650170254522">
        <ele>94.64356508944184</ele>
        <time>2023-01-31T01:06:08Z</time>
      </trkpt>
      <trkpt lat="22.649480409162216" lon="107.60624030425265">
        <ele>93.53670006245375</ele>
        <time>2023-01-31T01:07:20Z</time>
      </trkpt>
      <trkpt lat="22.64962658101366" lon="107.60614755450477">
        <ele>93.94905483908951</ele>
        <time>2023-01-31T01:07:34Z</time>
      </trkpt>
      <trkpt lat="22.649707125315327" lon="107.60607494823813">
        <ele>94.02634980902076</ele>
        <time>2023-01-31T01:07:41Z</time>
      </trkpt>
      <trkpt lat="22.649988252650108" lon="107.60602708937411">
        <ele>94.0337371956557</ele>
        <time>2023-01-31T01:08:01Z</time>
      </trkpt>
      <trkpt lat="22.650517843279108" lon="107.60586951476347">
        <ele>94.70530107617378</ele>
        <time>2023-01-31T01:08:42Z</time>
      </trkpt>
      <trkpt lat="22.650757368737935" lon="107.60572063216763">
        <ele>96.52791622281075</ele>
        <time>2023-01-31T01:09:04Z</time>
      </trkpt>
      <trkpt lat="22.65053869260468" lon="107.60550783905244">
        <ele>95.95770167838782</ele>
        <time>2023-01-31T01:09:28Z</time>
      </trkpt>
      <trkpt lat="22.65105555044472" lon="107.60519308432303">
        <ele>99.22956842277199</ele>
        <time>2023-01-31T01:09:50Z</time>
      </trkpt>
      <trkpt lat="22.651191619897396" lon="107.60493658352136">
        <ele>97.83573618065566</ele>
        <time>2023-01-31T01:10:13Z</time>
      </trkpt>
      <trkpt lat="22.651349560736282" lon="107.60469546011174">
        <ele>97.26982538122684</ele>
        <time>2023-01-31T01:10:36Z</time>
      </trkpt>
      <trkpt lat="22.651268379662497" lon="107.60440931572195">
        <ele>98.12697770725936</ele>
        <time>2023-01-31T01:13:42Z</time>
      </trkpt>
      <trkpt lat="22.651277015013022" lon="107.60411650882017">
        <ele>96.24527874588966</ele>
        <time>2023-01-31T01:14:06Z</time>
      </trkpt>
      <trkpt lat="22.65121609874188" lon="107.60382420085041">
        <ele>94.90852951351553</ele>
        <time>2023-01-31T01:14:30Z</time>
      </trkpt>
      <trkpt lat="22.651230926958885" lon="107.60352913793757">
        <ele>97.592344625853</ele>
        <time>2023-01-31T01:14:54Z</time>
      </trkpt>
      <trkpt lat="22.65094977479585" lon="107.60351044992197">
        <ele>99.0651744119823</ele>
        <time>2023-01-31T01:15:16Z</time>
      </trkpt>
      <trkpt lat="22.650671833251824" lon="107.6035327480622">
        <ele>98.31016708444804</ele>
        <time>2023-01-31T01:15:40Z</time>
      </trkpt>
      <trkpt lat="22.650521312288078" lon="107.60328210532191">
        <ele>97.92951947636902</ele>
        <time>2023-01-31T01:16:04Z</time>
      </trkpt>
      <trkpt lat="22.6506861202195" lon="107.60303442526508">
        <ele>99.51265611965209</ele>
        <time>2023-01-31T01:16:11Z</time>
      </trkpt>
      <trkpt lat="22.650781266449155" lon="107.60347563410518">
        <ele>99.65716631338</ele>
        <time>2023-01-31T01:16:53Z</time>
      </trkpt>
      <trkpt lat="22.650648370535983" lon="107.60320093276289">
        <ele>97.76972097624093</ele>
        <time>2023-01-31T01:17:07Z</time>
      </trkpt>
      <trkpt lat="22.650858456176444" lon="107.6029951607744">
        <ele>100.90811081137508</ele>
        <time>2023-01-31T01:17:31Z</time>
      </trkpt>
      <trkpt lat="22.650628724668277" lon="107.60277073931756">
        <ele>101.42615893483162</ele>
        <time>2023-01-31T01:17:53Z</time>
      </trkpt>
      <trkpt lat="22.650390556000108" lon="107.6030480840611">
        <ele>102.7234522588551</ele>
        <time>2023-01-31T01:18:01Z</time>
      </trkpt>
      <trkpt lat="22.650500225684954" lon="107.60334019464156">
        <ele>98.69705881364644</ele>
        <time>2023-01-31T01:18:08Z</time>
      </trkpt>
      <trkpt lat="22.650668285462665" lon="107.60357541315726">
        <ele>98.01406917441636</ele>
        <time>2023-01-31T01:18:19Z</time>
      </trkpt>
      <trkpt lat="22.650945730659487" lon="107.60363492202362">
        <ele>99.47441170178354</ele>
        <time>2023-01-31T01:18:40Z</time>
      </trkpt>
      <trkpt lat="22.651222051839163" lon="107.60358268219372">
        <ele>97.45363825000823</ele>
        <time>2023-01-31T01:19:03Z</time>
      </trkpt>
      <trkpt lat="22.651000479079674" lon="107.60375347831474">
        <ele>97.80139696691185</ele>
        <time>2023-01-31T01:19:49Z</time>
      </trkpt>
      <trkpt lat="22.650823288066146" lon="107.60398698571571">
        <ele>96.08688238728791</ele>
        <time>2023-01-31T01:20:27Z</time>
      </trkpt>
      <trkpt lat="22.650891070027914" lon="107.60427384802558">
        <ele>95.53494700510055</ele>
        <time>2023-01-31T01:22:04Z</time>
      </trkpt>
      <trkpt lat="22.650639005224456" lon="107.60415761950141">
        <ele>94.94173779245466</ele>
        <time>2023-01-31T01:24:07Z</time>
      </trkpt>
      <trkpt lat="22.650361628608252" lon="107.60398890374366">
        <ele>94.84624041616917</ele>
        <time>2023-01-31T01:24:20Z</time>
      </trkpt>
      <trkpt lat="22.650118595539727" lon="107.60418803583616">
        <ele>96.10791416745633</ele>
        <time>2023-01-31T01:24:57Z</time>
      </trkpt>
      <trkpt lat="22.65027406091131" lon="107.60393687756681">
        <ele>96.56027875188738</ele>
        <time>2023-01-31T01:25:19Z</time>
      </trkpt>
      <trkpt lat="22.650012629316663" lon="107.60401472144612">
        <ele>96.69124445319176</ele>
        <time>2023-01-31T01:25:50Z</time>
      </trkpt>
      <trkpt lat="22.64984804756573" lon="107.60428754557832">
        <ele>97.52069363929331</ele>
        <time>2023-01-31T01:25:54Z</time>
      </trkpt>
      <trkpt lat="22.649922296530598" lon="107.60393694646497">
        <ele>98.76181217096746</ele>
        <time>2023-01-31T01:27:07Z</time>
      </trkpt>
      <trkpt lat="22.649610443443912" lon="107.60407928884122">
        <ele>99.27470641303807</ele>
        <time>2023-01-31T01:27:14Z</time>
      </trkpt>
      <trkpt lat="22.649861751211752" lon="107.60385318846848">
        <ele>99.07068088278174</ele>
        <time>2023-01-31T01:27:43Z</time>
      </trkpt>
      <trkpt lat="22.64975716403802" lon="107.60418661096395">
        <ele>99.11312916874886</ele>
        <time>2023-01-31T01:27:48Z</time>
      </trkpt>
      <trkpt lat="22.64946199693685" lon="107.60416920102048">
        <ele>99.236836720258</ele>
        <time>2023-01-31T01:27:50Z</time>
      </trkpt>
      <trkpt lat="22.64927069896197" lon="107.6044113259972">
        <ele>98.94171410892159</ele>
        <time>2023-01-31T01:28:18Z</time>
      </trkpt>
      <trkpt lat="22.64898903083265" lon="107.60442430269681">
        <ele>99.47686983458698</ele>
        <time>2023-01-31T01:28:47Z</time>
      </trkpt>
      <trkpt lat="22.648825172323765" lon="107.6046800531659">
        <ele>98.49873296264559</ele>
        <time>2023-01-31T01:29:09Z</time>
      </trkpt>
      <trkpt lat="22.648572197633168" lon="107.60456622054727">
        <ele>97.81348709948361</ele>
        <time>2023-01-31T01:29:33Z</time>
      </trkpt>
      <trkpt lat="22.64827946008754" lon="107.60470540170849">
        <ele>96.61798190046102</ele>
        <time>2023-01-31T01:30:04Z</time>
      </trkpt>
      <trkpt lat="22.64800138203249" lon="107.60460556008219">
        <ele>96.37757691461593</ele>
        <time>2023-01-31T01:30:33Z</time>
      </trkpt>
      <trkpt lat="22.647805349033465" lon="107.60482971109242">
        <ele>95.46754925791174</ele>
        <time>2023-01-31T01:30:55Z</time>
      </trkpt>
      <trkpt lat="22.647527139044776" lon="107.60486547987965">
        <ele>98.34183206874877</ele>
        <time>2023-01-31T01:31:39Z</time>
      </trkpt>
      <trkpt lat="22.6472989348231" lon="107.60502843486604">
        <ele>97.5470189023763</ele>
        <time>2023-01-31T01:32:18Z</time>
      </trkpt>
      <trkpt lat="22.647214432817474" lon="107.60532023855808">
        <ele>95.97202901914716</ele>
        <time>2023-01-31T01:33:07Z</time>
      </trkpt>
      <trkpt lat="22.64689950342165" lon="107.6053745436758">
        <ele>94.60624138545245</ele>
        <time>2023-01-31T01:33:43Z</time>
      </trkpt>
      <trkpt lat="22.64680702268808" lon="107.60509824839178">
        <ele>94.20092177018523</ele>
        <time>2023-01-31T01:34:12Z</time>
      </trkpt>
      <trkpt lat="22.6469360315872" lon="107.60535682053143">
        <ele>94.29546401649714</ele>
        <time>2023-01-31T01:34:33Z</time>
      </trkpt>
      <trkpt lat="22.647134757854094" lon="107.60560416317554">
        <ele>93.28065286017954</ele>
        <time>2023-01-31T01:34:52Z</time>
      </trkpt>
      <trkpt lat="22.64741938926392" lon="107.60552577365115">
        <ele>94.42189703416079</ele>
        <time>2023-01-31T01:35:52Z</time>
      </trkpt>
      <trkpt lat="22.64764863813312" lon="107.60568313340248">
        <ele>97.1554396096617</ele>
        <time>2023-01-31T01:36:10Z</time>
      </trkpt>
      <trkpt lat="22.64791145786301" lon="107.60577097346655">
        <ele>95.06481146067381</ele>
        <time>2023-01-31T01:36:31Z</time>
      </trkpt>
      <trkpt lat="22.64814337694302" lon="107.6056068940198">
        <ele>96.73955739010125</ele>
        <time>2023-01-31T01:37:31Z</time>
      </trkpt>
      <trkpt lat="22.64840146228058" lon="107.60550678164086">
        <ele>96.10962413158268</ele>
        <time>2023-01-31T01:37:51Z</time>
      </trkpt>
      <trkpt lat="22.648576689838148" lon="107.60573694343788">
        <ele>98.36312601808459</ele>
        <time>2023-01-31T01:38:22Z</time>
      </trkpt>
      <trkpt lat="22.648614123322584" lon="107.60602672253873">
        <ele>99.69839289132506</ele>
        <time>2023-01-31T01:38:41Z</time>
      </trkpt>
      <trkpt lat="22.648583386360215" lon="107.60631943973526">
        <ele>98.41389982774854</ele>
        <time>2023-01-31T01:38:59Z</time>
      </trkpt>
      <trkpt lat="22.64875966394061" lon="107.60654919038228">
        <ele>98.52314184140414</ele>
        <time>2023-01-31T01:39:21Z</time>
      </trkpt>
      <trkpt lat="22.649030838911674" lon="107.60658713220487">
        <ele>95.24053360149264</ele>
        <time>2023-01-31T01:39:48Z</time>
      </trkpt>
      <trkpt lat="22.649163559444595" lon="107.60632028354905">
        <ele>93.73583078291267</ele>
        <time>2023-01-31T01:40:10Z</time>
      </trkpt>
      <trkpt lat="22.649001880249877" lon="107.60606545327711">
        <ele>94.532356091775</ele>
        <time>2023-01-31T01:40:29Z</time>
      </trkpt>
    </trkseg>
  </trk>
</gpx>